<?xml version="1.0" encoding="UTF-8"?>
<osm version="0.6" upload="false" generator="vectormap-rs 0.1.0">
  <node id="27" visible="true" version="1" lat="0.00000000000" lon="0.00000000000">
    <tag k="ele" v="28.033749999999998"/>
    <tag k="local_x" v="-9338.572414855731"/>
    <tag k="local_y" v="-40851.15922431803"/>
  </node>
  <node id="28" visible="true" version="1" lat="0.00000000000" lon="0.00000000000">
    <tag k="ele" v="28.0565"/>
    <tag k="local_x" v="-9336.989132270823"/>
    <tag k="local_y" v="-40849.95239751528"/>
  </node>
  <node id="29" visible="true" version="1" lat="0.00000000000" lon="0.00000000000">
    <tag k="ele" v="28.131249999999998"/>
    <tag k="local_x" v="-9335.248761035355"/>
    <tag k="local_y" v="-40848.92138165792"/>
  </node>
  <node id="30" visible="true" version="1" lat="0.00000000000" lon="0.00000000000">
    <tag k="ele" v="28.160749999999997"/>
    <tag k="local_x" v="-9333.429014819869"/>
    <tag k="local_y" v="-40847.972141516206"/>
  </node>
  <node id="31" visible="true" version="1" lat="0.00000000000" lon="0.00000000000">
    <tag k="ele" v="28.075999999999997"/>
    <tag k="local_x" v="-9336.107946537457"/>
    <tag k="local_y" v="-40853.92018783233"/>
  </node>
  <node id="32" visible="true" version="1" lat="0.00000000000" lon="0.00000000000">
    <tag k="ele" v="28.107999999999997"/>
    <tag k="local_x" v="-9334.456106353631"/>
    <tag k="local_y" v="-40852.7614075643"/>
  </node>
  <node id="33" visible="true" version="1" lat="0.00000000000" lon="0.00000000000">
    <tag k="ele" v="28.131249999999998"/>
    <tag k="local_x" v="-9332.729716895807"/>
    <tag k="local_y" v="-40851.678236230466"/>
  </node>
  <node id="34" visible="true" version="1" lat="0.00000000000" lon="0.00000000000">
    <tag k="ele" v="28.160749999999997"/>
    <tag k="local_x" v="-9331.004212542457"/>
    <tag k="local_y" v="-40850.58415421039"/>
  </node>
  <node id="35" visible="true" version="1" lat="0.00000000000" lon="0.00000000000">
    <tag k="ele" v="28.075999999999997"/>
    <tag k="local_x" v="-9333.777124867653"/>
    <tag k="local_y" v="-40856.531425940346"/>
  </node>
  <node id="36" visible="true" version="1" lat="0.00000000000" lon="0.00000000000">
    <tag k="ele" v="28.107999999999997"/>
    <tag k="local_x" v="-9332.112309619952"/>
    <tag k="local_y" v="-40855.36057109164"/>
  </node>
  <node id="37" visible="true" version="1" lat="0.00000000000" lon="0.00000000000">
    <tag k="ele" v="28.131249999999998"/>
    <tag k="local_x" v="-9330.369417103895"/>
    <tag k="local_y" v="-40854.26136019076"/>
  </node>
  <node id="38" visible="true" version="1" lat="0.00000000000" lon="0.00000000000">
    <tag k="ele" v="28.160749999999997"/>
    <tag k="local_x" v="-9328.62455666589"/>
    <tag k="local_y" v="-40853.14753490962"/>
  </node>
  <node id="39" visible="true" version="1" lat="0.00000000000" lon="0.00000000000">
    <tag k="ele" v="28.088749999999997"/>
    <tag k="local_x" v="-9330.54224240191"/>
    <tag k="local_y" v="-40860.15549056912"/>
  </node>
  <node id="40" visible="true" version="1" lat="0.00000000000" lon="0.00000000000">
    <tag k="ele" v="28.115"/>
    <tag k="local_x" v="-9328.952839307407"/>
    <tag k="local_y" v="-40858.86427936295"/>
  </node>
  <node id="41" visible="true" version="1" lat="0.00000000000" lon="0.00000000000">
    <tag k="ele" v="28.14175"/>
    <tag k="local_x" v="-9327.402574871265"/>
    <tag k="local_y" v="-40857.508287247976"/>
  </node>
  <node id="42" visible="true" version="1" lat="0.00000000000" lon="0.00000000000">
    <tag k="ele" v="28.160749999999997"/>
    <tag k="local_x" v="-9325.893429067728"/>
    <tag k="local_y" v="-40856.08952322029"/>
  </node>
  <node id="43" visible="true" version="1" lat="0.00000000000" lon="0.00000000000">
    <tag k="ele" v="28.075999999999997"/>
    <tag k="local_x" v="-9329.073881685485"/>
    <tag k="local_y" v="-40861.80050679183"/>
  </node>
  <node id="44" visible="true" version="1" lat="0.00000000000" lon="0.00000000000">
    <tag k="ele" v="28.107999999999997"/>
    <tag k="local_x" v="-9327.386157853436"/>
    <tag k="local_y" v="-40860.601657538966"/>
  </node>
  <node id="45" visible="true" version="1" lat="0.00000000000" lon="0.00000000000">
    <tag k="ele" v="28.131249999999998"/>
    <tag k="local_x" v="-9325.497130403763"/>
    <tag k="local_y" v="-40859.59361525414"/>
  </node>
  <node id="46" visible="true" version="1" lat="0.00000000000" lon="0.00000000000">
    <tag k="ele" v="28.113999999999997"/>
    <tag k="local_x" v="-9323.668408101217"/>
    <tag k="local_y" v="-40858.4863301944"/>
  </node>
  <node id="47" visible="true" version="1" lat="0.00000000000" lon="0.00000000000">
    <tag k="ele" v="28.075999999999997"/>
    <tag k="local_x" v="-9326.785066981174"/>
    <tag k="local_y" v="-40864.364684161344"/>
  </node>
  <node id="48" visible="true" version="1" lat="0.00000000000" lon="0.00000000000">
    <tag k="ele" v="28.107999999999997"/>
    <tag k="local_x" v="-9325.080659258469"/>
    <tag k="local_y" v="-40863.1583501797"/>
  </node>
  <node id="49" visible="true" version="1" lat="0.00000000000" lon="0.00000000000">
    <tag k="ele" v="28.131249999999998"/>
    <tag k="local_x" v="-9323.286595276586"/>
    <tag k="local_y" v="-40862.0128360123"/>
  </node>
  <node id="50" visible="true" version="1" lat="0.00000000000" lon="0.00000000000">
    <tag k="ele" v="28.160749999999997"/>
    <tag k="local_x" v="-9321.480616024754"/>
    <tag k="local_y" v="-40860.8430339674"/>
  </node>
  <node id="51" visible="true" version="1" lat="0.00000000000" lon="0.00000000000">
    <tag k="ele" v="28.075999999999997"/>
    <tag k="local_x" v="-9324.433602729463"/>
    <tag k="local_y" v="-40866.999048318525"/>
  </node>
  <node id="52" visible="true" version="1" lat="0.00000000000" lon="0.00000000000">
    <tag k="ele" v="28.107999999999997"/>
    <tag k="local_x" v="-9322.698379582687"/>
    <tag k="local_y" v="-40865.800189532165"/>
  </node>
  <node id="53" visible="true" version="1" lat="0.00000000000" lon="0.00000000000">
    <tag k="ele" v="28.131249999999998"/>
    <tag k="local_x" v="-9320.780421060088"/>
    <tag k="local_y" v="-40864.75560567635"/>
  </node>
  <node id="54" visible="true" version="1" lat="0.00000000000" lon="0.00000000000">
    <tag k="ele" v="28.028499999999998"/>
    <tag k="local_x" v="-9318.906321246868"/>
    <tag k="local_y" v="-40863.61608094985"/>
  </node>
  <node id="55" visible="true" version="1" lat="0.00000000000" lon="0.00000000000">
    <tag k="ele" v="28.221749999999997"/>
    <tag k="local_x" v="-9330.50953539652"/>
    <tag k="local_y" v="-40845.29209931633"/>
  </node>
  <node id="56" visible="true" version="1" lat="0.00000000000" lon="0.00000000000">
    <tag k="ele" v="28.245749999999997"/>
    <tag k="local_x" v="-9329.275923993027"/>
    <tag k="local_y" v="-40843.722912674064"/>
  </node>
  <node id="57" visible="true" version="1" lat="0.00000000000" lon="0.00000000000">
    <tag k="ele" v="28.24"/>
    <tag k="local_x" v="-9328.111332415236"/>
    <tag k="local_y" v="-40842.094277024466"/>
  </node>
  <node id="58" visible="true" version="1" lat="0.00000000000" lon="0.00000000000">
    <tag k="ele" v="28.264"/>
    <tag k="local_x" v="-9326.83757579101"/>
    <tag k="local_y" v="-40840.583741361115"/>
  </node>
  <node id="59" visible="true" version="1" lat="0.00000000000" lon="0.00000000000">
    <tag k="ele" v="28.296249999999997"/>
    <tag k="local_x" v="-9325.49545642095"/>
    <tag k="local_y" v="-40839.14403966368"/>
  </node>
  <node id="60" visible="true" version="1" lat="0.00000000000" lon="0.00000000000">
    <tag k="ele" v="28.3295"/>
    <tag k="local_x" v="-9324.13323134003"/>
    <tag k="local_y" v="-40837.724130296425"/>
  </node>
  <node id="61" visible="true" version="1" lat="0.00000000000" lon="0.00000000000">
    <tag k="ele" v="28.345249999999997"/>
    <tag k="local_x" v="-9322.75978299843"/>
    <tag k="local_y" v="-40836.312991652216"/>
  </node>
  <node id="62" visible="true" version="1" lat="0.00000000000" lon="0.00000000000">
    <tag k="ele" v="28.380499999999998"/>
    <tag k="local_x" v="-9321.371532282297"/>
    <tag k="local_y" v="-40834.912732998055"/>
  </node>
  <node id="63" visible="true" version="1" lat="0.00000000000" lon="0.00000000000">
    <tag k="ele" v="28.418499999999998"/>
    <tag k="local_x" v="-9320.037353618583"/>
    <tag k="local_y" v="-40833.46330107533"/>
  </node>
  <node id="64" visible="true" version="1" lat="0.00000000000" lon="0.00000000000">
    <tag k="ele" v="28.440749999999998"/>
    <tag k="local_x" v="-9318.744034340158"/>
    <tag k="local_y" v="-40831.97957990623"/>
  </node>
  <node id="65" visible="true" version="1" lat="0.00000000000" lon="0.00000000000">
    <tag k="ele" v="28.46875"/>
    <tag k="local_x" v="-9317.463084642312"/>
    <tag k="local_y" v="-40830.4866412074"/>
  </node>
  <node id="66" visible="true" version="1" lat="0.00000000000" lon="0.00000000000">
    <tag k="ele" v="28.535999999999998"/>
    <tag k="local_x" v="-9316.174986965008"/>
    <tag k="local_y" v="-40828.99912594738"/>
  </node>
  <node id="67" visible="true" version="1" lat="0.00000000000" lon="0.00000000000">
    <tag k="ele" v="28.5615"/>
    <tag k="local_x" v="-9314.910653775036"/>
    <tag k="local_y" v="-40827.4873695423"/>
  </node>
  <node id="68" visible="true" version="1" lat="0.00000000000" lon="0.00000000000">
    <tag k="ele" v="28.542749999999998"/>
    <tag k="local_x" v="-9313.744706995874"/>
    <tag k="local_y" v="-40826.05120744983"/>
  </node>
  <node id="69" visible="true" version="1" lat="0.00000000000" lon="0.00000000000">
    <tag k="ele" v="28.56675"/>
    <tag k="local_x" v="-9312.92049199855"/>
    <tag k="local_y" v="-40825.024312515714"/>
  </node>
  <node id="70" visible="true" version="1" lat="0.00000000000" lon="0.00000000000">
    <tag k="ele" v="28.6375"/>
    <tag k="local_x" v="-9311.908792682741"/>
    <tag k="local_y" v="-40823.755839815814"/>
  </node>
  <node id="71" visible="true" version="1" lat="0.00000000000" lon="0.00000000000">
    <tag k="ele" v="28.221749999999997"/>
    <tag k="local_x" v="-9327.898080871675"/>
    <tag k="local_y" v="-40848.00378661398"/>
  </node>
  <node id="72" visible="true" version="1" lat="0.00000000000" lon="0.00000000000">
    <tag k="ele" v="28.245749999999997"/>
    <tag k="local_x" v="-9326.54445919201"/>
    <tag k="local_y" v="-40846.502573071244"/>
  </node>
  <node id="73" visible="true" version="1" lat="0.00000000000" lon="0.00000000000">
    <tag k="ele" v="28.270999999999997"/>
    <tag k="local_x" v="-9325.285814988003"/>
    <tag k="local_y" v="-40844.90899268217"/>
  </node>
  <node id="74" visible="true" version="1" lat="0.00000000000" lon="0.00000000000">
    <tag k="ele" v="28.290999999999997"/>
    <tag k="local_x" v="-9324.082380854961"/>
    <tag k="local_y" v="-40843.26774177904"/>
  </node>
  <node id="75" visible="true" version="1" lat="0.00000000000" lon="0.00000000000">
    <tag k="ele" v="28.318749999999998"/>
    <tag k="local_x" v="-9322.85541203237"/>
    <tag k="local_y" v="-40841.657265461596"/>
  </node>
  <node id="76" visible="true" version="1" lat="0.00000000000" lon="0.00000000000">
    <tag k="ele" v="28.3405"/>
    <tag k="local_x" v="-9321.58632838617"/>
    <tag k="local_y" v="-40840.09284394293"/>
  </node>
  <node id="77" visible="true" version="1" lat="0.00000000000" lon="0.00000000000">
    <tag k="ele" v="28.388749999999998"/>
    <tag k="local_x" v="-9320.276991314478"/>
    <tag k="local_y" v="-40838.56939030403"/>
  </node>
  <node id="78" visible="true" version="1" lat="0.00000000000" lon="0.00000000000">
    <tag k="ele" v="28.419249999999998"/>
    <tag k="local_x" v="-9318.923177337887"/>
    <tag k="local_y" v="-40837.08717402961"/>
  </node>
  <node id="79" visible="true" version="1" lat="0.00000000000" lon="0.00000000000">
    <tag k="ele" v="28.444"/>
    <tag k="local_x" v="-9317.52456518018"/>
    <tag k="local_y" v="-40835.64269407079"/>
  </node>
  <node id="80" visible="true" version="1" lat="0.00000000000" lon="0.00000000000">
    <tag k="ele" v="28.474999999999998"/>
    <tag k="local_x" v="-9316.109788165537"/>
    <tag k="local_y" v="-40834.20780463494"/>
  </node>
  <node id="81" visible="true" version="1" lat="0.00000000000" lon="0.00000000000">
    <tag k="ele" v="28.5035"/>
    <tag k="local_x" v="-9314.674022961826"/>
    <tag k="local_y" v="-40832.7845030457"/>
  </node>
  <node id="82" visible="true" version="1" lat="0.00000000000" lon="0.00000000000">
    <tag k="ele" v="28.535999999999998"/>
    <tag k="local_x" v="-9313.203439333722"/>
    <tag k="local_y" v="-40831.38185102565"/>
  </node>
  <node id="83" visible="true" version="1" lat="0.00000000000" lon="0.00000000000">
    <tag k="ele" v="28.5615"/>
    <tag k="local_x" v="-9311.71924184706"/>
    <tag k="local_y" v="-40829.982937348606"/>
  </node>
  <node id="84" visible="true" version="1" lat="0.00000000000" lon="0.00000000000">
    <tag k="ele" v="28.591499999999996"/>
    <tag k="local_x" v="-9310.090083789099"/>
    <tag k="local_y" v="-40828.85548425845"/>
  </node>
  <node id="85" visible="true" version="1" lat="0.00000000000" lon="0.00000000000">
    <tag k="ele" v="28.6175"/>
    <tag k="local_x" v="-9309.266466327683"/>
    <tag k="local_y" v="-40827.77195059505"/>
  </node>
  <node id="86" visible="true" version="1" lat="0.00000000000" lon="0.00000000000">
    <tag k="ele" v="28.6375"/>
    <tag k="local_x" v="-9308.60644661155"/>
    <tag k="local_y" v="-40826.21701468781"/>
  </node>
  <node id="87" visible="true" version="1" lat="0.00000000000" lon="0.00000000000">
    <tag k="ele" v="28.221749999999997"/>
    <tag k="local_x" v="-9325.474522349774"/>
    <tag k="local_y" v="-40850.520366089695"/>
  </node>
  <node id="88" visible="true" version="1" lat="0.00000000000" lon="0.00000000000">
    <tag k="ele" v="28.245749999999997"/>
    <tag k="local_x" v="-9324.095693316218"/>
    <tag k="local_y" v="-40848.99454643453"/>
  </node>
  <node id="89" visible="true" version="1" lat="0.00000000000" lon="0.00000000000">
    <tag k="ele" v="28.270999999999997"/>
    <tag k="local_x" v="-9322.807065730382"/>
    <tag k="local_y" v="-40847.37826584244"/>
  </node>
  <node id="90" visible="true" version="1" lat="0.00000000000" lon="0.00000000000">
    <tag k="ele" v="28.290999999999997"/>
    <tag k="local_x" v="-9321.565501193367"/>
    <tag k="local_y" v="-40845.719585013496"/>
  </node>
  <node id="91" visible="true" version="1" lat="0.00000000000" lon="0.00000000000">
    <tag k="ele" v="28.318749999999998"/>
    <tag k="local_x" v="-9320.288757663371"/>
    <tag k="local_y" v="-40844.10062664234"/>
  </node>
  <node id="92" visible="true" version="1" lat="0.00000000000" lon="0.00000000000">
    <tag k="ele" v="28.3405"/>
    <tag k="local_x" v="-9318.957230884978"/>
    <tag k="local_y" v="-40842.53800154881"/>
  </node>
  <node id="93" visible="true" version="1" lat="0.00000000000" lon="0.00000000000">
    <tag k="ele" v="28.377999999999997"/>
    <tag k="local_x" v="-9317.579815854759"/>
    <tag k="local_y" v="-40841.02062417532"/>
  </node>
  <node id="94" visible="true" version="1" lat="0.00000000000" lon="0.00000000000">
    <tag k="ele" v="28.419249999999998"/>
    <tag k="local_x" v="-9316.17572416651"/>
    <tag k="local_y" v="-40839.52725116049"/>
  </node>
  <node id="95" visible="true" version="1" lat="0.00000000000" lon="0.00000000000">
    <tag k="ele" v="28.49375"/>
    <tag k="local_x" v="-9314.77380725735"/>
    <tag k="local_y" v="-40838.02848288516"/>
  </node>
  <node id="96" visible="true" version="1" lat="0.00000000000" lon="0.00000000000">
    <tag k="ele" v="28.52425"/>
    <tag k="local_x" v="-9313.384354179681"/>
    <tag k="local_y" v="-40836.51316222158"/>
  </node>
  <node id="97" visible="true" version="1" lat="0.00000000000" lon="0.00000000000">
    <tag k="ele" v="28.5035"/>
    <tag k="local_x" v="-9311.954954391049"/>
    <tag k="local_y" v="-40835.02469871734"/>
  </node>
  <node id="98" visible="true" version="1" lat="0.00000000000" lon="0.00000000000">
    <tag k="ele" v="28.535999999999998"/>
    <tag k="local_x" v="-9310.473226654012"/>
    <tag k="local_y" v="-40833.57106251682"/>
  </node>
  <node id="99" visible="true" version="1" lat="0.00000000000" lon="0.00000000000">
    <tag k="ele" v="28.5615"/>
    <tag k="local_x" v="-9308.963234988685"/>
    <tag k="local_y" v="-40832.138034260235"/>
  </node>
  <node id="100" visible="true" version="1" lat="0.00000000000" lon="0.00000000000">
    <tag k="ele" v="28.591499999999996"/>
    <tag k="local_x" v="-9307.313341884159"/>
    <tag k="local_y" v="-40830.98614246505"/>
  </node>
  <node id="101" visible="true" version="1" lat="0.00000000000" lon="0.00000000000">
    <tag k="ele" v="28.6175"/>
    <tag k="local_x" v="-9306.469084452245"/>
    <tag k="local_y" v="-40829.875436901864"/>
  </node>
  <node id="102" visible="true" version="1" lat="0.00000000000" lon="0.00000000000">
    <tag k="ele" v="28.6375"/>
    <tag k="local_x" v="-9305.80010236313"/>
    <tag k="local_y" v="-40828.30852896206"/>
  </node>
  <node id="103" visible="true" version="1" lat="0.00000000000" lon="0.00000000000">
    <tag k="ele" v="28.221749999999997"/>
    <tag k="local_x" v="-9323.009756742364"/>
    <tag k="local_y" v="-40853.0797342601"/>
  </node>
  <node id="104" visible="true" version="1" lat="0.00000000000" lon="0.00000000000">
    <tag k="ele" v="28.245749999999997"/>
    <tag k="local_x" v="-9321.658206811979"/>
    <tag k="local_y" v="-40851.475041406295"/>
  </node>
  <node id="105" visible="true" version="1" lat="0.00000000000" lon="0.00000000000">
    <tag k="ele" v="28.270999999999997"/>
    <tag k="local_x" v="-9320.358664372478"/>
    <tag k="local_y" v="-40849.81730712105"/>
  </node>
  <node id="106" visible="true" version="1" lat="0.00000000000" lon="0.00000000000">
    <tag k="ele" v="28.290999999999997"/>
    <tag k="local_x" v="-9319.091956916165"/>
    <tag k="local_y" v="-40848.12921265433"/>
  </node>
  <node id="107" visible="true" version="1" lat="0.00000000000" lon="0.00000000000">
    <tag k="ele" v="28.318749999999998"/>
    <tag k="local_x" v="-9317.793116163943"/>
    <tag k="local_y" v="-40846.47638616588"/>
  </node>
  <node id="108" visible="true" version="1" lat="0.00000000000" lon="0.00000000000">
    <tag k="ele" v="28.3405"/>
    <tag k="local_x" v="-9316.45211908729"/>
    <tag k="local_y" v="-40844.86784787933"/>
  </node>
  <node id="109" visible="true" version="1" lat="0.00000000000" lon="0.00000000000">
    <tag k="ele" v="28.377999999999997"/>
    <tag k="local_x" v="-9315.07776502259"/>
    <tag k="local_y" v="-40843.294525832454"/>
  </node>
  <node id="110" visible="true" version="1" lat="0.00000000000" lon="0.00000000000">
    <tag k="ele" v="28.544999999999998"/>
    <tag k="local_x" v="-9313.673604072806"/>
    <tag k="local_y" v="-40841.74944227296"/>
  </node>
  <node id="111" visible="true" version="1" lat="0.00000000000" lon="0.00000000000">
    <tag k="ele" v="28.444"/>
    <tag k="local_x" v="-9312.22911987761"/>
    <tag k="local_y" v="-40840.235542487266"/>
  </node>
  <node id="112" visible="true" version="1" lat="0.00000000000" lon="0.00000000000">
    <tag k="ele" v="28.474999999999998"/>
    <tag k="local_x" v="-9310.79469970361"/>
    <tag k="local_y" v="-40838.70366825629"/>
  </node>
  <node id="113" visible="true" version="1" lat="0.00000000000" lon="0.00000000000">
    <tag k="ele" v="28.627249999999997"/>
    <tag k="local_x" v="-9309.391869887957"/>
    <tag k="local_y" v="-40837.13638169274"/>
  </node>
  <node id="114" visible="true" version="1" lat="0.00000000000" lon="0.00000000000">
    <tag k="ele" v="28.639"/>
    <tag k="local_x" v="-9308.027732837943"/>
    <tag k="local_y" v="-40835.53197318268"/>
  </node>
  <node id="115" visible="true" version="1" lat="0.00000000000" lon="0.00000000000">
    <tag k="ele" v="28.741749999999996"/>
    <tag k="local_x" v="-9306.701139581695"/>
    <tag k="local_y" v="-40833.9069104191"/>
  </node>
  <node id="116" visible="true" version="1" lat="0.00000000000" lon="0.00000000000">
    <tag k="ele" v="28.733749999999997"/>
    <tag k="local_x" v="-9305.542475476677"/>
    <tag k="local_y" v="-40832.34496916665"/>
  </node>
  <node id="117" visible="true" version="1" lat="0.00000000000" lon="0.00000000000">
    <tag k="ele" v="28.688249999999996"/>
    <tag k="local_x" v="-9304.735034138386"/>
    <tag k="local_y" v="-40831.17935293942"/>
  </node>
  <node id="118" visible="true" version="1" lat="0.00000000000" lon="0.00000000000">
    <tag k="ele" v="28.710499999999996"/>
    <tag k="local_x" v="-9303.798621919013"/>
    <tag k="local_y" v="-40829.800193757226"/>
  </node>
  <node id="119" visible="true" version="1" lat="0.00000000000" lon="0.00000000000">
    <tag k="ele" v="28.221749999999997"/>
    <tag k="local_x" v="-9320.527592614366"/>
    <tag k="local_y" v="-40855.6571687406"/>
  </node>
  <node id="120" visible="true" version="1" lat="0.00000000000" lon="0.00000000000">
    <tag k="ele" v="28.245749999999997"/>
    <tag k="local_x" v="-9319.147527519113"/>
    <tag k="local_y" v="-40854.03002062396"/>
  </node>
  <node id="121" visible="true" version="1" lat="0.00000000000" lon="0.00000000000">
    <tag k="ele" v="28.270999999999997"/>
    <tag k="local_x" v="-9317.835961198994"/>
    <tag k="local_y" v="-40852.33036616422"/>
  </node>
  <node id="122" visible="true" version="1" lat="0.00000000000" lon="0.00000000000">
    <tag k="ele" v="28.290999999999997"/>
    <tag k="local_x" v="-9316.552397898593"/>
    <tag k="local_y" v="-40850.6031492079"/>
  </node>
  <node id="123" visible="true" version="1" lat="0.00000000000" lon="0.00000000000">
    <tag k="ele" v="28.318749999999998"/>
    <tag k="local_x" v="-9315.220852761251"/>
    <tag k="local_y" v="-40848.92508694176"/>
  </node>
  <node id="124" visible="true" version="1" lat="0.00000000000" lon="0.00000000000">
    <tag k="ele" v="28.3405"/>
    <tag k="local_x" v="-9313.82820259207"/>
    <tag k="local_y" v="-40847.308186958646"/>
  </node>
  <node id="125" visible="true" version="1" lat="0.00000000000" lon="0.00000000000">
    <tag k="ele" v="28.377999999999997"/>
    <tag k="local_x" v="-9312.389541317289"/>
    <tag k="local_y" v="-40845.73762421386"/>
  </node>
  <node id="126" visible="true" version="1" lat="0.00000000000" lon="0.00000000000">
    <tag k="ele" v="28.419249999999998"/>
    <tag k="local_x" v="-9310.92977683317"/>
    <tag k="local_y" v="-40844.18629912943"/>
  </node>
  <node id="127" visible="true" version="1" lat="0.00000000000" lon="0.00000000000">
    <tag k="ele" v="28.444"/>
    <tag k="local_x" v="-9309.485013653511"/>
    <tag k="local_y" v="-40842.61556214678"/>
  </node>
  <node id="128" visible="true" version="1" lat="0.00000000000" lon="0.00000000000">
    <tag k="ele" v="28.474999999999998"/>
    <tag k="local_x" v="-9308.07647745649"/>
    <tag k="local_y" v="-40841.0029256634"/>
  </node>
  <node id="129" visible="true" version="1" lat="0.00000000000" lon="0.00000000000">
    <tag k="ele" v="28.5035"/>
    <tag k="local_x" v="-9306.721770466513"/>
    <tag k="local_y" v="-40839.336232491296"/>
  </node>
  <node id="130" visible="true" version="1" lat="0.00000000000" lon="0.00000000000">
    <tag k="ele" v="28.535999999999998"/>
    <tag k="local_x" v="-9305.436101269739"/>
    <tag k="local_y" v="-40837.610063894135"/>
  </node>
  <node id="131" visible="true" version="1" lat="0.00000000000" lon="0.00000000000">
    <tag k="ele" v="28.5615"/>
    <tag k="local_x" v="-9304.232738419521"/>
    <tag k="local_y" v="-40835.837110159024"/>
  </node>
  <node id="132" visible="true" version="1" lat="0.00000000000" lon="0.00000000000">
    <tag k="ele" v="28.660749999999997"/>
    <tag k="local_x" v="-9303.1179386921"/>
    <tag k="local_y" v="-40834.20537224843"/>
  </node>
  <node id="133" visible="true" version="1" lat="0.00000000000" lon="0.00000000000">
    <tag k="ele" v="28.6865"/>
    <tag k="local_x" v="-9302.224318676725"/>
    <tag k="local_y" v="-40833.06728094821"/>
  </node>
  <node id="134" visible="true" version="1" lat="0.00000000000" lon="0.00000000000">
    <tag k="ele" v="28.6375"/>
    <tag k="local_x" v="-9300.989226508698"/>
    <tag k="local_y" v="-40831.89398200362"/>
  </node>
  <node id="135" visible="true" version="1" lat="0.00000000000" lon="0.00000000000">
    <tag k="ele" v="28.221749999999997"/>
    <tag k="local_x" v="-9318.190187533155"/>
    <tag k="local_y" v="-40858.084288036735"/>
  </node>
  <node id="136" visible="true" version="1" lat="0.00000000000" lon="0.00000000000">
    <tag k="ele" v="28.245749999999997"/>
    <tag k="local_x" v="-9316.735229575874"/>
    <tag k="local_y" v="-40856.48488259271"/>
  </node>
  <node id="137" visible="true" version="1" lat="0.00000000000" lon="0.00000000000">
    <tag k="ele" v="28.270999999999997"/>
    <tag k="local_x" v="-9315.367395542473"/>
    <tag k="local_y" v="-40854.789494654644"/>
  </node>
  <node id="138" visible="true" version="1" lat="0.00000000000" lon="0.00000000000">
    <tag k="ele" v="28.290999999999997"/>
    <tag k="local_x" v="-9314.044819014029"/>
    <tag k="local_y" v="-40853.04593199835"/>
  </node>
  <node id="139" visible="true" version="1" lat="0.00000000000" lon="0.00000000000">
    <tag k="ele" v="28.318749999999998"/>
    <tag k="local_x" v="-9312.687531494817"/>
    <tag k="local_y" v="-40851.336716226775"/>
  </node>
  <node id="140" visible="true" version="1" lat="0.00000000000" lon="0.00000000000">
    <tag k="ele" v="28.3405"/>
    <tag k="local_x" v="-9311.278483976392"/>
    <tag k="local_y" v="-40849.67951927446"/>
  </node>
  <node id="141" visible="true" version="1" lat="0.00000000000" lon="0.00000000000">
    <tag k="ele" v="28.377999999999997"/>
    <tag k="local_x" v="-9309.828196188837"/>
    <tag k="local_y" v="-40848.065413424716"/>
  </node>
  <node id="142" visible="true" version="1" lat="0.00000000000" lon="0.00000000000">
    <tag k="ele" v="28.419249999999998"/>
    <tag k="local_x" v="-9308.352628392013"/>
    <tag k="local_y" v="-40846.475124664175"/>
  </node>
  <node id="143" visible="true" version="1" lat="0.00000000000" lon="0.00000000000">
    <tag k="ele" v="28.444"/>
    <tag k="local_x" v="-9306.870622117613"/>
    <tag k="local_y" v="-40844.88307759441"/>
  </node>
  <node id="144" visible="true" version="1" lat="0.00000000000" lon="0.00000000000">
    <tag k="ele" v="28.474999999999998"/>
    <tag k="local_x" v="-9305.375411505243"/>
    <tag k="local_y" v="-40843.287671107624"/>
  </node>
  <node id="145" visible="true" version="1" lat="0.00000000000" lon="0.00000000000">
    <tag k="ele" v="28.5035"/>
    <tag k="local_x" v="-9303.848678493667"/>
    <tag k="local_y" v="-40841.70332549915"/>
  </node>
  <node id="146" visible="true" version="1" lat="0.00000000000" lon="0.00000000000">
    <tag k="ele" v="28.535999999999998"/>
    <tag k="local_x" v="-9302.276046658199"/>
    <tag k="local_y" v="-40840.143942635426"/>
  </node>
  <node id="147" visible="true" version="1" lat="0.00000000000" lon="0.00000000000">
    <tag k="ele" v="28.5615"/>
    <tag k="local_x" v="-9300.6907194881"/>
    <tag k="local_y" v="-40838.606839863016"/>
  </node>
  <node id="148" visible="true" version="1" lat="0.00000000000" lon="0.00000000000">
    <tag k="ele" v="28.591499999999996"/>
    <tag k="local_x" v="-9298.983116169336"/>
    <tag k="local_y" v="-40837.378117084845"/>
  </node>
  <node id="149" visible="true" version="1" lat="0.00000000000" lon="0.00000000000">
    <tag k="ele" v="28.6175"/>
    <tag k="local_x" v="-9298.076938825929"/>
    <tag k="local_y" v="-40836.18589582232"/>
  </node>
  <node id="150" visible="true" version="1" lat="0.00000000000" lon="0.00000000000">
    <tag k="ele" v="28.6375"/>
    <tag k="local_x" v="-9297.381069617872"/>
    <tag k="local_y" v="-40834.583071784786"/>
  </node>
  <node id="151" visible="true" version="1" lat="0.00000000000" lon="0.00000000000">
    <tag k="ele" v="28.221749999999997"/>
    <tag k="local_x" v="-9315.669141430033"/>
    <tag k="local_y" v="-40860.70209685922"/>
  </node>
  <node id="152" visible="true" version="1" lat="0.00000000000" lon="0.00000000000">
    <tag k="ele" v="28.245749999999997"/>
    <tag k="local_x" v="-9314.238667581969"/>
    <tag k="local_y" v="-40859.025495417365"/>
  </node>
  <node id="153" visible="true" version="1" lat="0.00000000000" lon="0.00000000000">
    <tag k="ele" v="28.270999999999997"/>
    <tag k="local_x" v="-9312.875579680847"/>
    <tag k="local_y" v="-40857.27178446614"/>
  </node>
  <node id="154" visible="true" version="1" lat="0.00000000000" lon="0.00000000000">
    <tag k="ele" v="28.290999999999997"/>
    <tag k="local_x" v="-9311.540688309211"/>
    <tag k="local_y" v="-40855.485355710385"/>
  </node>
  <node id="155" visible="true" version="1" lat="0.00000000000" lon="0.00000000000">
    <tag k="ele" v="28.318749999999998"/>
    <tag k="local_x" v="-9310.160156427066"/>
    <tag k="local_y" v="-40853.74268494789"/>
  </node>
  <node id="156" visible="true" version="1" lat="0.00000000000" lon="0.00000000000">
    <tag k="ele" v="28.3405"/>
    <tag k="local_x" v="-9308.722689872271"/>
    <tag k="local_y" v="-40852.05650201851"/>
  </node>
  <node id="157" visible="true" version="1" lat="0.00000000000" lon="0.00000000000">
    <tag k="ele" v="28.377999999999997"/>
    <tag k="local_x" v="-9307.242855218512"/>
    <tag k="local_y" v="-40850.41501041976"/>
  </node>
  <node id="158" visible="true" version="1" lat="0.00000000000" lon="0.00000000000">
    <tag k="ele" v="28.419249999999998"/>
    <tag k="local_x" v="-9305.7382295454"/>
    <tag k="local_y" v="-40848.79703315131"/>
  </node>
  <node id="159" visible="true" version="1" lat="0.00000000000" lon="0.00000000000">
    <tag k="ele" v="28.444"/>
    <tag k="local_x" v="-9304.227504284254"/>
    <tag k="local_y" v="-40847.17550794953"/>
  </node>
  <node id="160" visible="true" version="1" lat="0.00000000000" lon="0.00000000000">
    <tag k="ele" v="28.474999999999998"/>
    <tag k="local_x" v="-9302.703254708405"/>
    <tag k="local_y" v="-40845.5479632212"/>
  </node>
  <node id="161" visible="true" version="1" lat="0.00000000000" lon="0.00000000000">
    <tag k="ele" v="28.5035"/>
    <tag k="local_x" v="-9301.147120612886"/>
    <tag k="local_y" v="-40843.92909440261"/>
  </node>
  <node id="162" visible="true" version="1" lat="0.00000000000" lon="0.00000000000">
    <tag k="ele" v="28.535999999999998"/>
    <tag k="local_x" v="-9299.545148516981"/>
    <tag k="local_y" v="-40842.333703761506"/>
  </node>
  <node id="163" visible="true" version="1" lat="0.00000000000" lon="0.00000000000">
    <tag k="ele" v="28.5615"/>
    <tag k="local_x" v="-9297.93358889836"/>
    <tag k="local_y" v="-40840.76281549162"/>
  </node>
  <node id="164" visible="true" version="1" lat="0.00000000000" lon="0.00000000000">
    <tag k="ele" v="28.591499999999996"/>
    <tag k="local_x" v="-9296.206374264395"/>
    <tag k="local_y" v="-40839.50877529144"/>
  </node>
  <node id="165" visible="true" version="1" lat="0.00000000000" lon="0.00000000000">
    <tag k="ele" v="28.6175"/>
    <tag k="local_x" v="-9295.27955695049"/>
    <tag k="local_y" v="-40838.289382129136"/>
  </node>
  <node id="166" visible="true" version="1" lat="0.00000000000" lon="0.00000000000">
    <tag k="ele" v="28.6375"/>
    <tag k="local_x" v="-9294.574725369452"/>
    <tag k="local_y" v="-40836.67458605903"/>
  </node>
  <way id="1" visible="true" version="1">
    <nd ref="27"/>
    <nd ref="28"/>
    <nd ref="29"/>
    <nd ref="30"/>
    <tag k="subtype" v="solid"/>
    <tag k="type" v="line_thin"/>
  </way>
  <way id="2" visible="true" version="1">
    <nd ref="31"/>
    <nd ref="32"/>
    <nd ref="33"/>
    <nd ref="34"/>
    <tag k="subtype" v="dashed"/>
    <tag k="type" v="line_thin"/>
  </way>
  <way id="3" visible="true" version="1">
    <nd ref="35"/>
    <nd ref="36"/>
    <nd ref="37"/>
    <nd ref="38"/>
    <tag k="subtype" v="dashed"/>
    <tag k="type" v="line_thin"/>
  </way>
  <way id="4" visible="true" version="1">
    <nd ref="39"/>
    <nd ref="40"/>
    <nd ref="41"/>
    <nd ref="42"/>
    <tag k="subtype" v="solid"/>
    <tag k="type" v="line_thin"/>
  </way>
  <way id="5" visible="true" version="1">
    <nd ref="43"/>
    <nd ref="44"/>
    <nd ref="45"/>
    <nd ref="46"/>
    <tag k="subtype" v="dashed"/>
    <tag k="type" v="line_thin"/>
  </way>
  <way id="6" visible="true" version="1">
    <nd ref="47"/>
    <nd ref="48"/>
    <nd ref="49"/>
    <nd ref="50"/>
    <tag k="subtype" v="dashed"/>
    <tag k="type" v="line_thin"/>
  </way>
  <way id="7" visible="true" version="1">
    <nd ref="51"/>
    <nd ref="52"/>
    <nd ref="53"/>
    <nd ref="54"/>
    <tag k="subtype" v="solid"/>
    <tag k="type" v="line_thin"/>
  </way>
  <way id="14" visible="true" version="1">
    <nd ref="55"/>
    <nd ref="56"/>
    <nd ref="57"/>
    <nd ref="58"/>
    <nd ref="59"/>
    <nd ref="60"/>
    <nd ref="61"/>
    <nd ref="62"/>
    <nd ref="63"/>
    <nd ref="64"/>
    <nd ref="65"/>
    <nd ref="66"/>
    <nd ref="67"/>
    <nd ref="68"/>
    <nd ref="69"/>
    <nd ref="70"/>
    <tag k="subtype" v="solid"/>
    <tag k="type" v="line_thin"/>
  </way>
  <way id="15" visible="true" version="1">
    <nd ref="71"/>
    <nd ref="72"/>
    <nd ref="73"/>
    <nd ref="74"/>
    <nd ref="75"/>
    <nd ref="76"/>
    <nd ref="77"/>
    <nd ref="78"/>
    <nd ref="79"/>
    <nd ref="80"/>
    <nd ref="81"/>
    <nd ref="82"/>
    <nd ref="83"/>
    <nd ref="84"/>
    <nd ref="85"/>
    <nd ref="86"/>
    <tag k="subtype" v="dashed"/>
    <tag k="type" v="line_thin"/>
  </way>
  <way id="16" visible="true" version="1">
    <nd ref="87"/>
    <nd ref="88"/>
    <nd ref="89"/>
    <nd ref="90"/>
    <nd ref="91"/>
    <nd ref="92"/>
    <nd ref="93"/>
    <nd ref="94"/>
    <nd ref="95"/>
    <nd ref="96"/>
    <nd ref="97"/>
    <nd ref="98"/>
    <nd ref="99"/>
    <nd ref="100"/>
    <nd ref="101"/>
    <nd ref="102"/>
    <tag k="subtype" v="dashed"/>
    <tag k="type" v="line_thin"/>
  </way>
  <way id="17" visible="true" version="1">
    <nd ref="103"/>
    <nd ref="104"/>
    <nd ref="105"/>
    <nd ref="106"/>
    <nd ref="107"/>
    <nd ref="108"/>
    <nd ref="109"/>
    <nd ref="110"/>
    <nd ref="111"/>
    <nd ref="112"/>
    <nd ref="113"/>
    <nd ref="114"/>
    <nd ref="115"/>
    <nd ref="116"/>
    <nd ref="117"/>
    <nd ref="118"/>
    <tag k="subtype" v="solid"/>
    <tag k="type" v="line_thin"/>
  </way>
  <way id="18" visible="true" version="1">
    <nd ref="119"/>
    <nd ref="120"/>
    <nd ref="121"/>
    <nd ref="122"/>
    <nd ref="123"/>
    <nd ref="124"/>
    <nd ref="125"/>
    <nd ref="126"/>
    <nd ref="127"/>
    <nd ref="128"/>
    <nd ref="129"/>
    <nd ref="130"/>
    <nd ref="131"/>
    <nd ref="132"/>
    <nd ref="133"/>
    <nd ref="134"/>
    <tag k="subtype" v="dashed"/>
    <tag k="type" v="line_thin"/>
  </way>
  <way id="19" visible="true" version="1">
    <nd ref="135"/>
    <nd ref="136"/>
    <nd ref="137"/>
    <nd ref="138"/>
    <nd ref="139"/>
    <nd ref="140"/>
    <nd ref="141"/>
    <nd ref="142"/>
    <nd ref="143"/>
    <nd ref="144"/>
    <nd ref="145"/>
    <nd ref="146"/>
    <nd ref="147"/>
    <nd ref="148"/>
    <nd ref="149"/>
    <nd ref="150"/>
    <tag k="subtype" v="dashed"/>
    <tag k="type" v="line_thin"/>
  </way>
  <way id="20" visible="true" version="1">
    <nd ref="151"/>
    <nd ref="152"/>
    <nd ref="153"/>
    <nd ref="154"/>
    <nd ref="155"/>
    <nd ref="156"/>
    <nd ref="157"/>
    <nd ref="158"/>
    <nd ref="159"/>
    <nd ref="160"/>
    <nd ref="161"/>
    <nd ref="162"/>
    <nd ref="163"/>
    <nd ref="164"/>
    <nd ref="165"/>
    <nd ref="166"/>
    <tag k="subtype" v="solid"/>
    <tag k="type" v="line_thin"/>
  </way>
  <relation id="8" visible="true" version="1">
    <member type="way" ref="1" role="left"/>
    <member type="way" ref="2" role="right"/>
    <tag k="location" v="urban"/>
    <tag k="one_way" v="yes"/>
    <tag k="participant:vehicle" v="yes"/>
    <tag k="speed_limit" v="40"/>
    <tag k="subtype" v="road"/>
    <tag k="type" v="lanelet"/>
  </relation>
  <relation id="9" visible="true" version="1">
    <member type="way" ref="2" role="left"/>
    <member type="way" ref="3" role="right"/>
    <tag k="location" v="urban"/>
    <tag k="one_way" v="yes"/>
    <tag k="participant:vehicle" v="yes"/>
    <tag k="speed_limit" v="40"/>
    <tag k="subtype" v="road"/>
    <tag k="type" v="lanelet"/>
  </relation>
  <relation id="10" visible="true" version="1">
    <member type="way" ref="3" role="left"/>
    <member type="way" ref="4" role="right"/>
    <tag k="location" v="urban"/>
    <tag k="one_way" v="yes"/>
    <tag k="participant:vehicle" v="yes"/>
    <tag k="speed_limit" v="40"/>
    <tag k="subtype" v="road"/>
    <tag k="type" v="lanelet"/>
  </relation>
  <relation id="11" visible="true" version="1">
    <member type="way" ref="5" role="left"/>
    <member type="way" ref="4" role="right"/>
    <tag k="location" v="urban"/>
    <tag k="one_way" v="yes"/>
    <tag k="participant:vehicle" v="yes"/>
    <tag k="speed_limit" v="40"/>
    <tag k="subtype" v="road"/>
    <tag k="type" v="lanelet"/>
  </relation>
  <relation id="12" visible="true" version="1">
    <member type="way" ref="6" role="left"/>
    <member type="way" ref="5" role="right"/>
    <tag k="location" v="urban"/>
    <tag k="one_way" v="yes"/>
    <tag k="participant:vehicle" v="yes"/>
    <tag k="speed_limit" v="40"/>
    <tag k="subtype" v="road"/>
    <tag k="type" v="lanelet"/>
  </relation>
  <relation id="13" visible="true" version="1">
    <member type="way" ref="7" role="left"/>
    <member type="way" ref="6" role="right"/>
    <tag k="location" v="urban"/>
    <tag k="one_way" v="yes"/>
    <tag k="participant:vehicle" v="yes"/>
    <tag k="speed_limit" v="40"/>
    <tag k="subtype" v="road"/>
    <tag k="type" v="lanelet"/>
  </relation>
  <relation id="21" visible="true" version="1">
    <member type="way" ref="14" role="left"/>
    <member type="way" ref="15" role="right"/>
    <tag k="location" v="urban"/>
    <tag k="one_way" v="yes"/>
    <tag k="participant:vehicle" v="yes"/>
    <tag k="speed_limit" v="40"/>
    <tag k="subtype" v="road"/>
    <tag k="type" v="lanelet"/>
  </relation>
  <relation id="22" visible="true" version="1">
    <member type="way" ref="15" role="left"/>
    <member type="way" ref="16" role="right"/>
    <tag k="location" v="urban"/>
    <tag k="one_way" v="yes"/>
    <tag k="participant:vehicle" v="yes"/>
    <tag k="speed_limit" v="40"/>
    <tag k="subtype" v="road"/>
    <tag k="type" v="lanelet"/>
  </relation>
  <relation id="23" visible="true" version="1">
    <member type="way" ref="16" role="left"/>
    <member type="way" ref="17" role="right"/>
    <tag k="location" v="urban"/>
    <tag k="one_way" v="yes"/>
    <tag k="participant:vehicle" v="yes"/>
    <tag k="speed_limit" v="40"/>
    <tag k="subtype" v="road"/>
    <tag k="type" v="lanelet"/>
  </relation>
  <relation id="24" visible="true" version="1">
    <member type="way" ref="18" role="left"/>
    <member type="way" ref="17" role="right"/>
    <tag k="location" v="urban"/>
    <tag k="one_way" v="yes"/>
    <tag k="participant:vehicle" v="yes"/>
    <tag k="speed_limit" v="40"/>
    <tag k="subtype" v="road"/>
    <tag k="type" v="lanelet"/>
  </relation>
  <relation id="25" visible="true" version="1">
    <member type="way" ref="19" role="left"/>
    <member type="way" ref="18" role="right"/>
    <tag k="location" v="urban"/>
    <tag k="one_way" v="yes"/>
    <tag k="participant:vehicle" v="yes"/>
    <tag k="speed_limit" v="40"/>
    <tag k="subtype" v="road"/>
    <tag k="type" v="lanelet"/>
  </relation>
  <relation id="26" visible="true" version="1">
    <member type="way" ref="20" role="left"/>
    <member type="way" ref="19" role="right"/>
    <tag k="location" v="urban"/>
    <tag k="one_way" v="yes"/>
    <tag k="participant:vehicle" v="yes"/>
    <tag k="speed_limit" v="40"/>
    <tag k="subtype" v="road"/>
    <tag k="type" v="lanelet"/>
  </relation>
</osm>
