<?xml version="1.0" encoding="UTF-8"?>
<osm version="0.6" upload="false" generator="vectormap-rs 0.1.0">
  <node id="11" visible="true" version="1" lat="0.00000000000" lon="0.00000000000">
    <tag k="ele" v="19.166908264160156"/>
    <tag k="local_x" v="3763.2738500158534"/>
    <tag k="local_y" v="73791.68055345831"/>
  </node>
  <node id="12" visible="true" version="1" lat="0.00000000000" lon="0.00000000000">
    <tag k="ele" v="19.165090560913086"/>
    <tag k="local_x" v="3765.0041701488394"/>
    <tag k="local_y" v="73792.6836959215"/>
  </node>
  <node id="13" visible="true" version="1" lat="0.00000000000" lon="0.00000000000">
    <tag k="ele" v="19.166908264160156"/>
    <tag k="local_x" v="3765.0028829424896"/>
    <tag k="local_y" v="73788.63745550743"/>
  </node>
  <node id="14" visible="true" version="1" lat="0.00000000000" lon="0.00000000000">
    <tag k="ele" v="19.165090560913086"/>
    <tag k="local_x" v="3766.733203075468"/>
    <tag k="local_y" v="73789.64059797062"/>
  </node>
  <node id="15" visible="true" version="1" lat="0.00000000000" lon="0.00000000000">
    <tag k="ele" v="18.788000106811523"/>
    <tag k="local_x" v="3766.7956189140195"/>
    <tag k="local_y" v="73785.48224019755"/>
  </node>
  <node id="16" visible="true" version="1" lat="0.00000000000" lon="0.00000000000">
    <tag k="ele" v="19.165090560913086"/>
    <tag k="local_x" v="3768.5117755573"/>
    <tag k="local_y" v="73786.51031040258"/>
  </node>
  <node id="17" visible="true" version="1" lat="0.00000000000" lon="0.00000000000">
    <tag k="ele" v="19.164230346679688"/>
    <tag k="local_x" v="3768.291383545257"/>
    <tag k="local_y" v="73794.9952121383"/>
  </node>
  <node id="18" visible="true" version="1" lat="0.00000000000" lon="0.00000000000">
    <tag k="ele" v="19.165306091308594"/>
    <tag k="local_x" v="3769.9155347684805"/>
    <tag k="local_y" v="73796.18521188264"/>
  </node>
  <node id="19" visible="true" version="1" lat="0.00000000000" lon="0.00000000000">
    <tag k="ele" v="19.168582916259766"/>
    <tag k="local_x" v="3771.5740577653714"/>
    <tag k="local_y" v="73797.31471730536"/>
  </node>
  <node id="20" visible="true" version="1" lat="0.00000000000" lon="0.00000000000">
    <tag k="ele" v="19.169357299804688"/>
    <tag k="local_x" v="3773.2691222185863"/>
    <tag k="local_y" v="73798.37990976498"/>
  </node>
  <node id="21" visible="true" version="1" lat="0.00000000000" lon="0.00000000000">
    <tag k="ele" v="19.171274185180664"/>
    <tag k="local_x" v="3774.99053704052"/>
    <tag k="local_y" v="73799.39872557556"/>
  </node>
  <node id="22" visible="true" version="1" lat="0.00000000000" lon="0.00000000000">
    <tag k="ele" v="19.17092514038086"/>
    <tag k="local_x" v="3776.7267125388184"/>
    <tag k="local_y" v="73800.3915625958"/>
  </node>
  <node id="23" visible="true" version="1" lat="0.00000000000" lon="0.00000000000">
    <tag k="ele" v="19.167308807373047"/>
    <tag k="local_x" v="3778.4690349894972"/>
    <tag k="local_y" v="73801.37358097985"/>
  </node>
  <node id="24" visible="true" version="1" lat="0.00000000000" lon="0.00000000000">
    <tag k="ele" v="19.167076110839844"/>
    <tag k="local_x" v="3780.2125510410838"/>
    <tag k="local_y" v="73802.35349862631"/>
  </node>
  <node id="25" visible="true" version="1" lat="0.00000000000" lon="0.00000000000">
    <tag k="ele" v="19.17057991027832"/>
    <tag k="local_x" v="3781.955115380674"/>
    <tag k="local_y" v="73803.3350912859"/>
  </node>
  <node id="26" visible="true" version="1" lat="0.00000000000" lon="0.00000000000">
    <tag k="ele" v="19.173498153686523"/>
    <tag k="local_x" v="3783.696239999655"/>
    <tag k="local_y" v="73804.3192178537"/>
  </node>
  <node id="27" visible="true" version="1" lat="0.00000000000" lon="0.00000000000">
    <tag k="ele" v="19.17261505126953"/>
    <tag k="local_x" v="3785.436181387625"/>
    <tag k="local_y" v="73805.30542690812"/>
  </node>
  <node id="28" visible="true" version="1" lat="0.00000000000" lon="0.00000000000">
    <tag k="ele" v="19.174152374267578"/>
    <tag k="local_x" v="3787.175387656251"/>
    <tag k="local_y" v="73806.29292977258"/>
  </node>
  <node id="29" visible="true" version="1" lat="0.00000000000" lon="0.00000000000">
    <tag k="ele" v="19.172000885009766"/>
    <tag k="local_x" v="3788.9142414709936"/>
    <tag k="local_y" v="73807.28105295588"/>
  </node>
  <node id="30" visible="true" version="1" lat="0.00000000000" lon="0.00000000000">
    <tag k="ele" v="19.171001434326172"/>
    <tag k="local_x" v="3790.6529867626714"/>
    <tag k="local_y" v="73808.2693671398"/>
  </node>
  <node id="31" visible="true" version="1" lat="0.00000000000" lon="0.00000000000">
    <tag k="ele" v="19.16916847229004"/>
    <tag k="local_x" v="3792.3917435523986"/>
    <tag k="local_y" v="73809.25766108707"/>
  </node>
  <node id="32" visible="true" version="1" lat="0.00000000000" lon="0.00000000000">
    <tag k="ele" v="19.167455673217773"/>
    <tag k="local_x" v="3794.1305499074883"/>
    <tag k="local_y" v="73810.24586779937"/>
  </node>
  <node id="33" visible="true" version="1" lat="0.00000000000" lon="0.00000000000">
    <tag k="ele" v="19.16892433166504"/>
    <tag k="local_x" v="3795.734764800478"/>
    <tag k="local_y" v="73811.15749400403"/>
  </node>
  <node id="34" visible="true" version="1" lat="0.00000000000" lon="0.00000000000">
    <tag k="ele" v="19.172924041748047"/>
    <tag k="local_x" v="3796.8706198569985"/>
    <tag k="local_y" v="73811.80294167633"/>
  </node>
  <node id="35" visible="true" version="1" lat="0.00000000000" lon="0.00000000000">
    <tag k="ele" v="19.172924041748047"/>
    <tag k="local_x" v="3798.135423213058"/>
    <tag k="local_y" v="73812.52165514501"/>
  </node>
  <node id="36" visible="true" version="1" lat="0.00000000000" lon="0.00000000000">
    <tag k="ele" v="19.164230346679688"/>
    <tag k="local_x" v="3770.0204164718853"/>
    <tag k="local_y" v="73791.95211418741"/>
  </node>
  <node id="37" visible="true" version="1" lat="0.00000000000" lon="0.00000000000">
    <tag k="ele" v="19.165306091308594"/>
    <tag k="local_x" v="3771.644567695114"/>
    <tag k="local_y" v="73793.14211393177"/>
  </node>
  <node id="38" visible="true" version="1" lat="0.00000000000" lon="0.00000000000">
    <tag k="ele" v="19.168582916259766"/>
    <tag k="local_x" v="3773.303090692012"/>
    <tag k="local_y" v="73794.27161935449"/>
  </node>
  <node id="39" visible="true" version="1" lat="0.00000000000" lon="0.00000000000">
    <tag k="ele" v="19.169357299804688"/>
    <tag k="local_x" v="3774.9981551452"/>
    <tag k="local_y" v="73795.33681181408"/>
  </node>
  <node id="40" visible="true" version="1" lat="0.00000000000" lon="0.00000000000">
    <tag k="ele" v="19.171274185180664"/>
    <tag k="local_x" v="3776.719569967153"/>
    <tag k="local_y" v="73796.3556276247"/>
  </node>
  <node id="41" visible="true" version="1" lat="0.00000000000" lon="0.00000000000">
    <tag k="ele" v="19.17092514038086"/>
    <tag k="local_x" v="3778.4557454654587"/>
    <tag k="local_y" v="73797.34846464494"/>
  </node>
  <node id="42" visible="true" version="1" lat="0.00000000000" lon="0.00000000000">
    <tag k="ele" v="19.167308807373047"/>
    <tag k="local_x" v="3780.1980679161375"/>
    <tag k="local_y" v="73798.33048302899"/>
  </node>
  <node id="43" visible="true" version="1" lat="0.00000000000" lon="0.00000000000">
    <tag k="ele" v="19.167076110839844"/>
    <tag k="local_x" v="3781.9415839677245"/>
    <tag k="local_y" v="73799.31040067544"/>
  </node>
  <node id="44" visible="true" version="1" lat="0.00000000000" lon="0.00000000000">
    <tag k="ele" v="19.17057991027832"/>
    <tag k="local_x" v="3783.6841483072876"/>
    <tag k="local_y" v="73800.29199333502"/>
  </node>
  <node id="45" visible="true" version="1" lat="0.00000000000" lon="0.00000000000">
    <tag k="ele" v="19.173498153686523"/>
    <tag k="local_x" v="3785.425272926288"/>
    <tag k="local_y" v="73801.27611990283"/>
  </node>
  <node id="46" visible="true" version="1" lat="0.00000000000" lon="0.00000000000">
    <tag k="ele" v="19.17261505126953"/>
    <tag k="local_x" v="3787.1652143142655"/>
    <tag k="local_y" v="73802.26232895725"/>
  </node>
  <node id="47" visible="true" version="1" lat="0.00000000000" lon="0.00000000000">
    <tag k="ele" v="19.174152374267578"/>
    <tag k="local_x" v="3788.904420582892"/>
    <tag k="local_y" v="73803.24983182171"/>
  </node>
  <node id="48" visible="true" version="1" lat="0.00000000000" lon="0.00000000000">
    <tag k="ele" v="19.172000885009766"/>
    <tag k="local_x" v="3790.6432743976347"/>
    <tag k="local_y" v="73804.23795500501"/>
  </node>
  <node id="49" visible="true" version="1" lat="0.00000000000" lon="0.00000000000">
    <tag k="ele" v="19.171001434326172"/>
    <tag k="local_x" v="3792.3820196892857"/>
    <tag k="local_y" v="73805.22626918892"/>
  </node>
  <node id="50" visible="true" version="1" lat="0.00000000000" lon="0.00000000000">
    <tag k="ele" v="19.16916847229004"/>
    <tag k="local_x" v="3794.1207764790315"/>
    <tag k="local_y" v="73806.21456313621"/>
  </node>
  <node id="51" visible="true" version="1" lat="0.00000000000" lon="0.00000000000">
    <tag k="ele" v="19.167455673217773"/>
    <tag k="local_x" v="3795.8595828341277"/>
    <tag k="local_y" v="73807.2027698485"/>
  </node>
  <node id="52" visible="true" version="1" lat="0.00000000000" lon="0.00000000000">
    <tag k="ele" v="19.16892433166504"/>
    <tag k="local_x" v="3797.4637977271127"/>
    <tag k="local_y" v="73808.11439605316"/>
  </node>
  <node id="53" visible="true" version="1" lat="0.00000000000" lon="0.00000000000">
    <tag k="ele" v="19.172924041748047"/>
    <tag k="local_x" v="3798.599652783634"/>
    <tag k="local_y" v="73808.75984372546"/>
  </node>
  <node id="54" visible="true" version="1" lat="0.00000000000" lon="0.00000000000">
    <tag k="ele" v="19.172924041748047"/>
    <tag k="local_x" v="3799.8644561396904"/>
    <tag k="local_y" v="73809.47855719415"/>
  </node>
  <node id="55" visible="true" version="1" lat="0.00000000000" lon="0.00000000000">
    <tag k="ele" v="19.164230346679688"/>
    <tag k="local_x" v="3771.7629171439353"/>
    <tag k="local_y" v="73788.8853130046"/>
  </node>
  <node id="56" visible="true" version="1" lat="0.00000000000" lon="0.00000000000">
    <tag k="ele" v="19.165306091308594"/>
    <tag k="local_x" v="3773.3772212169447"/>
    <tag k="local_y" v="73790.09264373333"/>
  </node>
  <node id="57" visible="true" version="1" lat="0.00000000000" lon="0.00000000000">
    <tag k="ele" v="19.168582916259766"/>
    <tag k="local_x" v="3775.0311045953413"/>
    <tag k="local_y" v="73791.23031488465"/>
  </node>
  <node id="58" visible="true" version="1" lat="0.00000000000" lon="0.00000000000">
    <tag k="ele" v="19.169357299804688"/>
    <tag k="local_x" v="3776.7248013502335"/>
    <tag k="local_y" v="73792.29791449319"/>
  </node>
  <node id="59" visible="true" version="1" lat="0.00000000000" lon="0.00000000000">
    <tag k="ele" v="19.171274185180664"/>
    <tag k="local_x" v="3778.446439538529"/>
    <tag k="local_y" v="73793.31633717906"/>
  </node>
  <node id="60" visible="true" version="1" lat="0.00000000000" lon="0.00000000000">
    <tag k="ele" v="19.17092514038086"/>
    <tag k="local_x" v="3780.1833452925607"/>
    <tag k="local_y" v="73794.30788894926"/>
  </node>
  <node id="61" visible="true" version="1" lat="0.00000000000" lon="0.00000000000">
    <tag k="ele" v="19.167308807373047"/>
    <tag k="local_x" v="3781.9263615519117"/>
    <tag k="local_y" v="73795.28868623004"/>
  </node>
  <node id="62" visible="true" version="1" lat="0.00000000000" lon="0.00000000000">
    <tag k="ele" v="19.167076110839844"/>
    <tag k="local_x" v="3783.6703499035953"/>
    <tag k="local_y" v="73796.26777262833"/>
  </node>
  <node id="63" visible="true" version="1" lat="0.00000000000" lon="0.00000000000">
    <tag k="ele" v="19.17057991027832"/>
    <tag k="local_x" v="3785.413164795839"/>
    <tag k="local_y" v="73797.24892431514"/>
  </node>
  <node id="64" visible="true" version="1" lat="0.00000000000" lon="0.00000000000">
    <tag k="ele" v="19.173498153686523"/>
    <tag k="local_x" v="3787.1543847290277"/>
    <tag k="local_y" v="73798.23288313"/>
  </node>
  <node id="65" visible="true" version="1" lat="0.00000000000" lon="0.00000000000">
    <tag k="ele" v="19.17261505126953"/>
    <tag k="local_x" v="3788.89433681107"/>
    <tag k="local_y" v="73799.2190733629"/>
  </node>
  <node id="66" visible="true" version="1" lat="0.00000000000" lon="0.00000000000">
    <tag k="ele" v="19.174152374267578"/>
    <tag k="local_x" v="3790.6335200529816"/>
    <tag k="local_y" v="73800.20661675437"/>
  </node>
  <node id="67" visible="true" version="1" lat="0.00000000000" lon="0.00000000000">
    <tag k="ele" v="19.172000885009766"/>
    <tag k="local_x" v="3792.3723456270664"/>
    <tag k="local_y" v="73801.19478964123"/>
  </node>
  <node id="68" visible="true" version="1" lat="0.00000000000" lon="0.00000000000">
    <tag k="ele" v="19.171001434326172"/>
    <tag k="local_x" v="3794.111069335056"/>
    <tag k="local_y" v="73802.18314181233"/>
  </node>
  <node id="69" visible="true" version="1" lat="0.00000000000" lon="0.00000000000">
    <tag k="ele" v="19.16916847229004"/>
    <tag k="local_x" v="3795.849813493448"/>
    <tag k="local_y" v="73803.17145799081"/>
  </node>
  <node id="70" visible="true" version="1" lat="0.00000000000" lon="0.00000000000">
    <tag k="ele" v="19.167455673217773"/>
    <tag k="local_x" v="3797.588614284951"/>
    <tag k="local_y" v="73804.15967449507"/>
  </node>
  <node id="71" visible="true" version="1" lat="0.00000000000" lon="0.00000000000">
    <tag k="ele" v="19.16892433166504"/>
    <tag k="local_x" v="3799.1928275926834"/>
    <tag k="local_y" v="73805.07130348975"/>
  </node>
  <node id="72" visible="true" version="1" lat="0.00000000000" lon="0.00000000000">
    <tag k="ele" v="19.172924041748047"/>
    <tag k="local_x" v="3800.3286822649065"/>
    <tag k="local_y" v="73805.71675183842"/>
  </node>
  <node id="73" visible="true" version="1" lat="0.00000000000" lon="0.00000000000">
    <tag k="ele" v="19.172924041748047"/>
    <tag k="local_x" v="3801.5934854226794"/>
    <tag k="local_y" v="73806.43546565608"/>
  </node>
  <way id="1" visible="true" version="1">
    <nd ref="11"/>
    <nd ref="12"/>
    <tag k="subtype" v="solid"/>
    <tag k="type" v="line_thin"/>
  </way>
  <way id="2" visible="true" version="1">
    <nd ref="13"/>
    <nd ref="14"/>
    <tag k="subtype" v="solid"/>
    <tag k="type" v="line_thin"/>
  </way>
  <way id="3" visible="true" version="1">
    <nd ref="15"/>
    <nd ref="16"/>
    <tag k="subtype" v="solid"/>
    <tag k="type" v="line_thin"/>
  </way>
  <way id="6" visible="true" version="1">
    <nd ref="17"/>
    <nd ref="18"/>
    <nd ref="19"/>
    <nd ref="20"/>
    <nd ref="21"/>
    <nd ref="22"/>
    <nd ref="23"/>
    <nd ref="24"/>
    <nd ref="25"/>
    <nd ref="26"/>
    <nd ref="27"/>
    <nd ref="28"/>
    <nd ref="29"/>
    <nd ref="30"/>
    <nd ref="31"/>
    <nd ref="32"/>
    <nd ref="33"/>
    <nd ref="34"/>
    <nd ref="35"/>
    <tag k="subtype" v="solid"/>
    <tag k="type" v="line_thin"/>
  </way>
  <way id="7" visible="true" version="1">
    <nd ref="36"/>
    <nd ref="37"/>
    <nd ref="38"/>
    <nd ref="39"/>
    <nd ref="40"/>
    <nd ref="41"/>
    <nd ref="42"/>
    <nd ref="43"/>
    <nd ref="44"/>
    <nd ref="45"/>
    <nd ref="46"/>
    <nd ref="47"/>
    <nd ref="48"/>
    <nd ref="49"/>
    <nd ref="50"/>
    <nd ref="51"/>
    <nd ref="52"/>
    <nd ref="53"/>
    <nd ref="54"/>
    <tag k="subtype" v="solid"/>
    <tag k="type" v="line_thin"/>
  </way>
  <way id="8" visible="true" version="1">
    <nd ref="55"/>
    <nd ref="56"/>
    <nd ref="57"/>
    <nd ref="58"/>
    <nd ref="59"/>
    <nd ref="60"/>
    <nd ref="61"/>
    <nd ref="62"/>
    <nd ref="63"/>
    <nd ref="64"/>
    <nd ref="65"/>
    <nd ref="66"/>
    <nd ref="67"/>
    <nd ref="68"/>
    <nd ref="69"/>
    <nd ref="70"/>
    <nd ref="71"/>
    <nd ref="72"/>
    <nd ref="73"/>
    <tag k="subtype" v="solid"/>
    <tag k="type" v="line_thin"/>
  </way>
  <relation id="4" visible="true" version="1">
    <member type="way" ref="1" role="left"/>
    <member type="way" ref="2" role="right"/>
    <tag k="location" v="urban"/>
    <tag k="one_way" v="yes"/>
    <tag k="participant:vehicle" v="yes"/>
    <tag k="speed_limit" v="40"/>
    <tag k="subtype" v="road"/>
    <tag k="type" v="lanelet"/>
  </relation>
  <relation id="5" visible="true" version="1">
    <member type="way" ref="3" role="left"/>
    <member type="way" ref="2" role="right"/>
    <tag k="location" v="urban"/>
    <tag k="one_way" v="yes"/>
    <tag k="participant:vehicle" v="yes"/>
    <tag k="speed_limit" v="40"/>
    <tag k="subtype" v="road"/>
    <tag k="type" v="lanelet"/>
  </relation>
  <relation id="9" visible="true" version="1">
    <member type="way" ref="6" role="left"/>
    <member type="way" ref="7" role="right"/>
    <tag k="location" v="urban"/>
    <tag k="one_way" v="yes"/>
    <tag k="participant:vehicle" v="yes"/>
    <tag k="speed_limit" v="40"/>
    <tag k="subtype" v="road"/>
    <tag k="type" v="lanelet"/>
  </relation>
  <relation id="10" visible="true" version="1">
    <member type="way" ref="8" role="left"/>
    <member type="way" ref="7" role="right"/>
    <tag k="location" v="urban"/>
    <tag k="one_way" v="yes"/>
    <tag k="participant:vehicle" v="yes"/>
    <tag k="speed_limit" v="40"/>
    <tag k="subtype" v="road"/>
    <tag k="type" v="lanelet"/>
  </relation>
</osm>
