<?xml version="1.0" encoding="UTF-8"?>
<osm version="0.6" upload="false" generator="vectormap-rs 0.1.0">
  <node id="37" visible="true" version="1" lat="0.00000000000" lon="0.00000000000">
    <tag k="ele" v="-0.74640745387856"/>
    <tag k="local_x" v="5.485225512949275"/>
    <tag k="local_y" v="4.67734838128473"/>
  </node>
  <node id="38" visible="true" version="1" lat="0.00000000000" lon="0.00000000000">
    <tag k="ele" v="-0.8596732151139168"/>
    <tag k="local_x" v="6.640678874147864"/>
    <tag k="local_y" v="6.1572645589825585"/>
  </node>
  <node id="39" visible="true" version="1" lat="0.00000000000" lon="0.00000000000">
    <tag k="ele" v="-0.9900000095367432"/>
    <tag k="local_x" v="7.866869553822735"/>
    <tag k="local_y" v="7.891691736677277"/>
  </node>
  <node id="40" visible="true" version="1" lat="0.00000000000" lon="0.00000000000">
    <tag k="ele" v="-1.0200971927713782"/>
    <tag k="local_x" v="9.340112195846249"/>
    <tag k="local_y" v="9.972634174863822"/>
  </node>
  <node id="41" visible="true" version="1" lat="0.00000000000" lon="0.00000000000">
    <tag k="ele" v="-1.131783438679884"/>
    <tag k="local_x" v="11.762844421381237"/>
    <tag k="local_y" v="11.163317440196234"/>
  </node>
  <node id="42" visible="true" version="1" lat="0.00000000000" lon="0.00000000000">
    <tag k="ele" v="-0.8462395383379657"/>
    <tag k="local_x" v="7.767896544699606"/>
    <tag k="local_y" v="2.730706924619462"/>
  </node>
  <node id="43" visible="true" version="1" lat="0.00000000000" lon="0.00000000000">
    <tag k="ele" v="-0.9940677087292557"/>
    <tag k="local_x" v="9.453029048728151"/>
    <tag k="local_y" v="4.073833135695909"/>
  </node>
  <node id="44" visible="true" version="1" lat="0.00000000000" lon="0.00000000000">
    <tag k="ele" v="-1.0743442299480221"/>
    <tag k="local_x" v="10.523851333434298"/>
    <tag k="local_y" v="5.613436302619856"/>
  </node>
  <node id="45" visible="true" version="1" lat="0.00000000000" lon="0.00000000000">
    <tag k="ele" v="-1.141278341286971"/>
    <tag k="local_x" v="10.775649182201661"/>
    <tag k="local_y" v="7.925872449404403"/>
  </node>
  <node id="46" visible="true" version="1" lat="0.00000000000" lon="0.00000000000">
    <tag k="ele" v="-1.3373098680470754"/>
    <tag k="local_x" v="12.774115951822713"/>
    <tag k="local_y" v="7.812596638380817"/>
  </node>
  <node id="47" visible="true" version="1" lat="0.00000000000" lon="0.00000000000">
    <tag k="ele" v="-1.5109619571930346"/>
    <tag k="local_x" v="17.05805677902088"/>
    <tag k="local_y" v="10.619777405688458"/>
  </node>
  <node id="48" visible="true" version="1" lat="0.00000000000" lon="0.00000000000">
    <tag k="ele" v="-1.7844730833392817"/>
    <tag k="local_x" v="22.251502879154245"/>
    <tag k="local_y" v="9.291338797025555"/>
  </node>
  <node id="49" visible="true" version="1" lat="0.00000000000" lon="0.00000000000">
    <tag k="ele" v="-1.6358481637562303"/>
    <tag k="local_x" v="15.475076395095456"/>
    <tag k="local_y" v="6.9463358171903735"/>
  </node>
  <node id="50" visible="true" version="1" lat="0.00000000000" lon="0.00000000000">
    <tag k="ele" v="-1.6138776328112043"/>
    <tag k="local_x" v="17.023349736227065"/>
    <tag k="local_y" v="7.5835874351169625"/>
  </node>
  <node id="51" visible="true" version="1" lat="0.00000000000" lon="0.00000000000">
    <tag k="ele" v="-2.0201798153342323"/>
    <tag k="local_x" v="23.78344625775665"/>
    <tag k="local_y" v="0.7544757292623978"/>
  </node>
  <node id="52" visible="true" version="1" lat="0.00000000000" lon="0.00000000000">
    <tag k="ele" v="-2.0601073446651306"/>
    <tag k="local_x" v="20.179461798199252"/>
    <tag k="local_y" v="-0.3110984584374923"/>
  </node>
  <node id="53" visible="true" version="1" lat="0.00000000000" lon="0.00000000000">
    <tag k="ele" v="-2.07963053642226"/>
    <tag k="local_x" v="19.82254438143414"/>
    <tag k="local_y" v="-1.987185380792766"/>
  </node>
  <node id="54" visible="true" version="1" lat="0.00000000000" lon="0.00000000000">
    <tag k="ele" v="-2.001068992905707"/>
    <tag k="local_x" v="15.423041570695142"/>
    <tag k="local_y" v="-1.9130927906749793"/>
  </node>
  <node id="55" visible="true" version="1" lat="0.00000000000" lon="0.00000000000">
    <tag k="ele" v="-2.1258928535319828"/>
    <tag k="local_x" v="15.865591161043106"/>
    <tag k="local_y" v="-4.413354702130459"/>
  </node>
  <node id="56" visible="true" version="1" lat="0.00000000000" lon="0.00000000000">
    <tag k="ele" v="-1.7042654008111393"/>
    <tag k="local_x" v="15.650942163561549"/>
    <tag k="local_y" v="4.609651102432841"/>
  </node>
  <node id="57" visible="true" version="1" lat="0.00000000000" lon="0.00000000000">
    <tag k="ele" v="-1.8487633838861948"/>
    <tag k="local_x" v="15.471342885981743"/>
    <tag k="local_y" v="2.532071657545689"/>
  </node>
  <node id="58" visible="true" version="1" lat="0.00000000000" lon="0.00000000000">
    <tag k="ele" v="-1.8923496694610138"/>
    <tag k="local_x" v="14.492962913250528"/>
    <tag k="local_y" v="0.7688192226130032"/>
  </node>
  <node id="59" visible="true" version="1" lat="0.00000000000" lon="0.00000000000">
    <tag k="ele" v="-1.8324991825759216"/>
    <tag k="local_x" v="12.724724379511485"/>
    <tag k="local_y" v="-0.6019542260058074"/>
  </node>
  <node id="60" visible="true" version="1" lat="0.00000000000" lon="0.00000000000">
    <tag k="ele" v="-1.8280080412766984"/>
    <tag k="local_x" v="11.85242082934212"/>
    <tag k="local_y" v="-2.3775590619064677"/>
  </node>
  <node id="61" visible="true" version="1" lat="0.00000000000" lon="0.00000000000">
    <tag k="ele" v="-2.098244719180463"/>
    <tag k="local_x" v="12.833897428355947"/>
    <tag k="local_y" v="-7.218732364513908"/>
  </node>
  <node id="62" visible="true" version="1" lat="0.00000000000" lon="0.00000000000">
    <tag k="ele" v="-2.1853084618622303"/>
    <tag k="local_x" v="12.568637250937757"/>
    <tag k="local_y" v="-9.247677148345353"/>
  </node>
  <node id="63" visible="true" version="1" lat="0.00000000000" lon="0.00000000000">
    <tag k="ele" v="-2.27768152009614"/>
    <tag k="local_x" v="12.247330370972136"/>
    <tag k="local_y" v="-11.29868567567049"/>
  </node>
  <node id="64" visible="true" version="1" lat="0.00000000000" lon="0.00000000000">
    <tag k="ele" v="-2.244602109968609"/>
    <tag k="local_x" v="10.539699909566691"/>
    <tag k="local_y" v="-12.80863800528342"/>
  </node>
  <node id="65" visible="true" version="1" lat="0.00000000000" lon="0.00000000000">
    <tag k="ele" v="-2.357160354059676"/>
    <tag k="local_x" v="10.53294186439003"/>
    <tag k="local_y" v="-15.057425417562463"/>
  </node>
  <node id="66" visible="true" version="1" lat="0.00000000000" lon="0.00000000000">
    <tag k="ele" v="-2.3016383232200077"/>
    <tag k="local_x" v="9.788456060000069"/>
    <tag k="local_y" v="-16.667168145542487"/>
  </node>
  <node id="67" visible="true" version="1" lat="0.00000000000" lon="0.00000000000">
    <tag k="ele" v="-2.3360550024669107"/>
    <tag k="local_x" v="9.2657817522528"/>
    <tag k="local_y" v="-18.378608311127056"/>
  </node>
  <node id="68" visible="true" version="1" lat="0.00000000000" lon="0.00000000000">
    <tag k="ele" v="-2.3360550024669107"/>
    <tag k="local_x" v="8.723523857779584"/>
    <tag k="local_y" v="-20.280248317694678"/>
  </node>
  <node id="69" visible="true" version="1" lat="0.00000000000" lon="0.00000000000">
    <tag k="ele" v="-2.4872460608067817"/>
    <tag k="local_x" v="7.646459558308031"/>
    <tag k="local_y" v="-22.180156318108704"/>
  </node>
  <node id="70" visible="true" version="1" lat="0.00000000000" lon="0.00000000000">
    <tag k="ele" v="-2.519079250048889"/>
    <tag k="local_x" v="6.795487011863592"/>
    <tag k="local_y" v="-24.25967957448313"/>
  </node>
  <node id="71" visible="true" version="1" lat="0.00000000000" lon="0.00000000000">
    <tag k="ele" v="-2.549177585160021"/>
    <tag k="local_x" v="5.842212603126426"/>
    <tag k="local_y" v="-25.980849401383644"/>
  </node>
  <node id="72" visible="true" version="1" lat="0.00000000000" lon="0.00000000000">
    <tag k="ele" v="-2.6566470598011263"/>
    <tag k="local_x" v="4.692008138071838"/>
    <tag k="local_y" v="-27.49933550622358"/>
  </node>
  <node id="73" visible="true" version="1" lat="0.00000000000" lon="0.00000000000">
    <tag k="ele" v="-2.597745729132784"/>
    <tag k="local_x" v="2.5653249926396406"/>
    <tag k="local_y" v="-28.804302615291345"/>
  </node>
  <node id="74" visible="true" version="1" lat="0.00000000000" lon="0.00000000000">
    <tag k="ele" v="-2.7327555262974705"/>
    <tag k="local_x" v="3.403268517121782"/>
    <tag k="local_y" v="-31.49737871188024"/>
  </node>
  <node id="75" visible="true" version="1" lat="0.00000000000" lon="0.00000000000">
    <tag k="ele" v="-2.7461935058835483"/>
    <tag k="local_x" v="1.620367526202441"/>
    <tag k="local_y" v="-32.71912822180283"/>
  </node>
  <node id="76" visible="true" version="1" lat="0.00000000000" lon="0.00000000000">
    <tag k="ele" v="-2.8419257587819238"/>
    <tag k="local_x" v="1.8395307696592993"/>
    <tag k="local_y" v="-34.93785388116111"/>
  </node>
  <node id="77" visible="true" version="1" lat="0.00000000000" lon="0.00000000000">
    <tag k="ele" v="-2.79201036820645"/>
    <tag k="local_x" v="-0.3839609174346226"/>
    <tag k="local_y" v="-36.185627664858394"/>
  </node>
  <node id="78" visible="true" version="1" lat="0.00000000000" lon="0.00000000000">
    <tag k="ele" v="-2.901968722146097"/>
    <tag k="local_x" v="-0.7608774316907396"/>
    <tag k="local_y" v="-38.19188535525719"/>
  </node>
  <node id="79" visible="true" version="1" lat="0.00000000000" lon="0.00000000000">
    <tag k="ele" v="-2.9156784789087333"/>
    <tag k="local_x" v="-2.4564482274280515"/>
    <tag k="local_y" v="-39.622052400979356"/>
  </node>
  <node id="80" visible="true" version="1" lat="0.00000000000" lon="0.00000000000">
    <tag k="ele" v="-3.0340466543371867"/>
    <tag k="local_x" v="-1.9201241801052573"/>
    <tag k="local_y" v="-42.10415690469706"/>
  </node>
  <node id="81" visible="true" version="1" lat="0.00000000000" lon="0.00000000000">
    <tag k="ele" v="-3.0837754690810044"/>
    <tag k="local_x" v="-2.3530912115742093"/>
    <tag k="local_y" v="-44.03685934001513"/>
  </node>
  <node id="82" visible="true" version="1" lat="0.00000000000" lon="0.00000000000">
    <tag k="ele" v="-3.143440544255527"/>
    <tag k="local_x" v="-3.9495692577689328"/>
    <tag k="local_y" v="-45.416032214643366"/>
  </node>
  <node id="83" visible="true" version="1" lat="0.00000000000" lon="0.00000000000">
    <tag k="ele" v="-3.171066458654069"/>
    <tag k="local_x" v="-4.366569406397106"/>
    <tag k="local_y" v="-47.525709896044916"/>
  </node>
  <node id="84" visible="true" version="1" lat="0.00000000000" lon="0.00000000000">
    <tag k="ele" v="-3.1654472156945155"/>
    <tag k="local_x" v="-5.3880695441247415"/>
    <tag k="local_y" v="-49.36607198433549"/>
  </node>
  <node id="85" visible="true" version="1" lat="0.00000000000" lon="0.00000000000">
    <tag k="ele" v="-3.29430688021371"/>
    <tag k="local_x" v="-5.960099366665167"/>
    <tag k="local_y" v="-51.240676002826355"/>
  </node>
  <node id="86" visible="true" version="1" lat="0.00000000000" lon="0.00000000000">
    <tag k="ele" v="-3.311085899415604"/>
    <tag k="local_x" v="-6.758347678498926"/>
    <tag k="local_y" v="-52.94174511349421"/>
  </node>
  <node id="87" visible="true" version="1" lat="0.00000000000" lon="0.00000000000">
    <tag k="ele" v="-3.339215871860682"/>
    <tag k="local_x" v="-7.641857103375999"/>
    <tag k="local_y" v="-54.68526137518059"/>
  </node>
  <node id="88" visible="true" version="1" lat="0.00000000000" lon="0.00000000000">
    <tag k="ele" v="-3.360238216621553"/>
    <tag k="local_x" v="-8.397536240382903"/>
    <tag k="local_y" v="-56.45137991141285"/>
  </node>
  <node id="89" visible="true" version="1" lat="0.00000000000" lon="0.00000000000">
    <tag k="ele" v="-3.474909971921213"/>
    <tag k="local_x" v="-9.145247888936169"/>
    <tag k="local_y" v="-58.219647387616426"/>
  </node>
  <node id="90" visible="true" version="1" lat="0.00000000000" lon="0.00000000000">
    <tag k="ele" v="-3.512742898053402"/>
    <tag k="local_x" v="-10.756941346193022"/>
    <tag k="local_y" v="-59.80564193228293"/>
  </node>
  <node id="91" visible="true" version="1" lat="0.00000000000" lon="0.00000000000">
    <tag k="ele" v="-3.5155546556777377"/>
    <tag k="local_x" v="-10.88059973764159"/>
    <tag k="local_y" v="-62.1325892278413"/>
  </node>
  <node id="92" visible="true" version="1" lat="0.00000000000" lon="0.00000000000">
    <tag k="ele" v="-3.6172301471476835"/>
    <tag k="local_x" v="-12.313031772727614"/>
    <tag k="local_y" v="-63.64462956675255"/>
  </node>
  <node id="93" visible="true" version="1" lat="0.00000000000" lon="0.00000000000">
    <tag k="ele" v="-3.6332261233747176"/>
    <tag k="local_x" v="-13.246061422568534"/>
    <tag k="local_y" v="-65.26873675025921"/>
  </node>
  <node id="94" visible="true" version="1" lat="0.00000000000" lon="0.00000000000">
    <tag k="ele" v="-3.63324201399101"/>
    <tag k="local_x" v="-13.917675131444373"/>
    <tag k="local_y" v="-67.01017866795786"/>
  </node>
  <node id="95" visible="true" version="1" lat="0.00000000000" lon="0.00000000000">
    <tag k="ele" v="-3.7208090594895986"/>
    <tag k="local_x" v="-14.584908249522323"/>
    <tag k="local_y" v="-68.7141201672872"/>
  </node>
  <node id="96" visible="true" version="1" lat="0.00000000000" lon="0.00000000000">
    <tag k="ele" v="-3.836543958933675"/>
    <tag k="local_x" v="-14.368727994884381"/>
    <tag k="local_y" v="-70.1772682029359"/>
  </node>
  <node id="97" visible="true" version="1" lat="0.00000000000" lon="0.00000000000">
    <tag k="ele" v="-1.9174906518379855"/>
    <tag k="local_x" v="9.609346073941293"/>
    <tag k="local_y" v="-5.857751628888817"/>
  </node>
  <node id="98" visible="true" version="1" lat="0.00000000000" lon="0.00000000000">
    <tag k="ele" v="-1.9151780178713174"/>
    <tag k="local_x" v="8.865741340462044"/>
    <tag k="local_y" v="-7.734877797412704"/>
  </node>
  <node id="99" visible="true" version="1" lat="0.00000000000" lon="0.00000000000">
    <tag k="ele" v="-2.0580854118617253"/>
    <tag k="local_x" v="8.555926713179467"/>
    <tag k="local_y" v="-9.75805624740589"/>
  </node>
  <node id="100" visible="true" version="1" lat="0.00000000000" lon="0.00000000000">
    <tag k="ele" v="-2.1111336477446736"/>
    <tag k="local_x" v="7.810504604692889"/>
    <tag k="local_y" v="-11.563048591449634"/>
  </node>
  <node id="101" visible="true" version="1" lat="0.00000000000" lon="0.00000000000">
    <tag k="ele" v="-2.113383767700348"/>
    <tag k="local_x" v="6.926199240178346"/>
    <tag k="local_y" v="-13.327856788483347"/>
  </node>
  <node id="102" visible="true" version="1" lat="0.00000000000" lon="0.00000000000">
    <tag k="ele" v="-2.151072802111678"/>
    <tag k="local_x" v="6.051770060320434"/>
    <tag k="local_y" v="-15.239870790469544"/>
  </node>
  <node id="103" visible="true" version="1" lat="0.00000000000" lon="0.00000000000">
    <tag k="ele" v="-2.30250507823338"/>
    <tag k="local_x" v="5.431344001803655"/>
    <tag k="local_y" v="-17.239710976890773"/>
  </node>
  <node id="104" visible="true" version="1" lat="0.00000000000" lon="0.00000000000">
    <tag k="ele" v="-2.3166751961947263"/>
    <tag k="local_x" v="4.399489883511054"/>
    <tag k="local_y" v="-19.034162369867847"/>
  </node>
  <node id="105" visible="true" version="1" lat="0.00000000000" lon="0.00000000000">
    <tag k="ele" v="-2.3452399596361353"/>
    <tag k="local_x" v="3.8696902656690697"/>
    <tag k="local_y" v="-20.86257758794515"/>
  </node>
  <node id="106" visible="true" version="1" lat="0.00000000000" lon="0.00000000000">
    <tag k="ele" v="-2.3388840943928466"/>
    <tag k="local_x" v="2.736643153713897"/>
    <tag k="local_y" v="-22.31654125332313"/>
  </node>
  <node id="107" visible="true" version="1" lat="0.00000000000" lon="0.00000000000">
    <tag k="ele" v="-2.441511759584937"/>
    <tag k="local_x" v="2.6832289374448894"/>
    <tag k="local_y" v="-24.473924652115375"/>
  </node>
  <node id="108" visible="true" version="1" lat="0.00000000000" lon="0.00000000000">
    <tag k="ele" v="-2.58354322996256"/>
    <tag k="local_x" v="1.4417789048943823"/>
    <tag k="local_y" v="-26.200871054727628"/>
  </node>
  <node id="109" visible="true" version="1" lat="0.00000000000" lon="0.00000000000">
    <tag k="ele" v="-2.5043648635912175"/>
    <tag k="local_x" v="0.2937649330116905"/>
    <tag k="local_y" v="-27.76026483077248"/>
  </node>
  <node id="110" visible="true" version="1" lat="0.00000000000" lon="0.00000000000">
    <tag k="ele" v="-2.6477506208122015"/>
    <tag k="local_x" v="-0.13111469052987923"/>
    <tag k="local_y" v="-29.62437701901663"/>
  </node>
  <node id="111" visible="true" version="1" lat="0.00000000000" lon="0.00000000000">
    <tag k="ele" v="-2.6477506208122015"/>
    <tag k="local_x" v="-1.1097378072179571"/>
    <tag k="local_y" v="-31.475534691573003"/>
  </node>
  <node id="112" visible="true" version="1" lat="0.00000000000" lon="0.00000000000">
    <tag k="ele" v="-2.689326943807744"/>
    <tag k="local_x" v="-2.306880338821957"/>
    <tag k="local_y" v="-33.189347398627156"/>
  </node>
  <node id="113" visible="true" version="1" lat="0.00000000000" lon="0.00000000000">
    <tag k="ele" v="-2.784691860693742"/>
    <tag k="local_x" v="-2.654239253185439"/>
    <tag k="local_y" v="-35.138805675110135"/>
  </node>
  <node id="114" visible="true" version="1" lat="0.00000000000" lon="0.00000000000">
    <tag k="ele" v="-2.868034379098415"/>
    <tag k="local_x" v="-3.5028416762461565"/>
    <tag k="local_y" v="-36.97466225262578"/>
  </node>
  <node id="115" visible="true" version="1" lat="0.00000000000" lon="0.00000000000">
    <tag k="ele" v="-2.862327741510931"/>
    <tag k="local_x" v="-4.748607288350518"/>
    <tag k="local_y" v="-38.62405097841973"/>
  </node>
  <node id="116" visible="true" version="1" lat="0.00000000000" lon="0.00000000000">
    <tag k="ele" v="-2.910447586591512"/>
    <tag k="local_x" v="-5.528055166312937"/>
    <tag k="local_y" v="-40.377068603896404"/>
  </node>
  <node id="117" visible="true" version="1" lat="0.00000000000" lon="0.00000000000">
    <tag k="ele" v="-3.0360103201231423"/>
    <tag k="local_x" v="-6.004231365521212"/>
    <tag k="local_y" v="-42.40309816522982"/>
  </node>
  <node id="118" visible="true" version="1" lat="0.00000000000" lon="0.00000000000">
    <tag k="ele" v="-3.0578651807983857"/>
    <tag k="local_x" v="-6.7150380560858505"/>
    <tag k="local_y" v="-44.253198466622784"/>
  </node>
  <node id="119" visible="true" version="1" lat="0.00000000000" lon="0.00000000000">
    <tag k="ele" v="-3.061060373003239"/>
    <tag k="local_x" v="-7.489557746778701"/>
    <tag k="local_y" v="-45.94553780863146"/>
  </node>
  <node id="120" visible="true" version="1" lat="0.00000000000" lon="0.00000000000">
    <tag k="ele" v="-3.06105101835548"/>
    <tag k="local_x" v="-8.408368061322058"/>
    <tag k="local_y" v="-47.59751413483899"/>
  </node>
  <node id="121" visible="true" version="1" lat="0.00000000000" lon="0.00000000000">
    <tag k="ele" v="-3.1156826722238233"/>
    <tag k="local_x" v="-9.476858930537626"/>
    <tag k="local_y" v="-49.33478981264825"/>
  </node>
  <node id="122" visible="true" version="1" lat="0.00000000000" lon="0.00000000000">
    <tag k="ele" v="-3.190117005961179"/>
    <tag k="local_x" v="-10.35207154073119"/>
    <tag k="local_y" v="-51.185285947438125"/>
  </node>
  <node id="123" visible="true" version="1" lat="0.00000000000" lon="0.00000000000">
    <tag k="ele" v="-3.19540382262836"/>
    <tag k="local_x" v="-11.266479976288924"/>
    <tag k="local_y" v="-52.99348449002213"/>
  </node>
  <node id="124" visible="true" version="1" lat="0.00000000000" lon="0.00000000000">
    <tag k="ele" v="-3.268522617042002"/>
    <tag k="local_x" v="-12.07841214771096"/>
    <tag k="local_y" v="-54.88576420031007"/>
  </node>
  <node id="125" visible="true" version="1" lat="0.00000000000" lon="0.00000000000">
    <tag k="ele" v="-3.3333267886292663"/>
    <tag k="local_x" v="-12.879375303736365"/>
    <tag k="local_y" v="-56.78566954607298"/>
  </node>
  <node id="126" visible="true" version="1" lat="0.00000000000" lon="0.00000000000">
    <tag k="ele" v="-3.396683723048112"/>
    <tag k="local_x" v="-13.50124227061996"/>
    <tag k="local_y" v="-58.59369620899766"/>
  </node>
  <node id="127" visible="true" version="1" lat="0.00000000000" lon="0.00000000000">
    <tag k="ele" v="-3.4108614545116165"/>
    <tag k="local_x" v="-14.37674274125808"/>
    <tag k="local_y" v="-60.18914277932169"/>
  </node>
  <node id="128" visible="true" version="1" lat="0.00000000000" lon="0.00000000000">
    <tag k="ele" v="-3.4108614545116165"/>
    <tag k="local_x" v="-15.354849526689245"/>
    <tag k="local_y" v="-61.91334543302873"/>
  </node>
  <node id="129" visible="true" version="1" lat="0.00000000000" lon="0.00000000000">
    <tag k="ele" v="-3.458359319981769"/>
    <tag k="local_x" v="-16.405470472597507"/>
    <tag k="local_y" v="-63.762704063165394"/>
  </node>
  <node id="130" visible="true" version="1" lat="0.00000000000" lon="0.00000000000">
    <tag k="ele" v="-3.5348413628211874"/>
    <tag k="local_x" v="-17.181106371362176"/>
    <tag k="local_y" v="-65.74526106497791"/>
  </node>
  <node id="131" visible="true" version="1" lat="0.00000000000" lon="0.00000000000">
    <tag k="ele" v="-3.6781338297287824"/>
    <tag k="local_x" v="-17.954792706874628"/>
    <tag k="local_y" v="-67.76866855874482"/>
  </node>
  <node id="132" visible="true" version="1" lat="0.00000000000" lon="0.00000000000">
    <tag k="ele" v="-3.6968716478598167"/>
    <tag k="local_x" v="-19.868652447394904"/>
    <tag k="local_y" v="-70.20609556280127"/>
  </node>
  <node id="133" visible="true" version="1" lat="0.00000000000" lon="0.00000000000">
    <tag k="ele" v="-3.882323650564055"/>
    <tag k="local_x" v="-13.406396419061323"/>
    <tag k="local_y" v="-72.60579761337807"/>
  </node>
  <node id="134" visible="true" version="1" lat="0.00000000000" lon="0.00000000000">
    <tag k="ele" v="-3.9999561151439456"/>
    <tag k="local_x" v="-13.034773169337678"/>
    <tag k="local_y" v="-73.44677776714735"/>
  </node>
  <node id="135" visible="true" version="1" lat="0.00000000000" lon="0.00000000000">
    <tag k="ele" v="-4.008684103111661"/>
    <tag k="local_x" v="-11.656322838359673"/>
    <tag k="local_y" v="-74.57682700329254"/>
  </node>
  <node id="136" visible="true" version="1" lat="0.00000000000" lon="0.00000000000">
    <tag k="ele" v="-4.056926643523754"/>
    <tag k="local_x" v="-10.052246119463659"/>
    <tag k="local_y" v="-75.93349087732224"/>
  </node>
  <node id="137" visible="true" version="1" lat="0.00000000000" lon="0.00000000000">
    <tag k="ele" v="-4.135507214708747"/>
    <tag k="local_x" v="-8.307044312612309"/>
    <tag k="local_y" v="-76.81342536026149"/>
  </node>
  <node id="138" visible="true" version="1" lat="0.00000000000" lon="0.00000000000">
    <tag k="ele" v="-4.192499827088863"/>
    <tag k="local_x" v="-6.565637360097112"/>
    <tag k="local_y" v="-77.52877376081179"/>
  </node>
  <node id="139" visible="true" version="1" lat="0.00000000000" lon="0.00000000000">
    <tag k="ele" v="-4.192663115481569"/>
    <tag k="local_x" v="-4.785066589018783"/>
    <tag k="local_y" v="-77.54080010194335"/>
  </node>
  <node id="140" visible="true" version="1" lat="0.00000000000" lon="0.00000000000">
    <tag k="ele" v="-3.730948979172755"/>
    <tag k="local_x" v="-21.01905793458549"/>
    <tag k="local_y" v="-77.40656678613125"/>
  </node>
  <node id="141" visible="true" version="1" lat="0.00000000000" lon="0.00000000000">
    <tag k="ele" v="-3.885749953551667"/>
    <tag k="local_x" v="-14.893235919109943"/>
    <tag k="local_y" v="-76.41260247668582"/>
  </node>
  <node id="142" visible="true" version="1" lat="0.00000000000" lon="0.00000000000">
    <tag k="ele" v="-3.9722790824897687"/>
    <tag k="local_x" v="-12.930902256062407"/>
    <tag k="local_y" v="-77.29260448091631"/>
  </node>
  <node id="143" visible="true" version="1" lat="0.00000000000" lon="0.00000000000">
    <tag k="ele" v="-4.0513006502668265"/>
    <tag k="local_x" v="-13.410335087496366"/>
    <tag k="local_y" v="-82.63969982745024"/>
  </node>
  <node id="144" visible="true" version="1" lat="0.00000000000" lon="0.00000000000">
    <tag k="ele" v="-4.071156255558316"/>
    <tag k="local_x" v="-11.419740222953367"/>
    <tag k="local_y" v="-83.63699657845406"/>
  </node>
  <node id="145" visible="true" version="1" lat="0.00000000000" lon="0.00000000000">
    <tag k="ele" v="-4.146632045405009"/>
    <tag k="local_x" v="-7.391800924960545"/>
    <tag k="local_y" v="-79.88831900600039"/>
  </node>
  <node id="146" visible="true" version="1" lat="0.00000000000" lon="0.00000000000">
    <tag k="ele" v="-4.2199604904332295"/>
    <tag k="local_x" v="-5.336749597787984"/>
    <tag k="local_y" v="-80.99704746835613"/>
  </node>
  <node id="147" visible="true" version="1" lat="0.00000000000" lon="0.00000000000">
    <tag k="ele" v="-4.144904680746366"/>
    <tag k="local_x" v="-1.7794477082486715"/>
    <tag k="local_y" v="-76.81578602388444"/>
  </node>
  <node id="148" visible="true" version="1" lat="0.00000000000" lon="0.00000000000">
    <tag k="ele" v="-4.096518111802412"/>
    <tag k="local_x" v="-0.49553387958744644"/>
    <tag k="local_y" v="-76.2672736553693"/>
  </node>
  <node id="149" visible="true" version="1" lat="0.00000000000" lon="0.00000000000">
    <tag k="ele" v="-4.144280498194543"/>
    <tag k="local_x" v="0.8457052701504282"/>
    <tag k="local_y" v="-75.75445224835704"/>
  </node>
  <node id="150" visible="true" version="1" lat="0.00000000000" lon="0.00000000000">
    <tag k="ele" v="-4.123966157710121"/>
    <tag k="local_x" v="1.6520666281323684"/>
    <tag k="local_y" v="-74.38902681845096"/>
  </node>
  <node id="151" visible="true" version="1" lat="0.00000000000" lon="0.00000000000">
    <tag k="ele" v="-4.370112442828391"/>
    <tag k="local_x" v="0.5694117873900064"/>
    <tag k="local_y" v="-84.46319467451559"/>
  </node>
  <node id="152" visible="true" version="1" lat="0.00000000000" lon="0.00000000000">
    <tag k="ele" v="-4.418835723833581"/>
    <tag k="local_x" v="4.845214818410318"/>
    <tag k="local_y" v="-84.72164550340362"/>
  </node>
  <node id="153" visible="true" version="1" lat="0.00000000000" lon="0.00000000000">
    <tag k="ele" v="-4.241287211403527"/>
    <tag k="local_x" v="3.912323087119435"/>
    <tag k="local_y" v="-78.32269194991301"/>
  </node>
  <node id="154" visible="true" version="1" lat="0.00000000000" lon="0.00000000000">
    <tag k="ele" v="-4.134620440430659"/>
    <tag k="local_x" v="4.784116124142011"/>
    <tag k="local_y" v="-75.95116188128827"/>
  </node>
  <node id="155" visible="true" version="1" lat="0.00000000000" lon="0.00000000000">
    <tag k="ele" v="-4.048261939187646"/>
    <tag k="local_x" v="2.8092324128868187"/>
    <tag k="local_y" v="-72.83668809906256"/>
  </node>
  <node id="156" visible="true" version="1" lat="0.00000000000" lon="0.00000000000">
    <tag k="ele" v="-4.0161520908770845"/>
    <tag k="local_x" v="3.619304018609806"/>
    <tag k="local_y" v="-70.97499918582305"/>
  </node>
  <node id="157" visible="true" version="1" lat="0.00000000000" lon="0.00000000000">
    <tag k="ele" v="-4.045835105891351"/>
    <tag k="local_x" v="4.015905281203072"/>
    <tag k="local_y" v="-68.92554097560367"/>
  </node>
  <node id="158" visible="true" version="1" lat="0.00000000000" lon="0.00000000000">
    <tag k="ele" v="-3.9605400175143735"/>
    <tag k="local_x" v="4.867598773980738"/>
    <tag k="local_y" v="-67.16942351897845"/>
  </node>
  <node id="159" visible="true" version="1" lat="0.00000000000" lon="0.00000000000">
    <tag k="ele" v="-3.9254176282223305"/>
    <tag k="local_x" v="5.590582651194662"/>
    <tag k="local_y" v="-65.35448837508683"/>
  </node>
  <node id="160" visible="true" version="1" lat="0.00000000000" lon="0.00000000000">
    <tag k="ele" v="-3.799322072326393"/>
    <tag k="local_x" v="6.8690984896194855"/>
    <tag k="local_y" v="-63.642689948833706"/>
  </node>
  <node id="161" visible="true" version="1" lat="0.00000000000" lon="0.00000000000">
    <tag k="ele" v="-3.7830149203782315"/>
    <tag k="local_x" v="7.827819340524415"/>
    <tag k="local_y" v="-61.88045212610477"/>
  </node>
  <node id="162" visible="true" version="1" lat="0.00000000000" lon="0.00000000000">
    <tag k="ele" v="-3.764870598888417"/>
    <tag k="local_x" v="9.071665437915065"/>
    <tag k="local_y" v="-60.297981166985295"/>
  </node>
  <node id="163" visible="true" version="1" lat="0.00000000000" lon="0.00000000000">
    <tag k="ele" v="-3.7405839925852833"/>
    <tag k="local_x" v="8.985412454950964"/>
    <tag k="local_y" v="-58.06607479000889"/>
  </node>
  <node id="164" visible="true" version="1" lat="0.00000000000" lon="0.00000000000">
    <tag k="ele" v="-3.617127505523742"/>
    <tag k="local_x" v="10.257310572626537"/>
    <tag k="local_y" v="-56.44102725400824"/>
  </node>
  <node id="165" visible="true" version="1" lat="0.00000000000" lon="0.00000000000">
    <tag k="ele" v="-3.6634342284708388"/>
    <tag k="local_x" v="10.628045940473681"/>
    <tag k="local_y" v="-54.448287147587436"/>
  </node>
  <node id="166" visible="true" version="1" lat="0.00000000000" lon="0.00000000000">
    <tag k="ele" v="-3.507247637666661"/>
    <tag k="local_x" v="11.834565277178541"/>
    <tag k="local_y" v="-52.802107522409024"/>
  </node>
  <node id="167" visible="true" version="1" lat="0.00000000000" lon="0.00000000000">
    <tag k="ele" v="-4.1120788972070885"/>
    <tag k="local_x" v="5.57661070410478"/>
    <tag k="local_y" v="-73.99497018616205"/>
  </node>
  <node id="168" visible="true" version="1" lat="0.00000000000" lon="0.00000000000">
    <tag k="ele" v="-4.020405075788965"/>
    <tag k="local_x" v="7.268832495140052"/>
    <tag k="local_y" v="-72.61235739311759"/>
  </node>
  <node id="169" visible="true" version="1" lat="0.00000000000" lon="0.00000000000">
    <tag k="ele" v="-4.025698146803325"/>
    <tag k="local_x" v="8.083379436400655"/>
    <tag k="local_y" v="-70.85054850722523"/>
  </node>
  <node id="170" visible="true" version="1" lat="0.00000000000" lon="0.00000000000">
    <tag k="ele" v="-4.009074296243017"/>
    <tag k="local_x" v="8.984993054786504"/>
    <tag k="local_y" v="-68.98520553683963"/>
  </node>
  <node id="171" visible="true" version="1" lat="0.00000000000" lon="0.00000000000">
    <tag k="ele" v="-3.856070760932587"/>
    <tag k="local_x" v="9.286942509101769"/>
    <tag k="local_y" v="-66.8831884113441"/>
  </node>
  <node id="172" visible="true" version="1" lat="0.00000000000" lon="0.00000000000">
    <tag k="ele" v="-3.8523327869612882"/>
    <tag k="local_x" v="10.018247341421702"/>
    <tag k="local_y" v="-65.17006073197471"/>
  </node>
  <node id="173" visible="true" version="1" lat="0.00000000000" lon="0.00000000000">
    <tag k="ele" v="-3.804920275574414"/>
    <tag k="local_x" v="10.968579661544696"/>
    <tag k="local_y" v="-63.42499885764273"/>
  </node>
  <node id="174" visible="true" version="1" lat="0.00000000000" lon="0.00000000000">
    <tag k="ele" v="-3.7211809104405025"/>
    <tag k="local_x" v="12.266588591368755"/>
    <tag k="local_y" v="-61.72712987986494"/>
  </node>
  <node id="175" visible="true" version="1" lat="0.00000000000" lon="0.00000000000">
    <tag k="ele" v="-3.728411933697006"/>
    <tag k="local_x" v="12.177693341339744"/>
    <tag k="local_y" v="-59.501115814647854"/>
  </node>
  <node id="176" visible="true" version="1" lat="0.00000000000" lon="0.00000000000">
    <tag k="ele" v="-3.6319309033445224"/>
    <tag k="local_x" v="13.44428438590412"/>
    <tag k="local_y" v="-57.88781608223541"/>
  </node>
  <node id="177" visible="true" version="1" lat="0.00000000000" lon="0.00000000000">
    <tag k="ele" v="-3.5506550618295245"/>
    <tag k="local_x" v="14.298060750329945"/>
    <tag k="local_y" v="-56.03919610017891"/>
  </node>
  <node id="178" visible="true" version="1" lat="0.00000000000" lon="0.00000000000">
    <tag k="ele" v="-3.5228510518232574"/>
    <tag k="local_x" v="15.054129458409076"/>
    <tag k="local_y" v="-54.174844381001144"/>
  </node>
  <node id="179" visible="true" version="1" lat="0.00000000000" lon="0.00000000000">
    <tag k="ele" v="-3.3975984633654104"/>
    <tag k="local_x" v="13.59969563701412"/>
    <tag k="local_y" v="-49.09453692694528"/>
  </node>
  <node id="180" visible="true" version="1" lat="0.00000000000" lon="0.00000000000">
    <tag k="ele" v="-3.368009977952798"/>
    <tag k="local_x" v="14.579025570962315"/>
    <tag k="local_y" v="-47.36264120245039"/>
  </node>
  <node id="181" visible="true" version="1" lat="0.00000000000" lon="0.00000000000">
    <tag k="ele" v="-3.347006278834932"/>
    <tag k="local_x" v="15.395623874127757"/>
    <tag k="local_y" v="-45.6832909574633"/>
  </node>
  <node id="182" visible="true" version="1" lat="0.00000000000" lon="0.00000000000">
    <tag k="ele" v="-3.290306569426086"/>
    <tag k="local_x" v="16.489382613187573"/>
    <tag k="local_y" v="-43.95801123839578"/>
  </node>
  <node id="183" visible="true" version="1" lat="0.00000000000" lon="0.00000000000">
    <tag k="ele" v="-3.1964385582584303"/>
    <tag k="local_x" v="16.972247340072048"/>
    <tag k="local_y" v="-41.98710222723725"/>
  </node>
  <node id="184" visible="true" version="1" lat="0.00000000000" lon="0.00000000000">
    <tag k="ele" v="-3.474550275106338"/>
    <tag k="local_x" v="16.686099136066012"/>
    <tag k="local_y" v="-50.74502577605642"/>
  </node>
  <node id="185" visible="true" version="1" lat="0.00000000000" lon="0.00000000000">
    <tag k="ele" v="-3.4354364420414276"/>
    <tag k="local_x" v="17.678585906976643"/>
    <tag k="local_y" v="-48.98828745037974"/>
  </node>
  <node id="186" visible="true" version="1" lat="0.00000000000" lon="0.00000000000">
    <tag k="ele" v="-3.4089750853196574"/>
    <tag k="local_x" v="18.176654384786225"/>
    <tag k="local_y" v="-46.808399529462775"/>
  </node>
  <node id="187" visible="true" version="1" lat="0.00000000000" lon="0.00000000000">
    <tag k="ele" v="-3.3213419535651325"/>
    <tag k="local_x" v="19.248787561253284"/>
    <tag k="local_y" v="-45.13516217714172"/>
  </node>
  <node id="188" visible="true" version="1" lat="0.00000000000" lon="0.00000000000">
    <tag k="ele" v="-3.287225772253678"/>
    <tag k="local_x" v="20.176069582291312"/>
    <tag k="local_y" v="-43.39618811541481"/>
  </node>
  <node id="189" visible="true" version="1" lat="0.00000000000" lon="0.00000000000">
    <tag k="ele" v="-3.0280454294674324"/>
    <tag k="local_x" v="19.360560458240094"/>
    <tag k="local_y" v="-34.55814639914496"/>
  </node>
  <node id="190" visible="true" version="1" lat="0.00000000000" lon="0.00000000000">
    <tag k="ele" v="-3.054279112319662"/>
    <tag k="local_x" v="20.661897872195013"/>
    <tag k="local_y" v="-32.79605897205834"/>
  </node>
  <node id="191" visible="true" version="1" lat="0.00000000000" lon="0.00000000000">
    <tag k="ele" v="-2.9942056440194476"/>
    <tag k="local_x" v="21.596432031183777"/>
    <tag k="local_y" v="-30.915441394882375"/>
  </node>
  <node id="192" visible="true" version="1" lat="0.00000000000" lon="0.00000000000">
    <tag k="ele" v="-2.9583262229316025"/>
    <tag k="local_x" v="22.157483261412988"/>
    <tag k="local_y" v="-29.035255403871307"/>
  </node>
  <node id="193" visible="true" version="1" lat="0.00000000000" lon="0.00000000000">
    <tag k="ele" v="-2.9092746145419213"/>
    <tag k="local_x" v="22.86877819884411"/>
    <tag k="local_y" v="-27.296655172610464"/>
  </node>
  <node id="194" visible="true" version="1" lat="0.00000000000" lon="0.00000000000">
    <tag k="ele" v="-2.8928100281275992"/>
    <tag k="local_x" v="24.177675467552834"/>
    <tag k="local_y" v="-25.68009868510266"/>
  </node>
  <node id="195" visible="true" version="1" lat="0.00000000000" lon="0.00000000000">
    <tag k="ele" v="-2.871512531502644"/>
    <tag k="local_x" v="25.415697238871832"/>
    <tag k="local_y" v="-24.038802471855217"/>
  </node>
  <node id="196" visible="true" version="1" lat="0.00000000000" lon="0.00000000000">
    <tag k="ele" v="-2.871512531502644"/>
    <tag k="local_x" v="26.27750319186239"/>
    <tag k="local_y" v="-22.238925626661917"/>
  </node>
  <node id="197" visible="true" version="1" lat="0.00000000000" lon="0.00000000000">
    <tag k="ele" v="-2.8021889638931703"/>
    <tag k="local_x" v="26.58330037118764"/>
    <tag k="local_y" v="-20.20678853295991"/>
  </node>
  <node id="198" visible="true" version="1" lat="0.00000000000" lon="0.00000000000">
    <tag k="ele" v="-2.783909801968911"/>
    <tag k="local_x" v="27.89356367824541"/>
    <tag k="local_y" v="-18.56263828275451"/>
  </node>
  <node id="199" visible="true" version="1" lat="0.00000000000" lon="0.00000000000">
    <tag k="ele" v="-2.727310331623838"/>
    <tag k="local_x" v="28.735370867037762"/>
    <tag k="local_y" v="-16.911388895483665"/>
  </node>
  <node id="200" visible="true" version="1" lat="0.00000000000" lon="0.00000000000">
    <tag k="ele" v="-3.090442091327493"/>
    <tag k="local_x" v="21.698344516548534"/>
    <tag k="local_y" v="-35.44401642161944"/>
  </node>
  <node id="201" visible="true" version="1" lat="0.00000000000" lon="0.00000000000">
    <tag k="ele" v="-3.103780223876619"/>
    <tag k="local_x" v="22.930539433705206"/>
    <tag k="local_y" v="-33.84642341613886"/>
  </node>
  <node id="202" visible="true" version="1" lat="0.00000000000" lon="0.00000000000">
    <tag k="ele" v="-3.015748980228484"/>
    <tag k="local_x" v="25.53891200248699"/>
    <tag k="local_y" v="-33.08496937946175"/>
  </node>
  <node id="203" visible="true" version="1" lat="0.00000000000" lon="0.00000000000">
    <tag k="ele" v="-3.1719439104190688"/>
    <tag k="local_x" v="28.85019185338402"/>
    <tag k="local_y" v="-32.4201707208264"/>
  </node>
  <node id="204" visible="true" version="1" lat="0.00000000000" lon="0.00000000000">
    <tag k="ele" v="-3.136118807951701"/>
    <tag k="local_x" v="31.105625444797756"/>
    <tag k="local_y" v="-30.92354743001567"/>
  </node>
  <node id="205" visible="true" version="1" lat="0.00000000000" lon="0.00000000000">
    <tag k="ele" v="-3.0196682944456272"/>
    <tag k="local_x" v="28.744566134099287"/>
    <tag k="local_y" v="-27.715659944267045"/>
  </node>
  <node id="206" visible="true" version="1" lat="0.00000000000" lon="0.00000000000">
    <tag k="ele" v="-3.075002057487932"/>
    <tag k="local_x" v="33.62044633699388"/>
    <tag k="local_y" v="-27.737733700854395"/>
  </node>
  <node id="207" visible="true" version="1" lat="0.00000000000" lon="0.00000000000">
    <tag k="ele" v="-3.0473734583753136"/>
    <tag k="local_x" v="34.49202807586155"/>
    <tag k="local_y" v="-25.916095860708555"/>
  </node>
  <node id="208" visible="true" version="1" lat="0.00000000000" lon="0.00000000000">
    <tag k="ele" v="-2.988057394659073"/>
    <tag k="local_x" v="35.28083294607749"/>
    <tag k="local_y" v="-24.028166178355605"/>
  </node>
  <node id="209" visible="true" version="1" lat="0.00000000000" lon="0.00000000000">
    <tag k="ele" v="-2.9384812866706502"/>
    <tag k="local_x" v="35.9991044087111"/>
    <tag k="local_y" v="-22.474186501396556"/>
  </node>
  <node id="210" visible="true" version="1" lat="0.00000000000" lon="0.00000000000">
    <tag k="ele" v="-2.9018766416557957"/>
    <tag k="local_x" v="37.21037961610238"/>
    <tag k="local_y" v="-19.94028749122407"/>
  </node>
  <node id="211" visible="true" version="1" lat="0.00000000000" lon="0.00000000000">
    <tag k="ele" v="-2.349623568099142"/>
    <tag k="local_x" v="24.331538270224552"/>
    <tag k="local_y" v="-11.881787641087413"/>
  </node>
  <node id="212" visible="true" version="1" lat="0.00000000000" lon="0.00000000000">
    <tag k="ele" v="-2.405403965350939"/>
    <tag k="local_x" v="22.803075370734785"/>
    <tag k="local_y" v="-10.61458616064332"/>
  </node>
  <node id="213" visible="true" version="1" lat="0.00000000000" lon="0.00000000000">
    <tag k="ele" v="-2.289425758788835"/>
    <tag k="local_x" v="21.208231490265067"/>
    <tag k="local_y" v="-9.294859970054894"/>
  </node>
  <node id="214" visible="true" version="1" lat="0.00000000000" lon="0.00000000000">
    <tag k="ele" v="-2.216339809541619"/>
    <tag k="local_x" v="27.76975884813804"/>
    <tag k="local_y" v="-5.216306468837939"/>
  </node>
  <node id="215" visible="true" version="1" lat="0.00000000000" lon="0.00000000000">
    <tag k="ele" v="-2.293809059304338"/>
    <tag k="local_x" v="25.374477303472702"/>
    <tag k="local_y" v="-5.193526107451535"/>
  </node>
  <node id="216" visible="true" version="1" lat="0.00000000000" lon="0.00000000000">
    <tag k="ele" v="-2.2283175062885126"/>
    <tag k="local_x" v="22.725081633045722"/>
    <tag k="local_y" v="-6.140630167972253"/>
  </node>
  <node id="217" visible="true" version="1" lat="0.00000000000" lon="0.00000000000">
    <tag k="ele" v="-2.1455126602708603"/>
    <tag k="local_x" v="15.821067388392578"/>
    <tag k="local_y" v="-2.89288833543206"/>
  </node>
  <node id="218" visible="true" version="1" lat="0.00000000000" lon="0.00000000000">
    <tag k="ele" v="-2.078575593265868"/>
    <tag k="local_x" v="17.096372160087682"/>
    <tag k="local_y" v="-1.02568628700091"/>
  </node>
  <node id="219" visible="true" version="1" lat="0.00000000000" lon="0.00000000000">
    <tag k="ele" v="-1.8956311843673936"/>
    <tag k="local_x" v="13.811879105741184"/>
    <tag k="local_y" v="2.040085009000852"/>
  </node>
  <node id="220" visible="true" version="1" lat="0.00000000000" lon="0.00000000000">
    <tag k="ele" v="-1.9016938191471262"/>
    <tag k="local_x" v="15.731251892306915"/>
    <tag k="local_y" v="3.0644905843477668"/>
  </node>
  <node id="221" visible="true" version="1" lat="0.00000000000" lon="0.00000000000">
    <tag k="ele" v="-1.8692682571532997"/>
    <tag k="local_x" v="17.10986872712382"/>
    <tag k="local_y" v="4.5059963387358195"/>
  </node>
  <node id="222" visible="true" version="1" lat="0.00000000000" lon="0.00000000000">
    <tag k="ele" v="-1.8256594486174964"/>
    <tag k="local_x" v="17.578134508353685"/>
    <tag k="local_y" v="6.532174248364948"/>
  </node>
  <node id="223" visible="true" version="1" lat="0.00000000000" lon="0.00000000000">
    <tag k="ele" v="-1.6294982783923422"/>
    <tag k="local_x" v="15.89832983077494"/>
    <tag k="local_y" v="7.22354661662402"/>
  </node>
  <node id="224" visible="true" version="1" lat="0.00000000000" lon="0.00000000000">
    <tag k="ele" v="-2.0731981723238175"/>
    <tag k="local_x" v="19.29590504526419"/>
    <tag k="local_y" v="-3.3118194256927436"/>
  </node>
  <node id="225" visible="true" version="1" lat="0.00000000000" lon="0.00000000000">
    <tag k="ele" v="-1.9747465282349483"/>
    <tag k="local_x" v="21.49760420807034"/>
    <tag k="local_y" v="-1.9633197227370636"/>
  </node>
  <node id="226" visible="true" version="1" lat="0.00000000000" lon="0.00000000000">
    <tag k="ele" v="-2.0601073446651306"/>
    <tag k="local_x" v="20.528697321653407"/>
    <tag k="local_y" v="0.06920879411830949"/>
  </node>
  <node id="227" visible="true" version="1" lat="0.00000000000" lon="0.00000000000">
    <tag k="ele" v="-2.1394874286685863"/>
    <tag k="local_x" v="26.16027615773489"/>
    <tag k="local_y" v="1.8456990225479273"/>
  </node>
  <node id="228" visible="true" version="1" lat="0.00000000000" lon="0.00000000000">
    <tag k="ele" v="-1.9366316651339317"/>
    <tag k="local_x" v="25.9836902275852"/>
    <tag k="local_y" v="6.007759295380227"/>
  </node>
  <node id="229" visible="true" version="1" lat="0.00000000000" lon="0.00000000000">
    <tag k="ele" v="-1.7858303811737737"/>
    <tag k="local_x" v="20.282039485566784"/>
    <tag k="local_y" v="7.831750284694579"/>
  </node>
  <node id="230" visible="true" version="1" lat="0.00000000000" lon="0.00000000000">
    <tag k="ele" v="-1.547358553264123"/>
    <tag k="local_x" v="18.94556487872228"/>
    <tag k="local_y" v="11.18768064091752"/>
  </node>
  <node id="231" visible="true" version="1" lat="0.00000000000" lon="0.00000000000">
    <tag k="ele" v="-0.9934576036626651"/>
    <tag k="local_x" v="10.056441812959012"/>
    <tag k="local_y" v="5.912783286594188"/>
  </node>
  <node id="232" visible="true" version="1" lat="0.00000000000" lon="0.00000000000">
    <tag k="ele" v="-0.9700000286102295"/>
    <tag k="local_x" v="8.860901414321159"/>
    <tag k="local_y" v="4.359076682234573"/>
  </node>
  <node id="233" visible="true" version="1" lat="0.00000000000" lon="0.00000000000">
    <tag k="ele" v="-0.7743852016799518"/>
    <tag k="local_x" v="6.860496396629326"/>
    <tag k="local_y" v="3.6363032301508573"/>
  </node>
  <node id="234" visible="true" version="1" lat="0.00000000000" lon="0.00000000000">
    <tag k="ele" v="-1.0180743717186735"/>
    <tag k="local_x" v="8.200259311508187"/>
    <tag k="local_y" v="8.26960031837832"/>
  </node>
  <node id="235" visible="true" version="1" lat="0.00000000000" lon="0.00000000000">
    <tag k="ele" v="-0.7892385152156902"/>
    <tag k="local_x" v="6.144528394130269"/>
    <tag k="local_y" v="7.295284715596486"/>
  </node>
  <node id="236" visible="true" version="1" lat="0.00000000000" lon="0.00000000000">
    <tag k="ele" v="-0.7229196548273517"/>
    <tag k="local_x" v="4.963283401824867"/>
    <tag k="local_y" v="5.264364301592925"/>
  </node>
  <way id="1" visible="true" version="1">
    <nd ref="37"/>
    <nd ref="38"/>
    <nd ref="39"/>
    <nd ref="40"/>
    <nd ref="41"/>
    <tag k="type" v="virtual"/>
  </way>
  <way id="2" visible="true" version="1">
    <nd ref="42"/>
    <nd ref="43"/>
    <nd ref="44"/>
    <nd ref="45"/>
    <nd ref="46"/>
    <tag k="type" v="virtual"/>
  </way>
  <way id="4" visible="true" version="1">
    <nd ref="47"/>
    <nd ref="48"/>
    <tag k="type" v="virtual"/>
  </way>
  <way id="5" visible="true" version="1">
    <nd ref="49"/>
    <nd ref="50"/>
    <tag k="type" v="virtual"/>
  </way>
  <way id="7" visible="true" version="1">
    <nd ref="51"/>
    <nd ref="52"/>
    <nd ref="53"/>
    <nd ref="54"/>
    <nd ref="55"/>
    <tag k="type" v="virtual"/>
  </way>
  <way id="8" visible="true" version="1">
    <nd ref="56"/>
    <nd ref="57"/>
    <nd ref="58"/>
    <nd ref="59"/>
    <nd ref="60"/>
    <tag k="type" v="virtual"/>
  </way>
  <way id="10" visible="true" version="1">
    <nd ref="61"/>
    <nd ref="62"/>
    <nd ref="63"/>
    <nd ref="64"/>
    <nd ref="65"/>
    <nd ref="66"/>
    <nd ref="67"/>
    <nd ref="68"/>
    <nd ref="69"/>
    <nd ref="70"/>
    <nd ref="71"/>
    <nd ref="72"/>
    <nd ref="73"/>
    <nd ref="74"/>
    <nd ref="75"/>
    <nd ref="76"/>
    <nd ref="77"/>
    <nd ref="78"/>
    <nd ref="79"/>
    <nd ref="80"/>
    <nd ref="81"/>
    <nd ref="82"/>
    <nd ref="83"/>
    <nd ref="84"/>
    <nd ref="85"/>
    <nd ref="86"/>
    <nd ref="87"/>
    <nd ref="88"/>
    <nd ref="89"/>
    <nd ref="90"/>
    <nd ref="91"/>
    <nd ref="92"/>
    <nd ref="93"/>
    <nd ref="94"/>
    <nd ref="95"/>
    <nd ref="96"/>
    <tag k="type" v="virtual"/>
  </way>
  <way id="11" visible="true" version="1">
    <nd ref="97"/>
    <nd ref="98"/>
    <nd ref="99"/>
    <nd ref="100"/>
    <nd ref="101"/>
    <nd ref="102"/>
    <nd ref="103"/>
    <nd ref="104"/>
    <nd ref="105"/>
    <nd ref="106"/>
    <nd ref="107"/>
    <nd ref="108"/>
    <nd ref="109"/>
    <nd ref="110"/>
    <nd ref="111"/>
    <nd ref="112"/>
    <nd ref="113"/>
    <nd ref="114"/>
    <nd ref="115"/>
    <nd ref="116"/>
    <nd ref="117"/>
    <nd ref="118"/>
    <nd ref="119"/>
    <nd ref="120"/>
    <nd ref="121"/>
    <nd ref="122"/>
    <nd ref="123"/>
    <nd ref="124"/>
    <nd ref="125"/>
    <nd ref="126"/>
    <nd ref="127"/>
    <nd ref="128"/>
    <nd ref="129"/>
    <nd ref="130"/>
    <nd ref="131"/>
    <nd ref="132"/>
    <tag k="type" v="virtual"/>
  </way>
  <way id="13" visible="true" version="1">
    <nd ref="133"/>
    <nd ref="134"/>
    <nd ref="135"/>
    <nd ref="136"/>
    <nd ref="137"/>
    <nd ref="138"/>
    <nd ref="139"/>
    <tag k="type" v="virtual"/>
  </way>
  <way id="14" visible="true" version="1">
    <nd ref="140"/>
    <nd ref="141"/>
    <nd ref="142"/>
    <nd ref="143"/>
    <nd ref="144"/>
    <nd ref="145"/>
    <nd ref="146"/>
    <tag k="type" v="virtual"/>
  </way>
  <way id="16" visible="true" version="1">
    <nd ref="147"/>
    <nd ref="148"/>
    <nd ref="149"/>
    <nd ref="150"/>
    <tag k="type" v="virtual"/>
  </way>
  <way id="17" visible="true" version="1">
    <nd ref="151"/>
    <nd ref="152"/>
    <nd ref="153"/>
    <nd ref="154"/>
    <tag k="type" v="virtual"/>
  </way>
  <way id="19" visible="true" version="1">
    <nd ref="155"/>
    <nd ref="156"/>
    <nd ref="157"/>
    <nd ref="158"/>
    <nd ref="159"/>
    <nd ref="160"/>
    <nd ref="161"/>
    <nd ref="162"/>
    <nd ref="163"/>
    <nd ref="164"/>
    <nd ref="165"/>
    <nd ref="166"/>
    <tag k="type" v="virtual"/>
  </way>
  <way id="20" visible="true" version="1">
    <nd ref="167"/>
    <nd ref="168"/>
    <nd ref="169"/>
    <nd ref="170"/>
    <nd ref="171"/>
    <nd ref="172"/>
    <nd ref="173"/>
    <nd ref="174"/>
    <nd ref="175"/>
    <nd ref="176"/>
    <nd ref="177"/>
    <nd ref="178"/>
    <tag k="type" v="virtual"/>
  </way>
  <way id="22" visible="true" version="1">
    <nd ref="179"/>
    <nd ref="180"/>
    <nd ref="181"/>
    <nd ref="182"/>
    <nd ref="183"/>
    <tag k="type" v="virtual"/>
  </way>
  <way id="23" visible="true" version="1">
    <nd ref="184"/>
    <nd ref="185"/>
    <nd ref="186"/>
    <nd ref="187"/>
    <nd ref="188"/>
    <tag k="type" v="virtual"/>
  </way>
  <way id="25" visible="true" version="1">
    <nd ref="189"/>
    <nd ref="190"/>
    <nd ref="191"/>
    <nd ref="192"/>
    <nd ref="193"/>
    <nd ref="194"/>
    <nd ref="195"/>
    <nd ref="196"/>
    <nd ref="197"/>
    <nd ref="198"/>
    <nd ref="199"/>
    <tag k="type" v="virtual"/>
  </way>
  <way id="26" visible="true" version="1">
    <nd ref="200"/>
    <nd ref="201"/>
    <nd ref="202"/>
    <nd ref="203"/>
    <nd ref="204"/>
    <nd ref="205"/>
    <nd ref="206"/>
    <nd ref="207"/>
    <nd ref="208"/>
    <nd ref="209"/>
    <nd ref="210"/>
    <tag k="type" v="virtual"/>
  </way>
  <way id="28" visible="true" version="1">
    <nd ref="211"/>
    <nd ref="212"/>
    <nd ref="213"/>
    <tag k="type" v="virtual"/>
  </way>
  <way id="29" visible="true" version="1">
    <nd ref="214"/>
    <nd ref="215"/>
    <nd ref="216"/>
    <tag k="type" v="virtual"/>
  </way>
  <way id="31" visible="true" version="1">
    <nd ref="217"/>
    <nd ref="218"/>
    <nd ref="219"/>
    <nd ref="220"/>
    <nd ref="221"/>
    <nd ref="222"/>
    <nd ref="223"/>
    <tag k="type" v="virtual"/>
  </way>
  <way id="32" visible="true" version="1">
    <nd ref="224"/>
    <nd ref="225"/>
    <nd ref="226"/>
    <nd ref="227"/>
    <nd ref="228"/>
    <nd ref="229"/>
    <nd ref="230"/>
    <tag k="type" v="virtual"/>
  </way>
  <way id="34" visible="true" version="1">
    <nd ref="231"/>
    <nd ref="232"/>
    <nd ref="233"/>
    <tag k="type" v="virtual"/>
  </way>
  <way id="35" visible="true" version="1">
    <nd ref="234"/>
    <nd ref="235"/>
    <nd ref="236"/>
    <tag k="type" v="virtual"/>
  </way>
  <relation id="3" visible="true" version="1">
    <member type="way" ref="1" role="left"/>
    <member type="way" ref="2" role="right"/>
    <tag k="cloudanalyzer:assumption_status" v="hypothesis"/>
    <tag k="cloudanalyzer:boundary_policy" v="source_span_hypothesis"/>
    <tag k="cloudanalyzer:source_center_curve" v="1"/>
    <tag k="location" v="urban"/>
    <tag k="one_way" v="yes"/>
    <tag k="participant:vehicle" v="yes"/>
    <tag k="speed_limit" v="40"/>
    <tag k="subtype" v="road"/>
    <tag k="type" v="lanelet"/>
  </relation>
  <relation id="6" visible="true" version="1">
    <member type="way" ref="4" role="left"/>
    <member type="way" ref="5" role="right"/>
    <tag k="cloudanalyzer:assumption_status" v="hypothesis"/>
    <tag k="cloudanalyzer:boundary_policy" v="source_span_hypothesis"/>
    <tag k="cloudanalyzer:source_center_curve" v="4"/>
    <tag k="location" v="urban"/>
    <tag k="one_way" v="yes"/>
    <tag k="participant:vehicle" v="yes"/>
    <tag k="speed_limit" v="40"/>
    <tag k="subtype" v="road"/>
    <tag k="type" v="lanelet"/>
  </relation>
  <relation id="9" visible="true" version="1">
    <member type="way" ref="7" role="left"/>
    <member type="way" ref="8" role="right"/>
    <tag k="cloudanalyzer:assumption_status" v="hypothesis"/>
    <tag k="cloudanalyzer:boundary_policy" v="source_span_hypothesis"/>
    <tag k="cloudanalyzer:source_center_curve" v="7"/>
    <tag k="location" v="urban"/>
    <tag k="one_way" v="yes"/>
    <tag k="participant:vehicle" v="yes"/>
    <tag k="speed_limit" v="40"/>
    <tag k="subtype" v="road"/>
    <tag k="type" v="lanelet"/>
  </relation>
  <relation id="12" visible="true" version="1">
    <member type="way" ref="10" role="left"/>
    <member type="way" ref="11" role="right"/>
    <tag k="cloudanalyzer:assumption_status" v="hypothesis"/>
    <tag k="cloudanalyzer:boundary_policy" v="source_span_hypothesis"/>
    <tag k="cloudanalyzer:source_center_curve" v="10"/>
    <tag k="location" v="urban"/>
    <tag k="one_way" v="yes"/>
    <tag k="participant:vehicle" v="yes"/>
    <tag k="speed_limit" v="40"/>
    <tag k="subtype" v="road"/>
    <tag k="type" v="lanelet"/>
  </relation>
  <relation id="15" visible="true" version="1">
    <member type="way" ref="13" role="left"/>
    <member type="way" ref="14" role="right"/>
    <tag k="cloudanalyzer:assumption_status" v="hypothesis"/>
    <tag k="cloudanalyzer:boundary_policy" v="source_span_hypothesis"/>
    <tag k="cloudanalyzer:source_center_curve" v="13"/>
    <tag k="location" v="urban"/>
    <tag k="one_way" v="yes"/>
    <tag k="participant:vehicle" v="yes"/>
    <tag k="speed_limit" v="40"/>
    <tag k="subtype" v="road"/>
    <tag k="type" v="lanelet"/>
  </relation>
  <relation id="18" visible="true" version="1">
    <member type="way" ref="16" role="left"/>
    <member type="way" ref="17" role="right"/>
    <tag k="cloudanalyzer:assumption_status" v="hypothesis"/>
    <tag k="cloudanalyzer:boundary_policy" v="source_span_hypothesis"/>
    <tag k="cloudanalyzer:source_center_curve" v="16"/>
    <tag k="location" v="urban"/>
    <tag k="one_way" v="yes"/>
    <tag k="participant:vehicle" v="yes"/>
    <tag k="speed_limit" v="40"/>
    <tag k="subtype" v="road"/>
    <tag k="type" v="lanelet"/>
  </relation>
  <relation id="21" visible="true" version="1">
    <member type="way" ref="19" role="left"/>
    <member type="way" ref="20" role="right"/>
    <tag k="cloudanalyzer:assumption_status" v="hypothesis"/>
    <tag k="cloudanalyzer:boundary_policy" v="source_span_hypothesis"/>
    <tag k="cloudanalyzer:source_center_curve" v="19"/>
    <tag k="location" v="urban"/>
    <tag k="one_way" v="yes"/>
    <tag k="participant:vehicle" v="yes"/>
    <tag k="speed_limit" v="40"/>
    <tag k="subtype" v="road"/>
    <tag k="type" v="lanelet"/>
  </relation>
  <relation id="24" visible="true" version="1">
    <member type="way" ref="22" role="left"/>
    <member type="way" ref="23" role="right"/>
    <tag k="cloudanalyzer:assumption_status" v="hypothesis"/>
    <tag k="cloudanalyzer:boundary_policy" v="source_span_hypothesis"/>
    <tag k="cloudanalyzer:source_center_curve" v="22"/>
    <tag k="location" v="urban"/>
    <tag k="one_way" v="yes"/>
    <tag k="participant:vehicle" v="yes"/>
    <tag k="speed_limit" v="40"/>
    <tag k="subtype" v="road"/>
    <tag k="type" v="lanelet"/>
  </relation>
  <relation id="27" visible="true" version="1">
    <member type="way" ref="25" role="left"/>
    <member type="way" ref="26" role="right"/>
    <tag k="cloudanalyzer:assumption_status" v="hypothesis"/>
    <tag k="cloudanalyzer:boundary_policy" v="source_span_hypothesis"/>
    <tag k="cloudanalyzer:source_center_curve" v="25"/>
    <tag k="location" v="urban"/>
    <tag k="one_way" v="yes"/>
    <tag k="participant:vehicle" v="yes"/>
    <tag k="speed_limit" v="40"/>
    <tag k="subtype" v="road"/>
    <tag k="type" v="lanelet"/>
  </relation>
  <relation id="30" visible="true" version="1">
    <member type="way" ref="28" role="left"/>
    <member type="way" ref="29" role="right"/>
    <tag k="cloudanalyzer:assumption_status" v="hypothesis"/>
    <tag k="cloudanalyzer:boundary_policy" v="source_span_hypothesis"/>
    <tag k="cloudanalyzer:source_center_curve" v="28"/>
    <tag k="location" v="urban"/>
    <tag k="one_way" v="yes"/>
    <tag k="participant:vehicle" v="yes"/>
    <tag k="speed_limit" v="40"/>
    <tag k="subtype" v="road"/>
    <tag k="type" v="lanelet"/>
  </relation>
  <relation id="33" visible="true" version="1">
    <member type="way" ref="31" role="left"/>
    <member type="way" ref="32" role="right"/>
    <tag k="cloudanalyzer:assumption_status" v="hypothesis"/>
    <tag k="cloudanalyzer:boundary_policy" v="source_span_hypothesis"/>
    <tag k="cloudanalyzer:source_center_curve" v="31"/>
    <tag k="location" v="urban"/>
    <tag k="one_way" v="yes"/>
    <tag k="participant:vehicle" v="yes"/>
    <tag k="speed_limit" v="40"/>
    <tag k="subtype" v="road"/>
    <tag k="type" v="lanelet"/>
  </relation>
  <relation id="36" visible="true" version="1">
    <member type="way" ref="34" role="left"/>
    <member type="way" ref="35" role="right"/>
    <tag k="cloudanalyzer:assumption_status" v="hypothesis"/>
    <tag k="cloudanalyzer:boundary_policy" v="source_span_hypothesis"/>
    <tag k="cloudanalyzer:source_center_curve" v="34"/>
    <tag k="location" v="urban"/>
    <tag k="one_way" v="yes"/>
    <tag k="participant:vehicle" v="yes"/>
    <tag k="speed_limit" v="40"/>
    <tag k="subtype" v="road"/>
    <tag k="type" v="lanelet"/>
  </relation>
</osm>
