<?xml version="1.0" encoding="UTF-8"?>
<osm version="0.6" upload="false" generator="vectormap-rs 0.1.0">
  <node id="14" visible="true" version="1" lat="0.00000000000" lon="0.00000000000">
    <tag k="ele" v="28.769499999999997"/>
    <tag k="local_x" v="-9298.149440881374"/>
    <tag k="local_y" v="-40802.216651015224"/>
  </node>
  <node id="15" visible="true" version="1" lat="0.00000000000" lon="0.00000000000">
    <tag k="ele" v="28.7475"/>
    <tag k="local_x" v="-9297.102540418728"/>
    <tag k="local_y" v="-40799.955275436274"/>
  </node>
  <node id="16" visible="true" version="1" lat="0.00000000000" lon="0.00000000000">
    <tag k="ele" v="28.737499999999997"/>
    <tag k="local_x" v="-9296.520997217016"/>
    <tag k="local_y" v="-40798.5956597997"/>
  </node>
  <node id="17" visible="true" version="1" lat="0.00000000000" lon="0.00000000000">
    <tag k="ele" v="28.722749999999998"/>
    <tag k="local_x" v="-9295.749572124934"/>
    <tag k="local_y" v="-40796.767215402615"/>
  </node>
  <node id="18" visible="true" version="1" lat="0.00000000000" lon="0.00000000000">
    <tag k="ele" v="28.726"/>
    <tag k="local_x" v="-9295.055384856121"/>
    <tag k="local_y" v="-40795.07461269433"/>
  </node>
  <node id="19" visible="true" version="1" lat="0.00000000000" lon="0.00000000000">
    <tag k="ele" v="28.723249999999997"/>
    <tag k="local_x" v="-9294.575873175376"/>
    <tag k="local_y" v="-40793.876745574315"/>
  </node>
  <node id="20" visible="true" version="1" lat="0.00000000000" lon="0.00000000000">
    <tag k="ele" v="28.7095"/>
    <tag k="local_x" v="-9294.05234232805"/>
    <tag k="local_y" v="-40792.527788281375"/>
  </node>
  <node id="21" visible="true" version="1" lat="0.00000000000" lon="0.00000000000">
    <tag k="ele" v="28.769499999999997"/>
    <tag k="local_x" v="-9295.01066426168"/>
    <tag k="local_y" v="-40803.682836823486"/>
  </node>
  <node id="22" visible="true" version="1" lat="0.00000000000" lon="0.00000000000">
    <tag k="ele" v="28.752"/>
    <tag k="local_x" v="-9293.921673758381"/>
    <tag k="local_y" v="-40801.421937354964"/>
  </node>
  <node id="23" visible="true" version="1" lat="0.00000000000" lon="0.00000000000">
    <tag k="ele" v="28.740249999999996"/>
    <tag k="local_x" v="-9293.2921905768"/>
    <tag k="local_y" v="-40800.03254880456"/>
  </node>
  <node id="24" visible="true" version="1" lat="0.00000000000" lon="0.00000000000">
    <tag k="ele" v="28.733249999999998"/>
    <tag k="local_x" v="-9292.494019527136"/>
    <tag k="local_y" v="-40798.179447602604"/>
  </node>
  <node id="25" visible="true" version="1" lat="0.00000000000" lon="0.00000000000">
    <tag k="ele" v="28.726"/>
    <tag k="local_x" v="-9291.796130634888"/>
    <tag k="local_y" v="-40796.45216734542"/>
  </node>
  <node id="26" visible="true" version="1" lat="0.00000000000" lon="0.00000000000">
    <tag k="ele" v="28.723249999999997"/>
    <tag k="local_x" v="-9291.313827910555"/>
    <tag k="local_y" v="-40795.21890128996"/>
  </node>
  <node id="27" visible="true" version="1" lat="0.00000000000" lon="0.00000000000">
    <tag k="ele" v="28.7095"/>
    <tag k="local_x" v="-9290.796685130146"/>
    <tag k="local_y" v="-40793.85070753573"/>
  </node>
  <node id="28" visible="true" version="1" lat="0.00000000000" lon="0.00000000000">
    <tag k="ele" v="28.769499999999997"/>
    <tag k="local_x" v="-9291.839574564947"/>
    <tag k="local_y" v="-40805.164116721164"/>
  </node>
  <node id="29" visible="true" version="1" lat="0.00000000000" lon="0.00000000000">
    <tag k="ele" v="28.752"/>
    <tag k="local_x" v="-9290.74327230841"/>
    <tag k="local_y" v="-40802.88746259283"/>
  </node>
  <node id="30" visible="true" version="1" lat="0.00000000000" lon="0.00000000000">
    <tag k="ele" v="28.740249999999996"/>
    <tag k="local_x" v="-9290.094535585446"/>
    <tag k="local_y" v="-40801.455574649815"/>
  </node>
  <node id="31" visible="true" version="1" lat="0.00000000000" lon="0.00000000000">
    <tag k="ele" v="28.733249999999998"/>
    <tag k="local_x" v="-9289.283112201563"/>
    <tag k="local_y" v="-40799.57231304714"/>
  </node>
  <node id="32" visible="true" version="1" lat="0.00000000000" lon="0.00000000000">
    <tag k="ele" v="28.726"/>
    <tag k="local_x" v="-9288.572262515083"/>
    <tag k="local_y" v="-40797.81476572576"/>
  </node>
  <node id="33" visible="true" version="1" lat="0.00000000000" lon="0.00000000000">
    <tag k="ele" v="28.723249999999997"/>
    <tag k="local_x" v="-9288.077091584939"/>
    <tag k="local_y" v="-40796.550643741946"/>
  </node>
  <node id="34" visible="true" version="1" lat="0.00000000000" lon="0.00000000000">
    <tag k="ele" v="28.7095"/>
    <tag k="local_x" v="-9287.554159267385"/>
    <tag k="local_y" v="-40795.1682909408"/>
  </node>
  <node id="35" visible="true" version="1" lat="0.00000000000" lon="0.00000000000">
    <tag k="ele" v="28.769499999999997"/>
    <tag k="local_x" v="-9288.756405569391"/>
    <tag k="local_y" v="-40806.60432708765"/>
  </node>
  <node id="36" visible="true" version="1" lat="0.00000000000" lon="0.00000000000">
    <tag k="ele" v="28.752"/>
    <tag k="local_x" v="-9287.508067472127"/>
    <tag k="local_y" v="-40804.37917923463"/>
  </node>
  <node id="37" visible="true" version="1" lat="0.00000000000" lon="0.00000000000">
    <tag k="ele" v="28.740249999999996"/>
    <tag k="local_x" v="-9286.731482602529"/>
    <tag k="local_y" v="-40802.95220618968"/>
  </node>
  <node id="38" visible="true" version="1" lat="0.00000000000" lon="0.00000000000">
    <tag k="ele" v="28.733249999999998"/>
    <tag k="local_x" v="-9285.735366334424"/>
    <tag k="local_y" v="-40801.11129630741"/>
  </node>
  <node id="39" visible="true" version="1" lat="0.00000000000" lon="0.00000000000">
    <tag k="ele" v="28.784"/>
    <tag k="local_x" v="-9284.851902700639"/>
    <tag k="local_y" v="-40799.38721102098"/>
  </node>
  <node id="40" visible="true" version="1" lat="0.00000000000" lon="0.00000000000">
    <tag k="ele" v="28.770999999999997"/>
    <tag k="local_x" v="-9284.273701279868"/>
    <tag k="local_y" v="-40798.115533748794"/>
  </node>
  <node id="41" visible="true" version="1" lat="0.00000000000" lon="0.00000000000">
    <tag k="ele" v="28.758999999999997"/>
    <tag k="local_x" v="-9283.710051958236"/>
    <tag k="local_y" v="-40796.730323816475"/>
  </node>
  <node id="42" visible="true" version="1" lat="0.00000000000" lon="0.00000000000">
    <tag k="ele" v="28.769499999999997"/>
    <tag k="local_x" v="-9285.497395171484"/>
    <tag k="local_y" v="-40808.126676516535"/>
  </node>
  <node id="43" visible="true" version="1" lat="0.00000000000" lon="0.00000000000">
    <tag k="ele" v="28.752"/>
    <tag k="local_x" v="-9284.386469408466"/>
    <tag k="local_y" v="-40805.81851306856"/>
  </node>
  <node id="44" visible="true" version="1" lat="0.00000000000" lon="0.00000000000">
    <tag k="ele" v="28.740249999999996"/>
    <tag k="local_x" v="-9283.699225602739"/>
    <tag k="local_y" v="-40804.30162634033"/>
  </node>
  <node id="45" visible="true" version="1" lat="0.00000000000" lon="0.00000000000">
    <tag k="ele" v="28.733249999999998"/>
    <tag k="local_x" v="-9282.861297550418"/>
    <tag k="local_y" v="-40802.35804393621"/>
  </node>
  <node id="46" visible="true" version="1" lat="0.00000000000" lon="0.00000000000">
    <tag k="ele" v="28.726"/>
    <tag k="local_x" v="-9282.124526275467"/>
    <tag k="local_y" v="-40800.53996248643"/>
  </node>
  <node id="47" visible="true" version="1" lat="0.00000000000" lon="0.00000000000">
    <tag k="ele" v="28.723249999999997"/>
    <tag k="local_x" v="-9281.603618933703"/>
    <tag k="local_y" v="-40799.21412864592"/>
  </node>
  <node id="48" visible="true" version="1" lat="0.00000000000" lon="0.00000000000">
    <tag k="ele" v="28.7095"/>
    <tag k="local_x" v="-9281.069107541862"/>
    <tag k="local_y" v="-40797.80345775094"/>
  </node>
  <node id="49" visible="true" version="1" lat="0.00000000000" lon="0.00000000000">
    <tag k="ele" v="28.769499999999997"/>
    <tag k="local_x" v="-9282.32630547475"/>
    <tag k="local_y" v="-40809.60795641421"/>
  </node>
  <node id="50" visible="true" version="1" lat="0.00000000000" lon="0.00000000000">
    <tag k="ele" v="28.752"/>
    <tag k="local_x" v="-9281.208067958494"/>
    <tag k="local_y" v="-40807.284038306425"/>
  </node>
  <node id="51" visible="true" version="1" lat="0.00000000000" lon="0.00000000000">
    <tag k="ele" v="28.740249999999996"/>
    <tag k="local_x" v="-9280.501570611386"/>
    <tag k="local_y" v="-40805.72465218559"/>
  </node>
  <node id="52" visible="true" version="1" lat="0.00000000000" lon="0.00000000000">
    <tag k="ele" v="28.733249999999998"/>
    <tag k="local_x" v="-9279.650390224844"/>
    <tag k="local_y" v="-40803.750909380746"/>
  </node>
  <node id="53" visible="true" version="1" lat="0.00000000000" lon="0.00000000000">
    <tag k="ele" v="28.726"/>
    <tag k="local_x" v="-9278.90065815566"/>
    <tag k="local_y" v="-40801.902560866765"/>
  </node>
  <node id="54" visible="true" version="1" lat="0.00000000000" lon="0.00000000000">
    <tag k="ele" v="28.723249999999997"/>
    <tag k="local_x" v="-9278.366882608087"/>
    <tag k="local_y" v="-40800.545871097915"/>
  </node>
  <node id="55" visible="true" version="1" lat="0.00000000000" lon="0.00000000000">
    <tag k="ele" v="28.7095"/>
    <tag k="local_x" v="-9277.8265816791"/>
    <tag k="local_y" v="-40799.12104115602"/>
  </node>
  <node id="56" visible="true" version="1" lat="0.00000000000" lon="0.00000000000">
    <tag k="ele" v="28.769499999999997"/>
    <tag k="local_x" v="-9279.15521577802"/>
    <tag k="local_y" v="-40811.0892363119"/>
  </node>
  <node id="57" visible="true" version="1" lat="0.00000000000" lon="0.00000000000">
    <tag k="ele" v="28.752"/>
    <tag k="local_x" v="-9278.02966650852"/>
    <tag k="local_y" v="-40808.74956354428"/>
  </node>
  <node id="58" visible="true" version="1" lat="0.00000000000" lon="0.00000000000">
    <tag k="ele" v="28.740249999999996"/>
    <tag k="local_x" v="-9277.303915620034"/>
    <tag k="local_y" v="-40807.14767803085"/>
  </node>
  <node id="59" visible="true" version="1" lat="0.00000000000" lon="0.00000000000">
    <tag k="ele" v="28.733249999999998"/>
    <tag k="local_x" v="-9276.439482899274"/>
    <tag k="local_y" v="-40805.14377482529"/>
  </node>
  <node id="60" visible="true" version="1" lat="0.00000000000" lon="0.00000000000">
    <tag k="ele" v="28.726"/>
    <tag k="local_x" v="-9275.676790035854"/>
    <tag k="local_y" v="-40803.2651592471"/>
  </node>
  <node id="61" visible="true" version="1" lat="0.00000000000" lon="0.00000000000">
    <tag k="ele" v="28.723249999999997"/>
    <tag k="local_x" v="-9275.130146282469"/>
    <tag k="local_y" v="-40801.87761354991"/>
  </node>
  <node id="62" visible="true" version="1" lat="0.00000000000" lon="0.00000000000">
    <tag k="ele" v="28.7095"/>
    <tag k="local_x" v="-9274.584055816338"/>
    <tag k="local_y" v="-40800.43862456109"/>
  </node>
  <way id="1" visible="true" version="1">
    <nd ref="14"/>
    <nd ref="15"/>
    <nd ref="16"/>
    <nd ref="17"/>
    <nd ref="18"/>
    <nd ref="19"/>
    <nd ref="20"/>
    <tag k="subtype" v="solid"/>
    <tag k="type" v="line_thin"/>
  </way>
  <way id="2" visible="true" version="1">
    <nd ref="21"/>
    <nd ref="22"/>
    <nd ref="23"/>
    <nd ref="24"/>
    <nd ref="25"/>
    <nd ref="26"/>
    <nd ref="27"/>
    <tag k="subtype" v="dashed"/>
    <tag k="type" v="line_thin"/>
  </way>
  <way id="3" visible="true" version="1">
    <nd ref="28"/>
    <nd ref="29"/>
    <nd ref="30"/>
    <nd ref="31"/>
    <nd ref="32"/>
    <nd ref="33"/>
    <nd ref="34"/>
    <tag k="subtype" v="dashed"/>
    <tag k="type" v="line_thin"/>
  </way>
  <way id="4" visible="true" version="1">
    <nd ref="35"/>
    <nd ref="36"/>
    <nd ref="37"/>
    <nd ref="38"/>
    <nd ref="39"/>
    <nd ref="40"/>
    <nd ref="41"/>
    <tag k="subtype" v="solid"/>
    <tag k="type" v="line_thin"/>
  </way>
  <way id="5" visible="true" version="1">
    <nd ref="42"/>
    <nd ref="43"/>
    <nd ref="44"/>
    <nd ref="45"/>
    <nd ref="46"/>
    <nd ref="47"/>
    <nd ref="48"/>
    <tag k="subtype" v="dashed"/>
    <tag k="type" v="line_thin"/>
  </way>
  <way id="6" visible="true" version="1">
    <nd ref="49"/>
    <nd ref="50"/>
    <nd ref="51"/>
    <nd ref="52"/>
    <nd ref="53"/>
    <nd ref="54"/>
    <nd ref="55"/>
    <tag k="subtype" v="dashed"/>
    <tag k="type" v="line_thin"/>
  </way>
  <way id="7" visible="true" version="1">
    <nd ref="56"/>
    <nd ref="57"/>
    <nd ref="58"/>
    <nd ref="59"/>
    <nd ref="60"/>
    <nd ref="61"/>
    <nd ref="62"/>
    <tag k="subtype" v="solid"/>
    <tag k="type" v="line_thin"/>
  </way>
  <relation id="8" visible="true" version="1">
    <member type="way" ref="1" role="left"/>
    <member type="way" ref="2" role="right"/>
    <tag k="location" v="urban"/>
    <tag k="one_way" v="yes"/>
    <tag k="participant:vehicle" v="yes"/>
    <tag k="speed_limit" v="40"/>
    <tag k="subtype" v="road"/>
    <tag k="type" v="lanelet"/>
  </relation>
  <relation id="9" visible="true" version="1">
    <member type="way" ref="2" role="left"/>
    <member type="way" ref="3" role="right"/>
    <tag k="location" v="urban"/>
    <tag k="one_way" v="yes"/>
    <tag k="participant:vehicle" v="yes"/>
    <tag k="speed_limit" v="40"/>
    <tag k="subtype" v="road"/>
    <tag k="type" v="lanelet"/>
  </relation>
  <relation id="10" visible="true" version="1">
    <member type="way" ref="3" role="left"/>
    <member type="way" ref="4" role="right"/>
    <tag k="location" v="urban"/>
    <tag k="one_way" v="yes"/>
    <tag k="participant:vehicle" v="yes"/>
    <tag k="speed_limit" v="40"/>
    <tag k="subtype" v="road"/>
    <tag k="type" v="lanelet"/>
  </relation>
  <relation id="11" visible="true" version="1">
    <member type="way" ref="5" role="left"/>
    <member type="way" ref="4" role="right"/>
    <tag k="location" v="urban"/>
    <tag k="one_way" v="yes"/>
    <tag k="participant:vehicle" v="yes"/>
    <tag k="speed_limit" v="40"/>
    <tag k="subtype" v="road"/>
    <tag k="type" v="lanelet"/>
  </relation>
  <relation id="12" visible="true" version="1">
    <member type="way" ref="6" role="left"/>
    <member type="way" ref="5" role="right"/>
    <tag k="location" v="urban"/>
    <tag k="one_way" v="yes"/>
    <tag k="participant:vehicle" v="yes"/>
    <tag k="speed_limit" v="40"/>
    <tag k="subtype" v="road"/>
    <tag k="type" v="lanelet"/>
  </relation>
  <relation id="13" visible="true" version="1">
    <member type="way" ref="7" role="left"/>
    <member type="way" ref="6" role="right"/>
    <tag k="location" v="urban"/>
    <tag k="one_way" v="yes"/>
    <tag k="participant:vehicle" v="yes"/>
    <tag k="speed_limit" v="40"/>
    <tag k="subtype" v="road"/>
    <tag k="type" v="lanelet"/>
  </relation>
</osm>
