<?xml version="1.0" encoding="UTF-8"?>
<osm version="0.6" upload="false" generator="vectormap-rs 0.1.0">
  <node id="4" visible="true" version="1" lat="0.00000000000" lon="0.00000000000">
    <tag k="ele" v="-2.4273675011546203"/>
    <tag k="local_x" v="-1.4570022069931872"/>
    <tag k="local_y" v="-77.8356745718622"/>
  </node>
  <node id="5" visible="true" version="1" lat="0.00000000000" lon="0.00000000000">
    <tag k="ele" v="-2.2843300547342107"/>
    <tag k="local_x" v="-0.4706751198592034"/>
    <tag k="local_y" v="-76.32948397265967"/>
  </node>
  <node id="6" visible="true" version="1" lat="0.00000000000" lon="0.00000000000">
    <tag k="ele" v="-2.408060600426923"/>
    <tag k="local_x" v="1.2536218954143479"/>
    <tag k="local_y" v="-76.13279098026717"/>
  </node>
  <node id="7" visible="true" version="1" lat="0.00000000000" lon="0.00000000000">
    <tag k="ele" v="-2.408060600426923"/>
    <tag k="local_x" v="2.123495714943857"/>
    <tag k="local_y" v="-74.66779759088564"/>
  </node>
  <node id="8" visible="true" version="1" lat="0.00000000000" lon="0.00000000000">
    <tag k="ele" v="-2.4069610096994274"/>
    <tag k="local_x" v="2.8317273384981334"/>
    <tag k="local_y" v="-72.89112014820451"/>
  </node>
  <node id="9" visible="true" version="1" lat="0.00000000000" lon="0.00000000000">
    <tag k="ele" v="-2.40136394961896"/>
    <tag k="local_x" v="3.641444853510059"/>
    <tag k="local_y" v="-71.02970531066521"/>
  </node>
  <node id="10" visible="true" version="1" lat="0.00000000000" lon="0.00000000000">
    <tag k="ele" v="-2.360603609924424"/>
    <tag k="local_x" v="4.48741639909832"/>
    <tag k="local_y" v="-69.19306401203502"/>
  </node>
  <node id="11" visible="true" version="1" lat="0.00000000000" lon="0.00000000000">
    <tag k="ele" v="-2.3611976002148602"/>
    <tag k="local_x" v="5.344401920928947"/>
    <tag k="local_y" v="-67.42306176572687"/>
  </node>
  <node id="12" visible="true" version="1" lat="0.00000000000" lon="0.00000000000">
    <tag k="ele" v="-2.4583956710925943"/>
    <tag k="local_x" v="5.611111700400824"/>
    <tag k="local_y" v="-65.40800147345286"/>
  </node>
  <node id="13" visible="true" version="1" lat="0.00000000000" lon="0.00000000000">
    <tag k="ele" v="-2.3908712918240353"/>
    <tag k="local_x" v="6.885181671426035"/>
    <tag k="local_y" v="-63.694787916840426"/>
  </node>
  <node id="14" visible="true" version="1" lat="0.00000000000" lon="0.00000000000">
    <tag k="ele" v="-2.3908712918240353"/>
    <tag k="local_x" v="7.844095470553049"/>
    <tag k="local_y" v="-61.93152547135375"/>
  </node>
  <node id="15" visible="true" version="1" lat="0.00000000000" lon="0.00000000000">
    <tag k="ele" v="-2.430200266488478"/>
    <tag k="local_x" v="9.086558043717298"/>
    <tag k="local_y" v="-60.34864201274025"/>
  </node>
  <node id="16" visible="true" version="1" lat="0.00000000000" lon="0.00000000000">
    <tag k="ele" v="-2.3909357634677755"/>
    <tag k="local_x" v="9.454124602560913"/>
    <tag k="local_y" v="-58.321183654012266"/>
  </node>
  <node id="17" visible="true" version="1" lat="0.00000000000" lon="0.00000000000">
    <tag k="ele" v="-2.4059281969129276"/>
    <tag k="local_x" v="10.268884915508512"/>
    <tag k="local_y" v="-56.490401103504105"/>
  </node>
  <node id="18" visible="true" version="1" lat="0.00000000000" lon="0.00000000000">
    <tag k="ele" v="-2.460283142403658"/>
    <tag k="local_x" v="10.638108531523569"/>
    <tag k="local_y" v="-54.49744675978623"/>
  </node>
  <node id="19" visible="true" version="1" lat="0.00000000000" lon="0.00000000000">
    <tag k="ele" v="-2.4845862284640283"/>
    <tag k="local_x" v="11.383324365921936"/>
    <tag k="local_y" v="-52.65487944134736"/>
  </node>
  <node id="20" visible="true" version="1" lat="0.00000000000" lon="0.00000000000">
    <tag k="ele" v="-2.4037399938682746"/>
    <tag k="local_x" v="12.679545256051027"/>
    <tag k="local_y" v="-50.97779168438907"/>
  </node>
  <node id="21" visible="true" version="1" lat="0.00000000000" lon="0.00000000000">
    <tag k="ele" v="-2.411986042636563"/>
    <tag k="local_x" v="13.605112452146573"/>
    <tag k="local_y" v="-49.141353230113374"/>
  </node>
  <node id="22" visible="true" version="1" lat="0.00000000000" lon="0.00000000000">
    <tag k="ele" v="-2.5312536353412605"/>
    <tag k="local_x" v="0.31514892669201866"/>
    <tag k="local_y" v="-83.56799350571247"/>
  </node>
  <node id="23" visible="true" version="1" lat="0.00000000000" lon="0.00000000000">
    <tag k="ele" v="-2.648321843845302"/>
    <tag k="local_x" v="3.8177476926354386"/>
    <tag k="local_y" v="-83.082959358065"/>
  </node>
  <node id="24" visible="true" version="1" lat="0.00000000000" lon="0.00000000000">
    <tag k="ele" v="-2.5522347140789585"/>
    <tag k="local_x" v="3.940799494938696"/>
    <tag k="local_y" v="-78.37535124670698"/>
  </node>
  <node id="25" visible="true" version="1" lat="0.00000000000" lon="0.00000000000">
    <tag k="ele" v="-2.5370301091039793"/>
    <tag k="local_x" v="4.809355221933755"/>
    <tag k="local_y" v="-76.00427007796198"/>
  </node>
  <node id="26" visible="true" version="1" lat="0.00000000000" lon="0.00000000000">
    <tag k="ele" v="-2.5308446087282808"/>
    <tag k="local_x" v="5.599717564781741"/>
    <tag k="local_y" v="-74.04793910862936"/>
  </node>
  <node id="27" visible="true" version="1" lat="0.00000000000" lon="0.00000000000">
    <tag k="ele" v="-2.5009188850601904"/>
    <tag k="local_x" v="6.835841385652419"/>
    <tag k="local_y" v="-72.46003072658876"/>
  </node>
  <node id="28" visible="true" version="1" lat="0.00000000000" lon="0.00000000000">
    <tag k="ele" v="-2.5541591243519113"/>
    <tag k="local_x" v="8.556688730254141"/>
    <tag k="local_y" v="-71.11426746167008"/>
  </node>
  <node id="29" visible="true" version="1" lat="0.00000000000" lon="0.00000000000">
    <tag k="ele" v="-2.508636494340926"/>
    <tag k="local_x" v="9.00399655449589"/>
    <tag k="local_y" v="-69.03779614573122"/>
  </node>
  <node id="30" visible="true" version="1" lat="0.00000000000" lon="0.00000000000">
    <tag k="ele" v="-2.4703391083465585"/>
    <tag k="local_x" v="9.308547311675284"/>
    <tag k="local_y" v="-66.93409776808157"/>
  </node>
  <node id="31" visible="true" version="1" lat="0.00000000000" lon="0.00000000000">
    <tag k="ele" v="-2.4703391083465585"/>
    <tag k="local_x" v="10.036170891428338"/>
    <tag k="local_y" v="-65.21835837317951"/>
  </node>
  <node id="32" visible="true" version="1" lat="0.00000000000" lon="0.00000000000">
    <tag k="ele" v="-2.525966190775103"/>
    <tag k="local_x" v="10.53674534049164"/>
    <tag k="local_y" v="-63.254263796919204"/>
  </node>
  <node id="33" visible="true" version="1" lat="0.00000000000" lon="0.00000000000">
    <tag k="ele" v="-2.454956017542033"/>
    <tag k="local_x" v="11.826197686194778"/>
    <tag k="local_y" v="-61.57108817898474"/>
  </node>
  <node id="34" visible="true" version="1" lat="0.00000000000" lon="0.00000000000">
    <tag k="ele" v="-2.470897168153924"/>
    <tag k="local_x" v="12.647678363874867"/>
    <tag k="local_y" v="-59.75338977521043"/>
  </node>
  <node id="35" visible="true" version="1" lat="0.00000000000" lon="0.00000000000">
    <tag k="ele" v="-2.5680432051839506"/>
    <tag k="local_x" v="13.456865524252748"/>
    <tag k="local_y" v="-57.93497011821774"/>
  </node>
  <node id="36" visible="true" version="1" lat="0.00000000000" lon="0.00000000000">
    <tag k="ele" v="-2.495890479293928"/>
    <tag k="local_x" v="14.309262271472843"/>
    <tag k="local_y" v="-56.085725771061156"/>
  </node>
  <node id="37" visible="true" version="1" lat="0.00000000000" lon="0.00000000000">
    <tag k="ele" v="-2.461830946478268"/>
    <tag k="local_x" v="15.064225352115763"/>
    <tag k="local_y" v="-54.22043618890949"/>
  </node>
  <node id="38" visible="true" version="1" lat="0.00000000000" lon="0.00000000000">
    <tag k="ele" v="-2.4690019656051563"/>
    <tag k="local_x" v="15.841196881309589"/>
    <tag k="local_y" v="-52.47911077122567"/>
  </node>
  <node id="39" visible="true" version="1" lat="0.00000000000" lon="0.00000000000">
    <tag k="ele" v="-2.552015635342005"/>
    <tag k="local_x" v="16.693064664707784"/>
    <tag k="local_y" v="-50.78894272174602"/>
  </node>
  <way id="1" visible="true" version="1">
    <nd ref="4"/>
    <nd ref="5"/>
    <nd ref="6"/>
    <nd ref="7"/>
    <nd ref="8"/>
    <nd ref="9"/>
    <nd ref="10"/>
    <nd ref="11"/>
    <nd ref="12"/>
    <nd ref="13"/>
    <nd ref="14"/>
    <nd ref="15"/>
    <nd ref="16"/>
    <nd ref="17"/>
    <nd ref="18"/>
    <nd ref="19"/>
    <nd ref="20"/>
    <nd ref="21"/>
    <tag k="type" v="virtual"/>
  </way>
  <way id="2" visible="true" version="1">
    <nd ref="22"/>
    <nd ref="23"/>
    <nd ref="24"/>
    <nd ref="25"/>
    <nd ref="26"/>
    <nd ref="27"/>
    <nd ref="28"/>
    <nd ref="29"/>
    <nd ref="30"/>
    <nd ref="31"/>
    <nd ref="32"/>
    <nd ref="33"/>
    <nd ref="34"/>
    <nd ref="35"/>
    <nd ref="36"/>
    <nd ref="37"/>
    <nd ref="38"/>
    <nd ref="39"/>
    <tag k="type" v="virtual"/>
  </way>
  <relation id="3" visible="true" version="1">
    <member type="way" ref="1" role="left"/>
    <member type="way" ref="2" role="right"/>
    <tag k="cloudanalyzer:assumption_status" v="hypothesis"/>
    <tag k="cloudanalyzer:boundary_policy" v="source_span_hypothesis"/>
    <tag k="cloudanalyzer:source_center_curve" v="4"/>
    <tag k="location" v="urban"/>
    <tag k="one_way" v="yes"/>
    <tag k="participant:vehicle" v="yes"/>
    <tag k="speed_limit" v="40"/>
    <tag k="subtype" v="road"/>
    <tag k="type" v="lanelet"/>
  </relation>
</osm>
