<?xml version="1.0" encoding="UTF-8"?>
<osm version="0.6" upload="false" generator="vectormap-rs 0.1.0">
  <node id="46" visible="true" version="1" lat="0.00000000000" lon="0.00000000000">
    <tag k="ele" v="-0.7719644454586505"/>
    <tag k="local_x" v="2.477976305739457"/>
    <tag k="local_y" v="3.359177262712079"/>
  </node>
  <node id="47" visible="true" version="1" lat="0.00000000000" lon="0.00000000000">
    <tag k="ele" v="-1.0381138702284285"/>
    <tag k="local_x" v="5.3023747313253535"/>
    <tag k="local_y" v="2.3136613918633215"/>
  </node>
  <node id="48" visible="true" version="1" lat="0.00000000000" lon="0.00000000000">
    <tag k="ele" v="-1.2106314046159234"/>
    <tag k="local_x" v="5.279333946488938"/>
    <tag k="local_y" v="5.48276507247412"/>
  </node>
  <node id="49" visible="true" version="1" lat="0.00000000000" lon="0.00000000000">
    <tag k="ele" v="-0.8822911083192758"/>
    <tag k="local_x" v="4.67513374862907"/>
    <tag k="local_y" v="-0.5679717249321093"/>
  </node>
  <node id="50" visible="true" version="1" lat="0.00000000000" lon="0.00000000000">
    <tag k="ele" v="-1.0362895158668999"/>
    <tag k="local_x" v="6.500756782554971"/>
    <tag k="local_y" v="0.7124492075196309"/>
  </node>
  <node id="51" visible="true" version="1" lat="0.00000000000" lon="0.00000000000">
    <tag k="ele" v="-1.2315618324450068"/>
    <tag k="local_x" v="7.176842766827681"/>
    <tag k="local_y" v="3.1590911976077107"/>
  </node>
  <node id="52" visible="true" version="1" lat="0.00000000000" lon="0.00000000000">
    <tag k="ele" v="-1.7881598262189262"/>
    <tag k="local_x" v="10.185957062952907"/>
    <tag k="local_y" v="10.413815513337916"/>
  </node>
  <node id="53" visible="true" version="1" lat="0.00000000000" lon="0.00000000000">
    <tag k="ele" v="-2.1845879959128953"/>
    <tag k="local_x" v="13.416136371552788"/>
    <tag k="local_y" v="9.338095772643197"/>
  </node>
  <node id="54" visible="true" version="1" lat="0.00000000000" lon="0.00000000000">
    <tag k="ele" v="-2.4890157047216332"/>
    <tag k="local_x" v="16.33769542496384"/>
    <tag k="local_y" v="9.54366681188164"/>
  </node>
  <node id="55" visible="true" version="1" lat="0.00000000000" lon="0.00000000000">
    <tag k="ele" v="-2.1286715146064914"/>
    <tag k="local_x" v="12.247039577416164"/>
    <tag k="local_y" v="5.858385910262722"/>
  </node>
  <node id="56" visible="true" version="1" lat="0.00000000000" lon="0.00000000000">
    <tag k="ele" v="-2.1881299171863686"/>
    <tag k="local_x" v="13.759075771516363"/>
    <tag k="local_y" v="6.357761467912833"/>
  </node>
  <node id="57" visible="true" version="1" lat="0.00000000000" lon="0.00000000000">
    <tag k="ele" v="-2.325521801817639"/>
    <tag k="local_x" v="14.935369541826176"/>
    <tag k="local_y" v="5.797537860886735"/>
  </node>
  <node id="58" visible="true" version="1" lat="0.00000000000" lon="0.00000000000">
    <tag k="ele" v="-2.4793685171207582"/>
    <tag k="local_x" v="16.79875193791615"/>
    <tag k="local_y" v="0.008177752131649285"/>
  </node>
  <node id="59" visible="true" version="1" lat="0.00000000000" lon="0.00000000000">
    <tag k="ele" v="-2.4468522957003542"/>
    <tag k="local_x" v="15.595115614372423"/>
    <tag k="local_y" v="-1.5477177437072145"/>
  </node>
  <node id="60" visible="true" version="1" lat="0.00000000000" lon="0.00000000000">
    <tag k="ele" v="-2.242275755369503"/>
    <tag k="local_x" v="14.039172383903761"/>
    <tag k="local_y" v="2.161017896005962"/>
  </node>
  <node id="61" visible="true" version="1" lat="0.00000000000" lon="0.00000000000">
    <tag k="ele" v="-2.2639451689889585"/>
    <tag k="local_x" v="13.595504497749852"/>
    <tag k="local_y" v="-0.0471993725169666"/>
  </node>
  <node id="62" visible="true" version="1" lat="0.00000000000" lon="0.00000000000">
    <tag k="ele" v="-1.7478235266472155"/>
    <tag k="local_x" v="5.082503051738977"/>
    <tag k="local_y" v="-18.26517448343039"/>
  </node>
  <node id="63" visible="true" version="1" lat="0.00000000000" lon="0.00000000000">
    <tag k="ele" v="-1.723568694435937"/>
    <tag k="local_x" v="4.199068986943638"/>
    <tag k="local_y" v="-19.971071255676677"/>
  </node>
  <node id="64" visible="true" version="1" lat="0.00000000000" lon="0.00000000000">
    <tag k="ele" v="-1.6371121598915699"/>
    <tag k="local_x" v="2.797237535729927"/>
    <tag k="local_y" v="-21.35390854886992"/>
  </node>
  <node id="65" visible="true" version="1" lat="0.00000000000" lon="0.00000000000">
    <tag k="ele" v="-1.5260010965576125"/>
    <tag k="local_x" v="1.1726868250337645"/>
    <tag k="local_y" v="-22.75188840931784"/>
  </node>
  <node id="66" visible="true" version="1" lat="0.00000000000" lon="0.00000000000">
    <tag k="ele" v="-1.4808508307552424"/>
    <tag k="local_x" v="0.10120538023060577"/>
    <tag k="local_y" v="-24.551976415686255"/>
  </node>
  <node id="67" visible="true" version="1" lat="0.00000000000" lon="0.00000000000">
    <tag k="ele" v="-1.504944876760579"/>
    <tag k="local_x" v="0.09709707951718727"/>
    <tag k="local_y" v="-27.04662934296147"/>
  </node>
  <node id="68" visible="true" version="1" lat="0.00000000000" lon="0.00000000000">
    <tag k="ele" v="-1.4918548349507268"/>
    <tag k="local_x" v="-0.9588285346993435"/>
    <tag k="local_y" v="-28.568301519199913"/>
  </node>
  <node id="69" visible="true" version="1" lat="0.00000000000" lon="0.00000000000">
    <tag k="ele" v="-1.4092986052914103"/>
    <tag k="local_x" v="-2.3703398195987093"/>
    <tag k="local_y" v="-30.026303614616186"/>
  </node>
  <node id="70" visible="true" version="1" lat="0.00000000000" lon="0.00000000000">
    <tag k="ele" v="-1.3118658651820687"/>
    <tag k="local_x" v="-3.0988171758293275"/>
    <tag k="local_y" v="-31.999596484687544"/>
  </node>
  <node id="71" visible="true" version="1" lat="0.00000000000" lon="0.00000000000">
    <tag k="ele" v="-1.2877098675104277"/>
    <tag k="local_x" v="-4.1251718066315535"/>
    <tag k="local_y" v="-33.5630695893841"/>
  </node>
  <node id="72" visible="true" version="1" lat="0.00000000000" lon="0.00000000000">
    <tag k="ele" v="-1.136776706578623"/>
    <tag k="local_x" v="-5.90431698196426"/>
    <tag k="local_y" v="-34.82337865845545"/>
  </node>
  <node id="73" visible="true" version="1" lat="0.00000000000" lon="0.00000000000">
    <tag k="ele" v="-1.0972181272517327"/>
    <tag k="local_x" v="-7.00307143352501"/>
    <tag k="local_y" v="-36.53524699838209"/>
  </node>
  <node id="74" visible="true" version="1" lat="0.00000000000" lon="0.00000000000">
    <tag k="ele" v="-1.15423403680613"/>
    <tag k="local_x" v="-8.040398885919876"/>
    <tag k="local_y" v="-38.287747587694014"/>
  </node>
  <node id="75" visible="true" version="1" lat="0.00000000000" lon="0.00000000000">
    <tag k="ele" v="-1.0423958177112473"/>
    <tag k="local_x" v="-9.654987460535592"/>
    <tag k="local_y" v="-39.632256224817915"/>
  </node>
  <node id="76" visible="true" version="1" lat="0.00000000000" lon="0.00000000000">
    <tag k="ele" v="-0.9607143322827498"/>
    <tag k="local_x" v="-9.525293998148957"/>
    <tag k="local_y" v="-42.17189990736193"/>
  </node>
  <node id="77" visible="true" version="1" lat="0.00000000000" lon="0.00000000000">
    <tag k="ele" v="-0.979657916113803"/>
    <tag k="local_x" v="-11.193743624248897"/>
    <tag k="local_y" v="-43.551909166927715"/>
  </node>
  <node id="78" visible="true" version="1" lat="0.00000000000" lon="0.00000000000">
    <tag k="ele" v="-0.8983224051501318"/>
    <tag k="local_x" v="-11.67249906759336"/>
    <tag k="local_y" v="-45.72683883039087"/>
  </node>
  <node id="79" visible="true" version="1" lat="0.00000000000" lon="0.00000000000">
    <tag k="ele" v="-0.7412939223966669"/>
    <tag k="local_x" v="-14.45513740385989"/>
    <tag k="local_y" v="-46.071625302097694"/>
  </node>
  <node id="80" visible="true" version="1" lat="0.00000000000" lon="0.00000000000">
    <tag k="ele" v="-0.8088530804515165"/>
    <tag k="local_x" v="-14.92573752152136"/>
    <tag k="local_y" v="-48.28163428550159"/>
  </node>
  <node id="81" visible="true" version="1" lat="0.00000000000" lon="0.00000000000">
    <tag k="ele" v="-0.6915345817006456"/>
    <tag k="local_x" v="-15.373386889399782"/>
    <tag k="local_y" v="-50.38345277232163"/>
  </node>
  <node id="82" visible="true" version="1" lat="0.00000000000" lon="0.00000000000">
    <tag k="ele" v="-0.7103094801915285"/>
    <tag k="local_x" v="-16.836352960603016"/>
    <tag k="local_y" v="-51.59591115394745"/>
  </node>
  <node id="83" visible="true" version="1" lat="0.00000000000" lon="0.00000000000">
    <tag k="ele" v="-0.532395942091221"/>
    <tag k="local_x" v="-17.03944827472358"/>
    <tag k="local_y" v="-53.794107213027615"/>
  </node>
  <node id="84" visible="true" version="1" lat="0.00000000000" lon="0.00000000000">
    <tag k="ele" v="-0.4797396879290986"/>
    <tag k="local_x" v="-18.227018520069958"/>
    <tag k="local_y" v="-55.60542447158481"/>
  </node>
  <node id="85" visible="true" version="1" lat="0.00000000000" lon="0.00000000000">
    <tag k="ele" v="-0.5695729256680025"/>
    <tag k="local_x" v="-19.183931748212697"/>
    <tag k="local_y" v="-57.637409973778325"/>
  </node>
  <node id="86" visible="true" version="1" lat="0.00000000000" lon="0.00000000000">
    <tag k="ele" v="-0.44325554264587763"/>
    <tag k="local_x" v="-20.87590223299073"/>
    <tag k="local_y" v="-58.89710504402947"/>
  </node>
  <node id="87" visible="true" version="1" lat="0.00000000000" lon="0.00000000000">
    <tag k="ele" v="-1.6008775166089866"/>
    <tag k="local_x" v="2.079998067262829"/>
    <tag k="local_y" v="-16.466573966863166"/>
  </node>
  <node id="88" visible="true" version="1" lat="0.00000000000" lon="0.00000000000">
    <tag k="ele" v="-1.530953237516025"/>
    <tag k="local_x" v="1.1380087088500546"/>
    <tag k="local_y" v="-18.274041505236916"/>
  </node>
  <node id="89" visible="true" version="1" lat="0.00000000000" lon="0.00000000000">
    <tag k="ele" v="-1.407472176324584"/>
    <tag k="local_x" v="-0.34692409407822056"/>
    <tag k="local_y" v="-19.816297529905054"/>
  </node>
  <node id="90" visible="true" version="1" lat="0.00000000000" lon="0.00000000000">
    <tag k="ele" v="-1.3815434121001804"/>
    <tag k="local_x" v="-1.0703909509151255"/>
    <tag k="local_y" v="-21.64798529262499"/>
  </node>
  <node id="91" visible="true" version="1" lat="0.00000000000" lon="0.00000000000">
    <tag k="ele" v="-1.3628762186604535"/>
    <tag k="local_x" v="-1.972853394103145"/>
    <tag k="local_y" v="-23.156168334104414"/>
  </node>
  <node id="92" visible="true" version="1" lat="0.00000000000" lon="0.00000000000">
    <tag k="ele" v="-1.3336948299781592"/>
    <tag k="local_x" v="-3.1433449687121633"/>
    <tag k="local_y" v="-24.701520532678423"/>
  </node>
  <node id="93" visible="true" version="1" lat="0.00000000000" lon="0.00000000000">
    <tag k="ele" v="-1.3105597880042301"/>
    <tag k="local_x" v="-4.341042074679021"/>
    <tag k="local_y" v="-26.432737994043585"/>
  </node>
  <node id="94" visible="true" version="1" lat="0.00000000000" lon="0.00000000000">
    <tag k="ele" v="-1.2369187885975805"/>
    <tag k="local_x" v="-5.340538135984531"/>
    <tag k="local_y" v="-28.1748387995741"/>
  </node>
  <node id="95" visible="true" version="1" lat="0.00000000000" lon="0.00000000000">
    <tag k="ele" v="-1.24147605812309"/>
    <tag k="local_x" v="-6.429687343667133"/>
    <tag k="local_y" v="-29.78480441205225"/>
  </node>
  <node id="96" visible="true" version="1" lat="0.00000000000" lon="0.00000000000">
    <tag k="ele" v="-1.163525714189674"/>
    <tag k="local_x" v="-7.57807091206705"/>
    <tag k="local_y" v="-31.543790567633334"/>
  </node>
  <node id="97" visible="true" version="1" lat="0.00000000000" lon="0.00000000000">
    <tag k="ele" v="-1.0332529578513427"/>
    <tag k="local_x" v="-8.93287634338599"/>
    <tag k="local_y" v="-33.06900464065172"/>
  </node>
  <node id="98" visible="true" version="1" lat="0.00000000000" lon="0.00000000000">
    <tag k="ele" v="-0.9750176740887659"/>
    <tag k="local_x" v="-9.982368397265587"/>
    <tag k="local_y" v="-34.698459149487675"/>
  </node>
  <node id="99" visible="true" version="1" lat="0.00000000000" lon="0.00000000000">
    <tag k="ele" v="-0.9742732667917233"/>
    <tag k="local_x" v="-10.957795475538228"/>
    <tag k="local_y" v="-36.35415064446019"/>
  </node>
  <node id="100" visible="true" version="1" lat="0.00000000000" lon="0.00000000000">
    <tag k="ele" v="-0.9375231427448942"/>
    <tag k="local_x" v="-11.706843475886483"/>
    <tag k="local_y" v="-38.2040101352842"/>
  </node>
  <node id="101" visible="true" version="1" lat="0.00000000000" lon="0.00000000000">
    <tag k="ele" v="-0.9119443137241272"/>
    <tag k="local_x" v="-12.796315383593146"/>
    <tag k="local_y" v="-39.86963600068947"/>
  </node>
  <node id="102" visible="true" version="1" lat="0.00000000000" lon="0.00000000000">
    <tag k="ele" v="-0.796325811644292"/>
    <tag k="local_x" v="-14.341991392841614"/>
    <tag k="local_y" v="-41.08441327279719"/>
  </node>
  <node id="103" visible="true" version="1" lat="0.00000000000" lon="0.00000000000">
    <tag k="ele" v="-0.7213735068583489"/>
    <tag k="local_x" v="-15.205535473575512"/>
    <tag k="local_y" v="-42.939787744744116"/>
  </node>
  <node id="104" visible="true" version="1" lat="0.00000000000" lon="0.00000000000">
    <tag k="ele" v="-0.6409183230349766"/>
    <tag k="local_x" v="-16.428827750772825"/>
    <tag k="local_y" v="-44.537172170033145"/>
  </node>
  <node id="105" visible="true" version="1" lat="0.00000000000" lon="0.00000000000">
    <tag k="ele" v="-0.6381558525369451"/>
    <tag k="local_x" v="-17.64619944124212"/>
    <tag k="local_y" v="-46.079570039538446"/>
  </node>
  <node id="106" visible="true" version="1" lat="0.00000000000" lon="0.00000000000">
    <tag k="ele" v="-0.5485356275325579"/>
    <tag k="local_x" v="-18.550585712902222"/>
    <tag k="local_y" v="-47.95334832272801"/>
  </node>
  <node id="107" visible="true" version="1" lat="0.00000000000" lon="0.00000000000">
    <tag k="ele" v="-0.46698088467980686"/>
    <tag k="local_x" v="-19.748689480752688"/>
    <tag k="local_y" v="-49.65470122367136"/>
  </node>
  <node id="108" visible="true" version="1" lat="0.00000000000" lon="0.00000000000">
    <tag k="ele" v="-0.4082335007371174"/>
    <tag k="local_x" v="-20.826157013702108"/>
    <tag k="local_y" v="-51.36288593018567"/>
  </node>
  <node id="109" visible="true" version="1" lat="0.00000000000" lon="0.00000000000">
    <tag k="ele" v="-0.3728767902841339"/>
    <tag k="local_x" v="-21.883095773484513"/>
    <tag k="local_y" v="-52.98185836472478"/>
  </node>
  <node id="110" visible="true" version="1" lat="0.00000000000" lon="0.00000000000">
    <tag k="ele" v="-0.3188680663488811"/>
    <tag k="local_x" v="-23.07569455359537"/>
    <tag k="local_y" v="-54.498272788716164"/>
  </node>
  <node id="111" visible="true" version="1" lat="0.00000000000" lon="0.00000000000">
    <tag k="ele" v="-0.30947495097310573"/>
    <tag k="local_x" v="-23.954221785099442"/>
    <tag k="local_y" v="-56.34290287209687"/>
  </node>
  <node id="112" visible="true" version="1" lat="0.00000000000" lon="0.00000000000">
    <tag k="ele" v="-0.3154790441666894"/>
    <tag k="local_x" v="-23.617465778850498"/>
    <tag k="local_y" v="-61.4981380592344"/>
  </node>
  <node id="113" visible="true" version="1" lat="0.00000000000" lon="0.00000000000">
    <tag k="ele" v="-0.24661012590502746"/>
    <tag k="local_x" v="-24.560077454393294"/>
    <tag k="local_y" v="-63.047675383450006"/>
  </node>
  <node id="114" visible="true" version="1" lat="0.00000000000" lon="0.00000000000">
    <tag k="ele" v="-0.1940582852594171"/>
    <tag k="local_x" v="-25.47682657709575"/>
    <tag k="local_y" v="-64.61242418335588"/>
  </node>
  <node id="115" visible="true" version="1" lat="0.00000000000" lon="0.00000000000">
    <tag k="ele" v="-0.17618047774870205"/>
    <tag k="local_x" v="-26.085340124044162"/>
    <tag k="local_y" v="-59.79238420350523"/>
  </node>
  <node id="116" visible="true" version="1" lat="0.00000000000" lon="0.00000000000">
    <tag k="ele" v="-0.05854414968383709"/>
    <tag k="local_x" v="-27.565153070808428"/>
    <tag k="local_y" v="-61.25337314034066"/>
  </node>
  <node id="117" visible="true" version="1" lat="0.00000000000" lon="0.00000000000">
    <tag k="ele" v="0.0006751325930398205"/>
    <tag k="local_x" v="-28.593376325918804"/>
    <tag k="local_y" v="-63.01959096449368"/>
  </node>
  <node id="118" visible="true" version="1" lat="0.00000000000" lon="0.00000000000">
    <tag k="ele" v="-0.2695680902516078"/>
    <tag k="local_x" v="-25.196678808976422"/>
    <tag k="local_y" v="-69.06254177152638"/>
  </node>
  <node id="119" visible="true" version="1" lat="0.00000000000" lon="0.00000000000">
    <tag k="ele" v="-0.2657835098981546"/>
    <tag k="local_x" v="-24.822458123250136"/>
    <tag k="local_y" v="-70.94880391729399"/>
  </node>
  <node id="120" visible="true" version="1" lat="0.00000000000" lon="0.00000000000">
    <tag k="ele" v="-0.35506140233433453"/>
    <tag k="local_x" v="-23.730377296814773"/>
    <tag k="local_y" v="-72.4561151161196"/>
  </node>
  <node id="121" visible="true" version="1" lat="0.00000000000" lon="0.00000000000">
    <tag k="ele" v="0.028462032045305924"/>
    <tag k="local_x" v="-29.522835578561327"/>
    <tag k="local_y" v="-72.45877020980535"/>
  </node>
  <node id="122" visible="true" version="1" lat="0.00000000000" lon="0.00000000000">
    <tag k="ele" v="-0.1857890708103896"/>
    <tag k="local_x" v="-26.529228839024647"/>
    <tag k="local_y" v="-72.77553151706758"/>
  </node>
  <node id="123" visible="true" version="1" lat="0.00000000000" lon="0.00000000000">
    <tag k="ele" v="-0.19656878983827317"/>
    <tag k="local_x" v="-25.759451644542516"/>
    <tag k="local_y" v="-75.30793160590173"/>
  </node>
  <node id="124" visible="true" version="1" lat="0.00000000000" lon="0.00000000000">
    <tag k="ele" v="-1.44127278878333"/>
    <tag k="local_x" v="-4.127732328569212"/>
    <tag k="local_y" v="-62.51520971702927"/>
  </node>
  <node id="125" visible="true" version="1" lat="0.00000000000" lon="0.00000000000">
    <tag k="ele" v="-1.4530579751984511"/>
    <tag k="local_x" v="-3.123465950308213"/>
    <tag k="local_y" v="-60.9911592713074"/>
  </node>
  <node id="126" visible="true" version="1" lat="0.00000000000" lon="0.00000000000">
    <tag k="ele" v="-1.4976138455326868"/>
    <tag k="local_x" v="-1.5972207046553295"/>
    <tag k="local_y" v="-59.63671597786029"/>
  </node>
  <node id="127" visible="true" version="1" lat="0.00000000000" lon="0.00000000000">
    <tag k="ele" v="-1.5433282248804951"/>
    <tag k="local_x" v="-0.5369046737007996"/>
    <tag k="local_y" v="-57.94181473748589"/>
  </node>
  <node id="128" visible="true" version="1" lat="0.00000000000" lon="0.00000000000">
    <tag k="ele" v="-1.6037539134816576"/>
    <tag k="local_x" v="0.5936598009956167"/>
    <tag k="local_y" v="-56.28210755559775"/>
  </node>
  <node id="129" visible="true" version="1" lat="0.00000000000" lon="0.00000000000">
    <tag k="ele" v="-1.6213022918594373"/>
    <tag k="local_x" v="1.6682118290986654"/>
    <tag k="local_y" v="-54.600405962494214"/>
  </node>
  <node id="130" visible="true" version="1" lat="0.00000000000" lon="0.00000000000">
    <tag k="ele" v="-1.4487609307866107"/>
    <tag k="local_x" v="-0.9889186778639747"/>
    <tag k="local_y" v="-64.99469532217935"/>
  </node>
  <node id="131" visible="true" version="1" lat="0.00000000000" lon="0.00000000000">
    <tag k="ele" v="-1.5394087113418435"/>
    <tag k="local_x" v="-0.6340076570839017"/>
    <tag k="local_y" v="-62.665255268046145"/>
  </node>
  <node id="132" visible="true" version="1" lat="0.00000000000" lon="0.00000000000">
    <tag k="ele" v="-1.5711600785793105"/>
    <tag k="local_x" v="0.4964654478801068"/>
    <tag k="local_y" v="-61.00290714116115"/>
  </node>
  <node id="133" visible="true" version="1" lat="0.00000000000" lon="0.00000000000">
    <tag k="ele" v="-1.7031338148543174"/>
    <tag k="local_x" v="2.3935052958080734"/>
    <tag k="local_y" v="-59.85563223416707"/>
  </node>
  <node id="134" visible="true" version="1" lat="0.00000000000" lon="0.00000000000">
    <tag k="ele" v="-1.7481896805083483"/>
    <tag k="local_x" v="3.5148697927931853"/>
    <tag k="local_y" v="-58.20993850872151"/>
  </node>
  <node id="135" visible="true" version="1" lat="0.00000000000" lon="0.00000000000">
    <tag k="ele" v="-1.779761557804201"/>
    <tag k="local_x" v="4.592405247054653"/>
    <tag k="local_y" v="-56.52370855293153"/>
  </node>
  <node id="136" visible="true" version="1" lat="0.00000000000" lon="0.00000000000">
    <tag k="ele" v="-2.0703544605027515"/>
    <tag k="local_x" v="8.5332476059295"/>
    <tag k="local_y" v="-44.822735916437104"/>
  </node>
  <node id="137" visible="true" version="1" lat="0.00000000000" lon="0.00000000000">
    <tag k="ele" v="-2.093903264278672"/>
    <tag k="local_x" v="9.520478390383614"/>
    <tag k="local_y" v="-43.14938828066447"/>
  </node>
  <node id="138" visible="true" version="1" lat="0.00000000000" lon="0.00000000000">
    <tag k="ele" v="-2.2776937858508077"/>
    <tag k="local_x" v="10.156308218154063"/>
    <tag k="local_y" v="-41.10428255330994"/>
  </node>
  <node id="139" visible="true" version="1" lat="0.00000000000" lon="0.00000000000">
    <tag k="ele" v="-2.2279261627109297"/>
    <tag k="local_x" v="10.206488201319376"/>
    <tag k="local_y" v="-45.91830239545119"/>
  </node>
  <node id="140" visible="true" version="1" lat="0.00000000000" lon="0.00000000000">
    <tag k="ele" v="-2.331978587188724"/>
    <tag k="local_x" v="12.531570284070046"/>
    <tag k="local_y" v="-44.93357594113515"/>
  </node>
  <node id="141" visible="true" version="1" lat="0.00000000000" lon="0.00000000000">
    <tag k="ele" v="-2.3871577886553976"/>
    <tag k="local_x" v="13.495003936130711"/>
    <tag k="local_y" v="-43.3072602887318"/>
  </node>
  <node id="142" visible="true" version="1" lat="0.00000000000" lon="0.00000000000">
    <tag k="ele" v="-2.6266754503542513"/>
    <tag k="local_x" v="16.81626936199061"/>
    <tag k="local_y" v="-33.605230768593465"/>
  </node>
  <node id="143" visible="true" version="1" lat="0.00000000000" lon="0.00000000000">
    <tag k="ele" v="-2.6247445246896506"/>
    <tag k="local_x" v="17.369889551556316"/>
    <tag k="local_y" v="-31.614348772759293"/>
  </node>
  <node id="144" visible="true" version="1" lat="0.00000000000" lon="0.00000000000">
    <tag k="ele" v="-2.6378021925383774"/>
    <tag k="local_x" v="18.966467449033345"/>
    <tag k="local_y" v="-34.88063195507471"/>
  </node>
  <node id="145" visible="true" version="1" lat="0.00000000000" lon="0.00000000000">
    <tag k="ele" v="-2.7273020404723924"/>
    <tag k="local_x" v="19.523467865914608"/>
    <tag k="local_y" v="-32.884033947881726"/>
  </node>
  <node id="146" visible="true" version="1" lat="0.00000000000" lon="0.00000000000">
    <tag k="ele" v="-2.674880256371382"/>
    <tag k="local_x" v="19.49670164842016"/>
    <tag k="local_y" v="-28.219052912991543"/>
  </node>
  <node id="147" visible="true" version="1" lat="0.00000000000" lon="0.00000000000">
    <tag k="ele" v="-2.8750686458705808"/>
    <tag k="local_x" v="21.331557208804405"/>
    <tag k="local_y" v="-26.98903718999374"/>
  </node>
  <node id="148" visible="true" version="1" lat="0.00000000000" lon="0.00000000000">
    <tag k="ele" v="-2.866624005519598"/>
    <tag k="local_x" v="21.624812341521416"/>
    <tag k="local_y" v="-24.804369674999293"/>
  </node>
  <node id="149" visible="true" version="1" lat="0.00000000000" lon="0.00000000000">
    <tag k="ele" v="-2.7896900788686216"/>
    <tag k="local_x" v="21.21205357239824"/>
    <tag k="local_y" v="-29.247434056782453"/>
  </node>
  <node id="150" visible="true" version="1" lat="0.00000000000" lon="0.00000000000">
    <tag k="ele" v="-2.886378529832405"/>
    <tag k="local_x" v="23.02887639324944"/>
    <tag k="local_y" v="-28.046916004468656"/>
  </node>
  <node id="151" visible="true" version="1" lat="0.00000000000" lon="0.00000000000">
    <tag k="ele" v="-2.9781898610303523"/>
    <tag k="local_x" v="24.575679711900257"/>
    <tag k="local_y" v="-26.686491287019482"/>
  </node>
  <node id="152" visible="true" version="1" lat="0.00000000000" lon="0.00000000000">
    <tag k="ele" v="-2.9398094160887838"/>
    <tag k="local_x" v="22.98802031454635"/>
    <tag k="local_y" v="-17.506534755446673"/>
  </node>
  <node id="153" visible="true" version="1" lat="0.00000000000" lon="0.00000000000">
    <tag k="ele" v="-2.929627781195801"/>
    <tag k="local_x" v="23.645460044133422"/>
    <tag k="local_y" v="-15.7430998865812"/>
  </node>
  <node id="154" visible="true" version="1" lat="0.00000000000" lon="0.00000000000">
    <tag k="ele" v="-3.262935441117096"/>
    <tag k="local_x" v="29.72727893590591"/>
    <tag k="local_y" v="-19.39925587447896"/>
  </node>
  <node id="155" visible="true" version="1" lat="0.00000000000" lon="0.00000000000">
    <tag k="ele" v="-3.206508570934766"/>
    <tag k="local_x" v="29.456206769228697"/>
    <tag k="local_y" v="-17.23816593756174"/>
  </node>
  <node id="156" visible="true" version="1" lat="0.00000000000" lon="0.00000000000">
    <tag k="ele" v="-2.1286715146064914"/>
    <tag k="local_x" v="12.457640249996215"/>
    <tag k="local_y" v="6.4108149826535135"/>
  </node>
  <node id="157" visible="true" version="1" lat="0.00000000000" lon="0.00000000000">
    <tag k="ele" v="-1.8760053976721276"/>
    <tag k="local_x" v="11.000977861100221"/>
    <tag k="local_y" v="5.779967386290577"/>
  </node>
  <node id="158" visible="true" version="1" lat="0.00000000000" lon="0.00000000000">
    <tag k="ele" v="-1.8859832341038838"/>
    <tag k="local_x" v="11.572222091300118"/>
    <tag k="local_y" v="10.822847924988737"/>
  </node>
  <node id="159" visible="true" version="1" lat="0.00000000000" lon="0.00000000000">
    <tag k="ele" v="-1.848880622018409"/>
    <tag k="local_x" v="9.491344145744502"/>
    <tag k="local_y" v="8.372457703622793"/>
  </node>
  <node id="160" visible="true" version="1" lat="0.00000000000" lon="0.00000000000">
    <tag k="ele" v="-1.3844841691421985"/>
    <tag k="local_x" v="8.630901941988698"/>
    <tag k="local_y" v="3.031180529420081"/>
  </node>
  <node id="161" visible="true" version="1" lat="0.00000000000" lon="0.00000000000">
    <tag k="ele" v="-1.1829667275406397"/>
    <tag k="local_x" v="7.205660176490582"/>
    <tag k="local_y" v="1.4942846720132859"/>
  </node>
  <node id="162" visible="true" version="1" lat="0.00000000000" lon="0.00000000000">
    <tag k="ele" v="-0.9556004444689012"/>
    <tag k="local_x" v="4.570702967189707"/>
    <tag k="local_y" v="1.3728946182629616"/>
  </node>
  <node id="163" visible="true" version="1" lat="0.00000000000" lon="0.00000000000">
    <tag k="ele" v="-1.3342600533282332"/>
    <tag k="local_x" v="6.1171987163133075"/>
    <tag k="local_y" v="5.466605768106159"/>
  </node>
  <node id="164" visible="true" version="1" lat="0.00000000000" lon="0.00000000000">
    <tag k="ele" v="-1.165092668378578"/>
    <tag k="local_x" v="5.861880806049188"/>
    <tag k="local_y" v="2.9755871406455814"/>
  </node>
  <node id="165" visible="true" version="1" lat="0.00000000000" lon="0.00000000000">
    <tag k="ele" v="-0.859298447916417"/>
    <tag k="local_x" v="3.489826544363061"/>
    <tag k="local_y" v="3.055662028981827"/>
  </node>
  <node id="166" visible="true" version="1" lat="0.00000000000" lon="0.00000000000">
    <tag k="ele" v="-2.6347716710259967"/>
    <tag k="local_x" v="17.621951787288758"/>
    <tag k="local_y" v="-30.838261687536463"/>
  </node>
  <node id="167" visible="true" version="1" lat="0.00000000000" lon="0.00000000000">
    <tag k="ele" v="-2.644798817362343"/>
    <tag k="local_x" v="17.953154384002104"/>
    <tag k="local_y" v="-30.07655720489014"/>
  </node>
  <node id="168" visible="true" version="1" lat="0.00000000000" lon="0.00000000000">
    <tag k="ele" v="-2.6548259636986895"/>
    <tag k="local_x" v="18.371007072535615"/>
    <tag k="local_y" v="-29.363366678878464"/>
  </node>
  <node id="169" visible="true" version="1" lat="0.00000000000" lon="0.00000000000">
    <tag k="ele" v="-2.6648531100350357"/>
    <tag k="local_x" v="18.883019583728547"/>
    <tag k="local_y" v="-28.732821463559553"/>
  </node>
  <node id="170" visible="true" version="1" lat="0.00000000000" lon="0.00000000000">
    <tag k="ele" v="-2.739779648151638"/>
    <tag k="local_x" v="19.729978414584153"/>
    <tag k="local_y" v="-32.0825243908504"/>
  </node>
  <node id="171" visible="true" version="1" lat="0.00000000000" lon="0.00000000000">
    <tag k="ele" v="-2.752257255830884"/>
    <tag k="local_x" v="19.952349217878552"/>
    <tag k="local_y" v="-31.261038582128634"/>
  </node>
  <node id="172" visible="true" version="1" lat="0.00000000000" lon="0.00000000000">
    <tag k="ele" v="-2.76473486351013"/>
    <tag k="local_x" v="20.240323317486542"/>
    <tag k="local_y" v="-30.476647562812612"/>
  </node>
  <node id="173" visible="true" version="1" lat="0.00000000000" lon="0.00000000000">
    <tag k="ele" v="-2.777212471189376"/>
    <tag k="local_x" v="20.64364375509686"/>
    <tag k="local_y" v="-29.78642237399849"/>
  </node>
  <node id="174" visible="true" version="1" lat="0.00000000000" lon="0.00000000000">
    <tag k="ele" v="-2.875772181840746"/>
    <tag k="local_x" v="22.005720494217524"/>
    <tag k="local_y" v="-23.963782116971643"/>
  </node>
  <node id="175" visible="true" version="1" lat="0.00000000000" lon="0.00000000000">
    <tag k="ele" v="-2.8849203581618945"/>
    <tag k="local_x" v="22.29196210450052"/>
    <tag k="local_y" v="-23.08760493130977"/>
  </node>
  <node id="176" visible="true" version="1" lat="0.00000000000" lon="0.00000000000">
    <tag k="ele" v="-2.8940685344830426"/>
    <tag k="local_x" v="22.500797992710105"/>
    <tag k="local_y" v="-22.18339838798559"/>
  </node>
  <node id="177" visible="true" version="1" lat="0.00000000000" lon="0.00000000000">
    <tag k="ele" v="-2.903216710804191"/>
    <tag k="local_x" v="22.64948897918598"/>
    <tag k="local_y" v="-21.258722756970997"/>
  </node>
  <node id="178" visible="true" version="1" lat="0.00000000000" lon="0.00000000000">
    <tag k="ele" v="-2.912364887125339"/>
    <tag k="local_x" v="22.75529588426784"/>
    <tag k="local_y" v="-20.32113830823791"/>
  </node>
  <node id="179" visible="true" version="1" lat="0.00000000000" lon="0.00000000000">
    <tag k="ele" v="-2.921513063446487"/>
    <tag k="local_x" v="22.83547952829539"/>
    <tag k="local_y" v="-19.37820531175822"/>
  </node>
  <node id="180" visible="true" version="1" lat="0.00000000000" lon="0.00000000000">
    <tag k="ele" v="-2.9306612397676357"/>
    <tag k="local_x" v="22.907300731608327"/>
    <tag k="local_y" v="-18.43748403750384"/>
  </node>
  <node id="181" visible="true" version="1" lat="0.00000000000" lon="0.00000000000">
    <tag k="ele" v="-3.0098282588177683"/>
    <tag k="local_x" v="25.109153829488097"/>
    <tag k="local_y" v="-25.841529696254856"/>
  </node>
  <node id="182" visible="true" version="1" lat="0.00000000000" lon="0.00000000000">
    <tag k="ele" v="-3.0414666566051842"/>
    <tag k="local_x" v="25.75328381795053"/>
    <tag k="local_y" v="-25.047540946709645"/>
  </node>
  <node id="183" visible="true" version="1" lat="0.00000000000" lon="0.00000000000">
    <tag k="ele" v="-3.0731050543926"/>
    <tag k="local_x" v="26.464816353647436"/>
    <tag k="local_y" v="-24.286458331484333"/>
  </node>
  <node id="184" visible="true" version="1" lat="0.00000000000" lon="0.00000000000">
    <tag k="ele" v="-3.104743452180016"/>
    <tag k="local_x" v="27.200498112938693"/>
    <tag k="local_y" v="-23.540215143679443"/>
  </node>
  <node id="185" visible="true" version="1" lat="0.00000000000" lon="0.00000000000">
    <tag k="ele" v="-3.136381849967432"/>
    <tag k="local_x" v="27.91707577218418"/>
    <tag k="local_y" v="-22.790744676395477"/>
  </node>
  <node id="186" visible="true" version="1" lat="0.00000000000" lon="0.00000000000">
    <tag k="ele" v="-3.168020247754848"/>
    <tag k="local_x" v="28.57129600774377"/>
    <tag k="local_y" v="-22.019980222732936"/>
  </node>
  <node id="187" visible="true" version="1" lat="0.00000000000" lon="0.00000000000">
    <tag k="ele" v="-3.199658645542264"/>
    <tag k="local_x" v="29.119905495977335"/>
    <tag k="local_y" v="-21.209855075792333"/>
  </node>
  <node id="188" visible="true" version="1" lat="0.00000000000" lon="0.00000000000">
    <tag k="ele" v="-3.23129704332968"/>
    <tag k="local_x" v="29.519650913244757"/>
    <tag k="local_y" v="-20.34230252867417"/>
  </node>
  <way id="1" visible="true" version="1">
    <nd ref="46"/>
    <nd ref="47"/>
    <nd ref="48"/>
    <tag k="type" v="virtual"/>
  </way>
  <way id="2" visible="true" version="1">
    <nd ref="49"/>
    <nd ref="50"/>
    <nd ref="51"/>
    <tag k="type" v="virtual"/>
  </way>
  <way id="4" visible="true" version="1">
    <nd ref="52"/>
    <nd ref="53"/>
    <nd ref="54"/>
    <tag k="type" v="virtual"/>
  </way>
  <way id="5" visible="true" version="1">
    <nd ref="55"/>
    <nd ref="56"/>
    <nd ref="57"/>
    <tag k="type" v="virtual"/>
  </way>
  <way id="7" visible="true" version="1">
    <nd ref="58"/>
    <nd ref="59"/>
    <tag k="type" v="virtual"/>
  </way>
  <way id="8" visible="true" version="1">
    <nd ref="60"/>
    <nd ref="61"/>
    <tag k="type" v="virtual"/>
  </way>
  <way id="10" visible="true" version="1">
    <nd ref="62"/>
    <nd ref="63"/>
    <nd ref="64"/>
    <nd ref="65"/>
    <nd ref="66"/>
    <nd ref="67"/>
    <nd ref="68"/>
    <nd ref="69"/>
    <nd ref="70"/>
    <nd ref="71"/>
    <nd ref="72"/>
    <nd ref="73"/>
    <nd ref="74"/>
    <nd ref="75"/>
    <nd ref="76"/>
    <nd ref="77"/>
    <nd ref="78"/>
    <nd ref="79"/>
    <nd ref="80"/>
    <nd ref="81"/>
    <nd ref="82"/>
    <nd ref="83"/>
    <nd ref="84"/>
    <nd ref="85"/>
    <nd ref="86"/>
    <tag k="type" v="virtual"/>
  </way>
  <way id="11" visible="true" version="1">
    <nd ref="87"/>
    <nd ref="88"/>
    <nd ref="89"/>
    <nd ref="90"/>
    <nd ref="91"/>
    <nd ref="92"/>
    <nd ref="93"/>
    <nd ref="94"/>
    <nd ref="95"/>
    <nd ref="96"/>
    <nd ref="97"/>
    <nd ref="98"/>
    <nd ref="99"/>
    <nd ref="100"/>
    <nd ref="101"/>
    <nd ref="102"/>
    <nd ref="103"/>
    <nd ref="104"/>
    <nd ref="105"/>
    <nd ref="106"/>
    <nd ref="107"/>
    <nd ref="108"/>
    <nd ref="109"/>
    <nd ref="110"/>
    <nd ref="111"/>
    <tag k="type" v="virtual"/>
  </way>
  <way id="13" visible="true" version="1">
    <nd ref="112"/>
    <nd ref="113"/>
    <nd ref="114"/>
    <tag k="type" v="virtual"/>
  </way>
  <way id="14" visible="true" version="1">
    <nd ref="115"/>
    <nd ref="116"/>
    <nd ref="117"/>
    <tag k="type" v="virtual"/>
  </way>
  <way id="16" visible="true" version="1">
    <nd ref="118"/>
    <nd ref="119"/>
    <nd ref="120"/>
    <tag k="type" v="virtual"/>
  </way>
  <way id="17" visible="true" version="1">
    <nd ref="121"/>
    <nd ref="122"/>
    <nd ref="123"/>
    <tag k="type" v="virtual"/>
  </way>
  <way id="19" visible="true" version="1">
    <nd ref="124"/>
    <nd ref="125"/>
    <nd ref="126"/>
    <nd ref="127"/>
    <nd ref="128"/>
    <nd ref="129"/>
    <tag k="type" v="virtual"/>
  </way>
  <way id="20" visible="true" version="1">
    <nd ref="130"/>
    <nd ref="131"/>
    <nd ref="132"/>
    <nd ref="133"/>
    <nd ref="134"/>
    <nd ref="135"/>
    <tag k="type" v="virtual"/>
  </way>
  <way id="22" visible="true" version="1">
    <nd ref="136"/>
    <nd ref="137"/>
    <nd ref="138"/>
    <tag k="type" v="virtual"/>
  </way>
  <way id="23" visible="true" version="1">
    <nd ref="139"/>
    <nd ref="140"/>
    <nd ref="141"/>
    <tag k="type" v="virtual"/>
  </way>
  <way id="25" visible="true" version="1">
    <nd ref="142"/>
    <nd ref="143"/>
    <tag k="type" v="virtual"/>
  </way>
  <way id="26" visible="true" version="1">
    <nd ref="144"/>
    <nd ref="145"/>
    <tag k="type" v="virtual"/>
  </way>
  <way id="28" visible="true" version="1">
    <nd ref="146"/>
    <nd ref="147"/>
    <nd ref="148"/>
    <tag k="type" v="virtual"/>
  </way>
  <way id="29" visible="true" version="1">
    <nd ref="149"/>
    <nd ref="150"/>
    <nd ref="151"/>
    <tag k="type" v="virtual"/>
  </way>
  <way id="31" visible="true" version="1">
    <nd ref="152"/>
    <nd ref="153"/>
    <tag k="type" v="virtual"/>
  </way>
  <way id="32" visible="true" version="1">
    <nd ref="154"/>
    <nd ref="155"/>
    <tag k="type" v="virtual"/>
  </way>
  <way id="34" visible="true" version="1">
    <nd ref="156"/>
    <nd ref="157"/>
    <tag k="type" v="virtual"/>
  </way>
  <way id="35" visible="true" version="1">
    <nd ref="158"/>
    <nd ref="159"/>
    <tag k="type" v="virtual"/>
  </way>
  <way id="37" visible="true" version="1">
    <nd ref="160"/>
    <nd ref="161"/>
    <nd ref="162"/>
    <tag k="type" v="virtual"/>
  </way>
  <way id="38" visible="true" version="1">
    <nd ref="163"/>
    <nd ref="164"/>
    <nd ref="165"/>
    <tag k="type" v="virtual"/>
  </way>
  <way id="40" visible="true" version="1">
    <nd ref="143"/>
    <nd ref="166"/>
    <nd ref="167"/>
    <nd ref="168"/>
    <nd ref="169"/>
    <nd ref="146"/>
    <tag k="type" v="virtual"/>
  </way>
  <way id="41" visible="true" version="1">
    <nd ref="145"/>
    <nd ref="170"/>
    <nd ref="171"/>
    <nd ref="172"/>
    <nd ref="173"/>
    <nd ref="149"/>
    <tag k="type" v="virtual"/>
  </way>
  <way id="43" visible="true" version="1">
    <nd ref="148"/>
    <nd ref="174"/>
    <nd ref="175"/>
    <nd ref="176"/>
    <nd ref="177"/>
    <nd ref="178"/>
    <nd ref="179"/>
    <nd ref="180"/>
    <nd ref="152"/>
    <tag k="type" v="virtual"/>
  </way>
  <way id="44" visible="true" version="1">
    <nd ref="151"/>
    <nd ref="181"/>
    <nd ref="182"/>
    <nd ref="183"/>
    <nd ref="184"/>
    <nd ref="185"/>
    <nd ref="186"/>
    <nd ref="187"/>
    <nd ref="188"/>
    <nd ref="154"/>
    <tag k="type" v="virtual"/>
  </way>
  <relation id="3" visible="true" version="1">
    <member type="way" ref="1" role="left"/>
    <member type="way" ref="2" role="right"/>
    <tag k="cloudanalyzer:assumption_status" v="hypothesis"/>
    <tag k="cloudanalyzer:boundary_policy" v="source_span_hypothesis"/>
    <tag k="cloudanalyzer:source_center_curve" v="1"/>
    <tag k="location" v="urban"/>
    <tag k="one_way" v="yes"/>
    <tag k="participant:vehicle" v="yes"/>
    <tag k="speed_limit" v="40"/>
    <tag k="subtype" v="road"/>
    <tag k="type" v="lanelet"/>
  </relation>
  <relation id="6" visible="true" version="1">
    <member type="way" ref="4" role="left"/>
    <member type="way" ref="5" role="right"/>
    <tag k="cloudanalyzer:assumption_status" v="hypothesis"/>
    <tag k="cloudanalyzer:boundary_policy" v="source_span_hypothesis"/>
    <tag k="cloudanalyzer:source_center_curve" v="4"/>
    <tag k="location" v="urban"/>
    <tag k="one_way" v="yes"/>
    <tag k="participant:vehicle" v="yes"/>
    <tag k="speed_limit" v="40"/>
    <tag k="subtype" v="road"/>
    <tag k="type" v="lanelet"/>
  </relation>
  <relation id="9" visible="true" version="1">
    <member type="way" ref="7" role="left"/>
    <member type="way" ref="8" role="right"/>
    <tag k="cloudanalyzer:assumption_status" v="hypothesis"/>
    <tag k="cloudanalyzer:boundary_policy" v="source_span_hypothesis"/>
    <tag k="cloudanalyzer:source_center_curve" v="7"/>
    <tag k="location" v="urban"/>
    <tag k="one_way" v="yes"/>
    <tag k="participant:vehicle" v="yes"/>
    <tag k="speed_limit" v="40"/>
    <tag k="subtype" v="road"/>
    <tag k="type" v="lanelet"/>
  </relation>
  <relation id="12" visible="true" version="1">
    <member type="way" ref="10" role="left"/>
    <member type="way" ref="11" role="right"/>
    <tag k="cloudanalyzer:assumption_status" v="hypothesis"/>
    <tag k="cloudanalyzer:boundary_policy" v="source_span_hypothesis"/>
    <tag k="cloudanalyzer:source_center_curve" v="10"/>
    <tag k="location" v="urban"/>
    <tag k="one_way" v="yes"/>
    <tag k="participant:vehicle" v="yes"/>
    <tag k="speed_limit" v="40"/>
    <tag k="subtype" v="road"/>
    <tag k="type" v="lanelet"/>
  </relation>
  <relation id="15" visible="true" version="1">
    <member type="way" ref="13" role="left"/>
    <member type="way" ref="14" role="right"/>
    <tag k="cloudanalyzer:assumption_status" v="hypothesis"/>
    <tag k="cloudanalyzer:boundary_policy" v="source_span_hypothesis"/>
    <tag k="cloudanalyzer:source_center_curve" v="13"/>
    <tag k="location" v="urban"/>
    <tag k="one_way" v="yes"/>
    <tag k="participant:vehicle" v="yes"/>
    <tag k="speed_limit" v="40"/>
    <tag k="subtype" v="road"/>
    <tag k="type" v="lanelet"/>
  </relation>
  <relation id="18" visible="true" version="1">
    <member type="way" ref="16" role="left"/>
    <member type="way" ref="17" role="right"/>
    <tag k="cloudanalyzer:assumption_status" v="hypothesis"/>
    <tag k="cloudanalyzer:boundary_policy" v="source_span_hypothesis"/>
    <tag k="cloudanalyzer:source_center_curve" v="16"/>
    <tag k="location" v="urban"/>
    <tag k="one_way" v="yes"/>
    <tag k="participant:vehicle" v="yes"/>
    <tag k="speed_limit" v="40"/>
    <tag k="subtype" v="road"/>
    <tag k="type" v="lanelet"/>
  </relation>
  <relation id="21" visible="true" version="1">
    <member type="way" ref="19" role="left"/>
    <member type="way" ref="20" role="right"/>
    <tag k="cloudanalyzer:assumption_status" v="hypothesis"/>
    <tag k="cloudanalyzer:boundary_policy" v="source_span_hypothesis"/>
    <tag k="cloudanalyzer:source_center_curve" v="19"/>
    <tag k="location" v="urban"/>
    <tag k="one_way" v="yes"/>
    <tag k="participant:vehicle" v="yes"/>
    <tag k="speed_limit" v="40"/>
    <tag k="subtype" v="road"/>
    <tag k="type" v="lanelet"/>
  </relation>
  <relation id="24" visible="true" version="1">
    <member type="way" ref="22" role="left"/>
    <member type="way" ref="23" role="right"/>
    <tag k="cloudanalyzer:assumption_status" v="hypothesis"/>
    <tag k="cloudanalyzer:boundary_policy" v="source_span_hypothesis"/>
    <tag k="cloudanalyzer:source_center_curve" v="22"/>
    <tag k="location" v="urban"/>
    <tag k="one_way" v="yes"/>
    <tag k="participant:vehicle" v="yes"/>
    <tag k="speed_limit" v="40"/>
    <tag k="subtype" v="road"/>
    <tag k="type" v="lanelet"/>
  </relation>
  <relation id="27" visible="true" version="1">
    <member type="way" ref="25" role="left"/>
    <member type="way" ref="26" role="right"/>
    <tag k="cloudanalyzer:assumption_status" v="hypothesis"/>
    <tag k="cloudanalyzer:boundary_policy" v="source_span_hypothesis"/>
    <tag k="cloudanalyzer:source_center_curve" v="25"/>
    <tag k="location" v="urban"/>
    <tag k="one_way" v="yes"/>
    <tag k="participant:vehicle" v="yes"/>
    <tag k="speed_limit" v="40"/>
    <tag k="subtype" v="road"/>
    <tag k="type" v="lanelet"/>
  </relation>
  <relation id="30" visible="true" version="1">
    <member type="way" ref="28" role="left"/>
    <member type="way" ref="29" role="right"/>
    <tag k="cloudanalyzer:assumption_status" v="hypothesis"/>
    <tag k="cloudanalyzer:boundary_policy" v="source_span_hypothesis"/>
    <tag k="cloudanalyzer:source_center_curve" v="28"/>
    <tag k="location" v="urban"/>
    <tag k="one_way" v="yes"/>
    <tag k="participant:vehicle" v="yes"/>
    <tag k="speed_limit" v="40"/>
    <tag k="subtype" v="road"/>
    <tag k="type" v="lanelet"/>
  </relation>
  <relation id="33" visible="true" version="1">
    <member type="way" ref="31" role="left"/>
    <member type="way" ref="32" role="right"/>
    <tag k="cloudanalyzer:assumption_status" v="hypothesis"/>
    <tag k="cloudanalyzer:boundary_policy" v="source_span_hypothesis"/>
    <tag k="cloudanalyzer:source_center_curve" v="31"/>
    <tag k="location" v="urban"/>
    <tag k="one_way" v="yes"/>
    <tag k="participant:vehicle" v="yes"/>
    <tag k="speed_limit" v="40"/>
    <tag k="subtype" v="road"/>
    <tag k="type" v="lanelet"/>
  </relation>
  <relation id="36" visible="true" version="1">
    <member type="way" ref="34" role="left"/>
    <member type="way" ref="35" role="right"/>
    <tag k="cloudanalyzer:assumption_status" v="hypothesis"/>
    <tag k="cloudanalyzer:boundary_policy" v="source_span_hypothesis"/>
    <tag k="cloudanalyzer:source_center_curve" v="34"/>
    <tag k="location" v="urban"/>
    <tag k="one_way" v="yes"/>
    <tag k="participant:vehicle" v="yes"/>
    <tag k="speed_limit" v="40"/>
    <tag k="subtype" v="road"/>
    <tag k="type" v="lanelet"/>
  </relation>
  <relation id="39" visible="true" version="1">
    <member type="way" ref="37" role="left"/>
    <member type="way" ref="38" role="right"/>
    <tag k="cloudanalyzer:assumption_status" v="hypothesis"/>
    <tag k="cloudanalyzer:boundary_policy" v="source_span_hypothesis"/>
    <tag k="cloudanalyzer:source_center_curve" v="37"/>
    <tag k="location" v="urban"/>
    <tag k="one_way" v="yes"/>
    <tag k="participant:vehicle" v="yes"/>
    <tag k="speed_limit" v="40"/>
    <tag k="subtype" v="road"/>
    <tag k="type" v="lanelet"/>
  </relation>
  <relation id="42" visible="true" version="1">
    <member type="way" ref="40" role="left"/>
    <member type="way" ref="41" role="right"/>
    <tag k="cloudanalyzer_geometry_source" v="ground_supported_connection"/>
    <tag k="cloudanalyzer_review_required" v="yes"/>
    <tag k="location" v="urban"/>
    <tag k="one_way" v="yes"/>
    <tag k="participant:vehicle" v="yes"/>
    <tag k="speed_limit" v="40"/>
    <tag k="subtype" v="road"/>
    <tag k="turn_direction" v="right"/>
    <tag k="type" v="lanelet"/>
  </relation>
  <relation id="45" visible="true" version="1">
    <member type="way" ref="43" role="left"/>
    <member type="way" ref="44" role="right"/>
    <tag k="cloudanalyzer_geometry_source" v="ground_supported_connection"/>
    <tag k="cloudanalyzer_review_required" v="yes"/>
    <tag k="location" v="urban"/>
    <tag k="one_way" v="yes"/>
    <tag k="participant:vehicle" v="yes"/>
    <tag k="speed_limit" v="40"/>
    <tag k="subtype" v="road"/>
    <tag k="turn_direction" v="straight"/>
    <tag k="type" v="lanelet"/>
  </relation>
</osm>
