<?xml version="1.0" encoding="UTF-8"?>
<osm version="0.6" upload="false" generator="vectormap-rs 0.1.0">
  <node id="11" visible="true" version="1" lat="0.00000000000" lon="0.00000000000">
    <tag k="ele" v="19.13312530517578"/>
    <tag k="local_x" v="3752.2568955545757"/>
    <tag k="local_y" v="73790.82786382394"/>
  </node>
  <node id="12" visible="true" version="1" lat="0.00000000000" lon="0.00000000000">
    <tag k="ele" v="19.11944580078125"/>
    <tag k="local_x" v="3754.47454947507"/>
    <tag k="local_y" v="73791.98542529542"/>
  </node>
  <node id="13" visible="true" version="1" lat="0.00000000000" lon="0.00000000000">
    <tag k="ele" v="19.116901397705078"/>
    <tag k="local_x" v="3755.8051418273703"/>
    <tag k="local_y" v="73792.67996217833"/>
  </node>
  <node id="14" visible="true" version="1" lat="0.00000000000" lon="0.00000000000">
    <tag k="ele" v="19.11829948425293"/>
    <tag k="local_x" v="3757.579264963765"/>
    <tag k="local_y" v="73793.60601135551"/>
  </node>
  <node id="15" visible="true" version="1" lat="0.00000000000" lon="0.00000000000">
    <tag k="ele" v="19.1474552154541"/>
    <tag k="local_x" v="3759.3533881001526"/>
    <tag k="local_y" v="73794.5320605327"/>
  </node>
  <node id="16" visible="true" version="1" lat="0.00000000000" lon="0.00000000000">
    <tag k="ele" v="19.130332946777344"/>
    <tag k="local_x" v="3761.127511236554"/>
    <tag k="local_y" v="73795.45810970987"/>
  </node>
  <node id="17" visible="true" version="1" lat="0.00000000000" lon="0.00000000000">
    <tag k="ele" v="19.126110076904297"/>
    <tag k="local_x" v="3762.9016343729472"/>
    <tag k="local_y" v="73796.38415888706"/>
  </node>
  <node id="18" visible="true" version="1" lat="0.00000000000" lon="0.00000000000">
    <tag k="ele" v="19.125221252441406"/>
    <tag k="local_x" v="3764.6757575093425"/>
    <tag k="local_y" v="73797.31020806424"/>
  </node>
  <node id="19" visible="true" version="1" lat="0.00000000000" lon="0.00000000000">
    <tag k="ele" v="19.19824981689453"/>
    <tag k="local_x" v="3753.690606416642"/>
    <tag k="local_y" v="73788.30453270671"/>
  </node>
  <node id="20" visible="true" version="1" lat="0.00000000000" lon="0.00000000000">
    <tag k="ele" v="19.196998596191406"/>
    <tag k="local_x" v="3755.9082603371357"/>
    <tag k="local_y" v="73789.46209417819"/>
  </node>
  <node id="21" visible="true" version="1" lat="0.00000000000" lon="0.00000000000">
    <tag k="ele" v="19.196998596191406"/>
    <tag k="local_x" v="3757.2388526894365"/>
    <tag k="local_y" v="73790.1566310611"/>
  </node>
  <node id="22" visible="true" version="1" lat="0.00000000000" lon="0.00000000000">
    <tag k="ele" v="19.197750091552734"/>
    <tag k="local_x" v="3759.012975825831"/>
    <tag k="local_y" v="73791.08268023828"/>
  </node>
  <node id="23" visible="true" version="1" lat="0.00000000000" lon="0.00000000000">
    <tag k="ele" v="19.202499389648438"/>
    <tag k="local_x" v="3760.787098962219"/>
    <tag k="local_y" v="73792.00872941545"/>
  </node>
  <node id="24" visible="true" version="1" lat="0.00000000000" lon="0.00000000000">
    <tag k="ele" v="19.197750091552734"/>
    <tag k="local_x" v="3762.5612220986195"/>
    <tag k="local_y" v="73792.93477859264"/>
  </node>
  <node id="25" visible="true" version="1" lat="0.00000000000" lon="0.00000000000">
    <tag k="ele" v="19.195274353027344"/>
    <tag k="local_x" v="3764.3353452350134"/>
    <tag k="local_y" v="73793.86082776982"/>
  </node>
  <node id="26" visible="true" version="1" lat="0.00000000000" lon="0.00000000000">
    <tag k="ele" v="19.192750930786133"/>
    <tag k="local_x" v="3766.109468371408"/>
    <tag k="local_y" v="73794.78687694701"/>
  </node>
  <node id="27" visible="true" version="1" lat="0.00000000000" lon="0.00000000000">
    <tag k="ele" v="19.14360237121582"/>
    <tag k="local_x" v="3755.1211447486885"/>
    <tag k="local_y" v="73785.78678524231"/>
  </node>
  <node id="28" visible="true" version="1" lat="0.00000000000" lon="0.00000000000">
    <tag k="ele" v="19.148555755615234"/>
    <tag k="local_x" v="3757.338798669183"/>
    <tag k="local_y" v="73786.94434671379"/>
  </node>
  <node id="29" visible="true" version="1" lat="0.00000000000" lon="0.00000000000">
    <tag k="ele" v="19.145801544189453"/>
    <tag k="local_x" v="3758.669391021483"/>
    <tag k="local_y" v="73787.6388835967"/>
  </node>
  <node id="30" visible="true" version="1" lat="0.00000000000" lon="0.00000000000">
    <tag k="ele" v="19.147199630737305"/>
    <tag k="local_x" v="3760.443514157878"/>
    <tag k="local_y" v="73788.56493277388"/>
  </node>
  <node id="31" visible="true" version="1" lat="0.00000000000" lon="0.00000000000">
    <tag k="ele" v="19.145111083984375"/>
    <tag k="local_x" v="3762.2176372942654"/>
    <tag k="local_y" v="73789.49098195105"/>
  </node>
  <node id="32" visible="true" version="1" lat="0.00000000000" lon="0.00000000000">
    <tag k="ele" v="19.14299774169922"/>
    <tag k="local_x" v="3763.9917604306665"/>
    <tag k="local_y" v="73790.41703112824"/>
  </node>
  <node id="33" visible="true" version="1" lat="0.00000000000" lon="0.00000000000">
    <tag k="ele" v="19.13949966430664"/>
    <tag k="local_x" v="3765.76588356706"/>
    <tag k="local_y" v="73791.34308030542"/>
  </node>
  <node id="34" visible="true" version="1" lat="0.00000000000" lon="0.00000000000">
    <tag k="ele" v="19.138547897338867"/>
    <tag k="local_x" v="3767.540006703455"/>
    <tag k="local_y" v="73792.2691294826"/>
  </node>
  <node id="35" visible="true" version="1" lat="0.00000000000" lon="0.00000000000">
    <tag k="ele" v="19.124874114990234"/>
    <tag k="local_x" v="3768.2240037821302"/>
    <tag k="local_y" v="73799.16230641861"/>
  </node>
  <node id="36" visible="true" version="1" lat="0.00000000000" lon="0.00000000000">
    <tag k="ele" v="19.12459945678711"/>
    <tag k="local_x" v="3769.9981269185314"/>
    <tag k="local_y" v="73800.08835559581"/>
  </node>
  <node id="37" visible="true" version="1" lat="0.00000000000" lon="0.00000000000">
    <tag k="ele" v="19.132625579833984"/>
    <tag k="local_x" v="3771.7722500549253"/>
    <tag k="local_y" v="73801.01440477298"/>
  </node>
  <node id="38" visible="true" version="1" lat="0.00000000000" lon="0.00000000000">
    <tag k="ele" v="19.137636184692383"/>
    <tag k="local_x" v="3773.5463731913133"/>
    <tag k="local_y" v="73801.94045395017"/>
  </node>
  <node id="39" visible="true" version="1" lat="0.00000000000" lon="0.00000000000">
    <tag k="ele" v="19.131999969482422"/>
    <tag k="local_x" v="3775.3204963277135"/>
    <tag k="local_y" v="73802.86650312736"/>
  </node>
  <node id="40" visible="true" version="1" lat="0.00000000000" lon="0.00000000000">
    <tag k="ele" v="19.130002975463867"/>
    <tag k="local_x" v="3777.0946194641083"/>
    <tag k="local_y" v="73803.79255230454"/>
  </node>
  <node id="41" visible="true" version="1" lat="0.00000000000" lon="0.00000000000">
    <tag k="ele" v="19.14099884033203"/>
    <tag k="local_x" v="3778.8687426005085"/>
    <tag k="local_y" v="73804.71860148174"/>
  </node>
  <node id="42" visible="true" version="1" lat="0.00000000000" lon="0.00000000000">
    <tag k="ele" v="19.143455505371094"/>
    <tag k="local_x" v="3780.6428657369033"/>
    <tag k="local_y" v="73805.64465065893"/>
  </node>
  <node id="43" visible="true" version="1" lat="0.00000000000" lon="0.00000000000">
    <tag k="ele" v="19.131999969482422"/>
    <tag k="local_x" v="3782.4169888732913"/>
    <tag k="local_y" v="73806.5706998361"/>
  </node>
  <node id="44" visible="true" version="1" lat="0.00000000000" lon="0.00000000000">
    <tag k="ele" v="19.137374877929688"/>
    <tag k="local_x" v="3784.1911120096916"/>
    <tag k="local_y" v="73807.49674901328"/>
  </node>
  <node id="45" visible="true" version="1" lat="0.00000000000" lon="0.00000000000">
    <tag k="ele" v="19.138090133666992"/>
    <tag k="local_x" v="3785.9652351460854"/>
    <tag k="local_y" v="73808.42279819047"/>
  </node>
  <node id="46" visible="true" version="1" lat="0.00000000000" lon="0.00000000000">
    <tag k="ele" v="19.130332946777344"/>
    <tag k="local_x" v="3787.739358282486"/>
    <tag k="local_y" v="73809.34884736767"/>
  </node>
  <node id="47" visible="true" version="1" lat="0.00000000000" lon="0.00000000000">
    <tag k="ele" v="19.122400283813477"/>
    <tag k="local_x" v="3789.513481418881"/>
    <tag k="local_y" v="73810.27489654486"/>
  </node>
  <node id="48" visible="true" version="1" lat="0.00000000000" lon="0.00000000000">
    <tag k="ele" v="19.118818283081055"/>
    <tag k="local_x" v="3791.2876045552684"/>
    <tag k="local_y" v="73811.20094572204"/>
  </node>
  <node id="49" visible="true" version="1" lat="0.00000000000" lon="0.00000000000">
    <tag k="ele" v="19.12041664123535"/>
    <tag k="local_x" v="3793.0617276916687"/>
    <tag k="local_y" v="73812.12699489921"/>
  </node>
  <node id="50" visible="true" version="1" lat="0.00000000000" lon="0.00000000000">
    <tag k="ele" v="19.124109268188477"/>
    <tag k="local_x" v="3794.6984867535675"/>
    <tag k="local_y" v="73812.9813433666"/>
  </node>
  <node id="51" visible="true" version="1" lat="0.00000000000" lon="0.00000000000">
    <tag k="ele" v="19.122249603271484"/>
    <tag k="local_x" v="3795.857374012744"/>
    <tag k="local_y" v="73813.58625436224"/>
  </node>
  <node id="52" visible="true" version="1" lat="0.00000000000" lon="0.00000000000">
    <tag k="ele" v="19.130817413330078"/>
    <tag k="local_x" v="3797.147820430385"/>
    <tag k="local_y" v="73814.25983604252"/>
  </node>
  <node id="53" visible="true" version="1" lat="0.00000000000" lon="0.00000000000">
    <tag k="ele" v="19.193546295166016"/>
    <tag k="local_x" v="3769.657714644196"/>
    <tag k="local_y" v="73796.63897530138"/>
  </node>
  <node id="54" visible="true" version="1" lat="0.00000000000" lon="0.00000000000">
    <tag k="ele" v="19.19244384765625"/>
    <tag k="local_x" v="3771.4318377805976"/>
    <tag k="local_y" v="73797.56502447856"/>
  </node>
  <node id="55" visible="true" version="1" lat="0.00000000000" lon="0.00000000000">
    <tag k="ele" v="19.19318199157715"/>
    <tag k="local_x" v="3773.2059609169914"/>
    <tag k="local_y" v="73798.49107365575"/>
  </node>
  <node id="56" visible="true" version="1" lat="0.00000000000" lon="0.00000000000">
    <tag k="ele" v="19.19211196899414"/>
    <tag k="local_x" v="3774.9800840533794"/>
    <tag k="local_y" v="73799.41712283294"/>
  </node>
  <node id="57" visible="true" version="1" lat="0.00000000000" lon="0.00000000000">
    <tag k="ele" v="19.191665649414063"/>
    <tag k="local_x" v="3776.7542071897797"/>
    <tag k="local_y" v="73800.34317201012"/>
  </node>
  <node id="58" visible="true" version="1" lat="0.00000000000" lon="0.00000000000">
    <tag k="ele" v="19.189363479614258"/>
    <tag k="local_x" v="3778.5283303261745"/>
    <tag k="local_y" v="73801.2692211873"/>
  </node>
  <node id="59" visible="true" version="1" lat="0.00000000000" lon="0.00000000000">
    <tag k="ele" v="19.189498901367188"/>
    <tag k="local_x" v="3780.3024534625747"/>
    <tag k="local_y" v="73802.19527036451"/>
  </node>
  <node id="60" visible="true" version="1" lat="0.00000000000" lon="0.00000000000">
    <tag k="ele" v="19.19179916381836"/>
    <tag k="local_x" v="3782.076576598969"/>
    <tag k="local_y" v="73803.12131954168"/>
  </node>
  <node id="61" visible="true" version="1" lat="0.00000000000" lon="0.00000000000">
    <tag k="ele" v="19.186899185180664"/>
    <tag k="local_x" v="3783.8506997353575"/>
    <tag k="local_y" v="73804.04736871886"/>
  </node>
  <node id="62" visible="true" version="1" lat="0.00000000000" lon="0.00000000000">
    <tag k="ele" v="19.184816360473633"/>
    <tag k="local_x" v="3785.6248228717573"/>
    <tag k="local_y" v="73804.97341789605"/>
  </node>
  <node id="63" visible="true" version="1" lat="0.00000000000" lon="0.00000000000">
    <tag k="ele" v="19.188846588134766"/>
    <tag k="local_x" v="3787.3989460081516"/>
    <tag k="local_y" v="73805.89946707324"/>
  </node>
  <node id="64" visible="true" version="1" lat="0.00000000000" lon="0.00000000000">
    <tag k="ele" v="19.185100555419922"/>
    <tag k="local_x" v="3789.1730691445523"/>
    <tag k="local_y" v="73806.82551625044"/>
  </node>
  <node id="65" visible="true" version="1" lat="0.00000000000" lon="0.00000000000">
    <tag k="ele" v="19.182083129882813"/>
    <tag k="local_x" v="3790.947192280947"/>
    <tag k="local_y" v="73807.75156542762"/>
  </node>
  <node id="66" visible="true" version="1" lat="0.00000000000" lon="0.00000000000">
    <tag k="ele" v="19.179201126098633"/>
    <tag k="local_x" v="3792.721315417334"/>
    <tag k="local_y" v="73808.67761460479"/>
  </node>
  <node id="67" visible="true" version="1" lat="0.00000000000" lon="0.00000000000">
    <tag k="ele" v="19.17463493347168"/>
    <tag k="local_x" v="3794.495438553735"/>
    <tag k="local_y" v="73809.60366378198"/>
  </node>
  <node id="68" visible="true" version="1" lat="0.00000000000" lon="0.00000000000">
    <tag k="ele" v="19.17930030822754"/>
    <tag k="local_x" v="3796.1321976156337"/>
    <tag k="local_y" v="73810.45801224936"/>
  </node>
  <node id="69" visible="true" version="1" lat="0.00000000000" lon="0.00000000000">
    <tag k="ele" v="19.179834365844727"/>
    <tag k="local_x" v="3797.29108487481"/>
    <tag k="local_y" v="73811.062923245"/>
  </node>
  <node id="70" visible="true" version="1" lat="0.00000000000" lon="0.00000000000">
    <tag k="ele" v="19.177831649780273"/>
    <tag k="local_x" v="3798.581531292451"/>
    <tag k="local_y" v="73811.73650492528"/>
  </node>
  <node id="71" visible="true" version="1" lat="0.00000000000" lon="0.00000000000">
    <tag k="ele" v="19.12860107421875"/>
    <tag k="local_x" v="3771.088252976243"/>
    <tag k="local_y" v="73794.12122783698"/>
  </node>
  <node id="72" visible="true" version="1" lat="0.00000000000" lon="0.00000000000">
    <tag k="ele" v="19.1299991607666"/>
    <tag k="local_x" v="3772.8623761126446"/>
    <tag k="local_y" v="73795.04727701416"/>
  </node>
  <node id="73" visible="true" version="1" lat="0.00000000000" lon="0.00000000000">
    <tag k="ele" v="19.129873275756836"/>
    <tag k="local_x" v="3774.636499249038"/>
    <tag k="local_y" v="73795.97332619135"/>
  </node>
  <node id="74" visible="true" version="1" lat="0.00000000000" lon="0.00000000000">
    <tag k="ele" v="19.131298065185547"/>
    <tag k="local_x" v="3776.410622385426"/>
    <tag k="local_y" v="73796.89937536854"/>
  </node>
  <node id="75" visible="true" version="1" lat="0.00000000000" lon="0.00000000000">
    <tag k="ele" v="19.13191032409668"/>
    <tag k="local_x" v="3778.1847455218262"/>
    <tag k="local_y" v="73797.82542454572"/>
  </node>
  <node id="76" visible="true" version="1" lat="0.00000000000" lon="0.00000000000">
    <tag k="ele" v="19.127248764038086"/>
    <tag k="local_x" v="3779.9588686582215"/>
    <tag k="local_y" v="73798.7514737229"/>
  </node>
  <node id="77" visible="true" version="1" lat="0.00000000000" lon="0.00000000000">
    <tag k="ele" v="19.126728057861328"/>
    <tag k="local_x" v="3781.7329917946213"/>
    <tag k="local_y" v="73799.67752290009"/>
  </node>
  <node id="78" visible="true" version="1" lat="0.00000000000" lon="0.00000000000">
    <tag k="ele" v="19.128002166748047"/>
    <tag k="local_x" v="3783.507114931016"/>
    <tag k="local_y" v="73800.60357207728"/>
  </node>
  <node id="79" visible="true" version="1" lat="0.00000000000" lon="0.00000000000">
    <tag k="ele" v="19.126182556152344"/>
    <tag k="local_x" v="3785.281238067404"/>
    <tag k="local_y" v="73801.52962125446"/>
  </node>
  <node id="80" visible="true" version="1" lat="0.00000000000" lon="0.00000000000">
    <tag k="ele" v="19.12211036682129"/>
    <tag k="local_x" v="3787.0553612038043"/>
    <tag k="local_y" v="73802.45567043165"/>
  </node>
  <node id="81" visible="true" version="1" lat="0.00000000000" lon="0.00000000000">
    <tag k="ele" v="19.124666213989258"/>
    <tag k="local_x" v="3788.829484340198"/>
    <tag k="local_y" v="73803.38171960883"/>
  </node>
  <node id="82" visible="true" version="1" lat="0.00000000000" lon="0.00000000000">
    <tag k="ele" v="19.12163543701172"/>
    <tag k="local_x" v="3790.603607476599"/>
    <tag k="local_y" v="73804.30776878604"/>
  </node>
  <node id="83" visible="true" version="1" lat="0.00000000000" lon="0.00000000000">
    <tag k="ele" v="19.12299919128418"/>
    <tag k="local_x" v="3792.377730612994"/>
    <tag k="local_y" v="73805.2338179632"/>
  </node>
  <node id="84" visible="true" version="1" lat="0.00000000000" lon="0.00000000000">
    <tag k="ele" v="19.118818283081055"/>
    <tag k="local_x" v="3794.151853749381"/>
    <tag k="local_y" v="73806.15986714039"/>
  </node>
  <node id="85" visible="true" version="1" lat="0.00000000000" lon="0.00000000000">
    <tag k="ele" v="19.116802215576172"/>
    <tag k="local_x" v="3795.925976885782"/>
    <tag k="local_y" v="73807.08591631758"/>
  </node>
  <node id="86" visible="true" version="1" lat="0.00000000000" lon="0.00000000000">
    <tag k="ele" v="19.113779067993164"/>
    <tag k="local_x" v="3797.5627359476807"/>
    <tag k="local_y" v="73807.94026478496"/>
  </node>
  <node id="87" visible="true" version="1" lat="0.00000000000" lon="0.00000000000">
    <tag k="ele" v="19.11389923095703"/>
    <tag k="local_x" v="3798.721623206857"/>
    <tag k="local_y" v="73808.54517578059"/>
  </node>
  <node id="88" visible="true" version="1" lat="0.00000000000" lon="0.00000000000">
    <tag k="ele" v="19.11520004272461"/>
    <tag k="local_x" v="3800.0120696244976"/>
    <tag k="local_y" v="73809.21875746088"/>
  </node>
  <way id="1" visible="true" version="1">
    <nd ref="11"/>
    <nd ref="12"/>
    <nd ref="13"/>
    <nd ref="14"/>
    <nd ref="15"/>
    <nd ref="16"/>
    <nd ref="17"/>
    <nd ref="18"/>
    <tag k="subtype" v="solid"/>
    <tag k="type" v="line_thin"/>
  </way>
  <way id="2" visible="true" version="1">
    <nd ref="19"/>
    <nd ref="20"/>
    <nd ref="21"/>
    <nd ref="22"/>
    <nd ref="23"/>
    <nd ref="24"/>
    <nd ref="25"/>
    <nd ref="26"/>
    <tag k="subtype" v="solid"/>
    <tag k="type" v="line_thin"/>
  </way>
  <way id="3" visible="true" version="1">
    <nd ref="27"/>
    <nd ref="28"/>
    <nd ref="29"/>
    <nd ref="30"/>
    <nd ref="31"/>
    <nd ref="32"/>
    <nd ref="33"/>
    <nd ref="34"/>
    <tag k="subtype" v="solid"/>
    <tag k="type" v="line_thin"/>
  </way>
  <way id="6" visible="true" version="1">
    <nd ref="35"/>
    <nd ref="36"/>
    <nd ref="37"/>
    <nd ref="38"/>
    <nd ref="39"/>
    <nd ref="40"/>
    <nd ref="41"/>
    <nd ref="42"/>
    <nd ref="43"/>
    <nd ref="44"/>
    <nd ref="45"/>
    <nd ref="46"/>
    <nd ref="47"/>
    <nd ref="48"/>
    <nd ref="49"/>
    <nd ref="50"/>
    <nd ref="51"/>
    <nd ref="52"/>
    <tag k="subtype" v="solid"/>
    <tag k="type" v="line_thin"/>
  </way>
  <way id="7" visible="true" version="1">
    <nd ref="53"/>
    <nd ref="54"/>
    <nd ref="55"/>
    <nd ref="56"/>
    <nd ref="57"/>
    <nd ref="58"/>
    <nd ref="59"/>
    <nd ref="60"/>
    <nd ref="61"/>
    <nd ref="62"/>
    <nd ref="63"/>
    <nd ref="64"/>
    <nd ref="65"/>
    <nd ref="66"/>
    <nd ref="67"/>
    <nd ref="68"/>
    <nd ref="69"/>
    <nd ref="70"/>
    <tag k="subtype" v="solid"/>
    <tag k="type" v="line_thin"/>
  </way>
  <way id="8" visible="true" version="1">
    <nd ref="71"/>
    <nd ref="72"/>
    <nd ref="73"/>
    <nd ref="74"/>
    <nd ref="75"/>
    <nd ref="76"/>
    <nd ref="77"/>
    <nd ref="78"/>
    <nd ref="79"/>
    <nd ref="80"/>
    <nd ref="81"/>
    <nd ref="82"/>
    <nd ref="83"/>
    <nd ref="84"/>
    <nd ref="85"/>
    <nd ref="86"/>
    <nd ref="87"/>
    <nd ref="88"/>
    <tag k="subtype" v="solid"/>
    <tag k="type" v="line_thin"/>
  </way>
  <relation id="4" visible="true" version="1">
    <member type="way" ref="1" role="left"/>
    <member type="way" ref="2" role="right"/>
    <tag k="location" v="urban"/>
    <tag k="one_way" v="yes"/>
    <tag k="participant:vehicle" v="yes"/>
    <tag k="speed_limit" v="40"/>
    <tag k="subtype" v="road"/>
    <tag k="type" v="lanelet"/>
  </relation>
  <relation id="5" visible="true" version="1">
    <member type="way" ref="3" role="left"/>
    <member type="way" ref="2" role="right"/>
    <tag k="location" v="urban"/>
    <tag k="one_way" v="yes"/>
    <tag k="participant:vehicle" v="yes"/>
    <tag k="speed_limit" v="40"/>
    <tag k="subtype" v="road"/>
    <tag k="type" v="lanelet"/>
  </relation>
  <relation id="9" visible="true" version="1">
    <member type="way" ref="6" role="left"/>
    <member type="way" ref="7" role="right"/>
    <tag k="location" v="urban"/>
    <tag k="one_way" v="yes"/>
    <tag k="participant:vehicle" v="yes"/>
    <tag k="speed_limit" v="40"/>
    <tag k="subtype" v="road"/>
    <tag k="type" v="lanelet"/>
  </relation>
  <relation id="10" visible="true" version="1">
    <member type="way" ref="8" role="left"/>
    <member type="way" ref="7" role="right"/>
    <tag k="location" v="urban"/>
    <tag k="one_way" v="yes"/>
    <tag k="participant:vehicle" v="yes"/>
    <tag k="speed_limit" v="40"/>
    <tag k="subtype" v="road"/>
    <tag k="type" v="lanelet"/>
  </relation>
</osm>
