<?xml version="1.0" encoding="UTF-8"?>
<osm version="0.6" upload="false" generator="vectormap-rs 0.1.0">
  <node id="4" visible="true" version="1" lat="0.00000000000" lon="0.00000000000">
    <tag k="ele" v="-1.8930681726406204"/>
    <tag k="local_x" v="5.510951963269459"/>
    <tag k="local_y" v="-20.698369720150858"/>
  </node>
  <node id="5" visible="true" version="1" lat="0.00000000000" lon="0.00000000000">
    <tag k="ele" v="-1.6298062747793831"/>
    <tag k="local_x" v="2.797237535729927"/>
    <tag k="local_y" v="-21.35390854886992"/>
  </node>
  <node id="6" visible="true" version="1" lat="0.00000000000" lon="0.00000000000">
    <tag k="ele" v="-1.5260010965576127"/>
    <tag k="local_x" v="1.1726868250337645"/>
    <tag k="local_y" v="-22.75188840931784"/>
  </node>
  <node id="7" visible="true" version="1" lat="0.00000000000" lon="0.00000000000">
    <tag k="ele" v="-1.4808508307552426"/>
    <tag k="local_x" v="0.10120538023060577"/>
    <tag k="local_y" v="-24.551976415686255"/>
  </node>
  <node id="8" visible="true" version="1" lat="0.00000000000" lon="0.00000000000">
    <tag k="ele" v="-1.521311609503595"/>
    <tag k="local_x" v="0.09709707951718727"/>
    <tag k="local_y" v="-27.04662934296147"/>
  </node>
  <node id="9" visible="true" version="1" lat="0.00000000000" lon="0.00000000000">
    <tag k="ele" v="-1.4269080173453277"/>
    <tag k="local_x" v="-1.8043819196942628"/>
    <tag k="local_y" v="-28.03441063791083"/>
  </node>
  <node id="10" visible="true" version="1" lat="0.00000000000" lon="0.00000000000">
    <tag k="ele" v="-1.3536384446647771"/>
    <tag k="local_x" v="-1.946025774400735"/>
    <tag k="local_y" v="-30.290798588193628"/>
  </node>
  <node id="11" visible="true" version="1" lat="0.00000000000" lon="0.00000000000">
    <tag k="ele" v="-1.3118658651820687"/>
    <tag k="local_x" v="-3.0988171758293275"/>
    <tag k="local_y" v="-31.999596484687544"/>
  </node>
  <node id="12" visible="true" version="1" lat="0.00000000000" lon="0.00000000000">
    <tag k="ele" v="-1.287709867510428"/>
    <tag k="local_x" v="-4.1251718066315535"/>
    <tag k="local_y" v="-33.5630695893841"/>
  </node>
  <node id="13" visible="true" version="1" lat="0.00000000000" lon="0.00000000000">
    <tag k="ele" v="-1.1367767065786243"/>
    <tag k="local_x" v="-5.90431698196426"/>
    <tag k="local_y" v="-34.82337865845545"/>
  </node>
  <node id="14" visible="true" version="1" lat="0.00000000000" lon="0.00000000000">
    <tag k="ele" v="-1.1134099159709414"/>
    <tag k="local_x" v="-7.00307143352501"/>
    <tag k="local_y" v="-36.53524699838209"/>
  </node>
  <node id="15" visible="true" version="1" lat="0.00000000000" lon="0.00000000000">
    <tag k="ele" v="-1.05426120327133"/>
    <tag k="local_x" v="-8.457169827293926"/>
    <tag k="local_y" v="-38.011519452946324"/>
  </node>
  <node id="16" visible="true" version="1" lat="0.00000000000" lon="0.00000000000">
    <tag k="ele" v="-1.0357914406379445"/>
    <tag k="local_x" v="-9.654987460535592"/>
    <tag k="local_y" v="-39.632256224817915"/>
  </node>
  <node id="17" visible="true" version="1" lat="0.00000000000" lon="0.00000000000">
    <tag k="ele" v="-0.935889460642679"/>
    <tag k="local_x" v="-9.525293998148957"/>
    <tag k="local_y" v="-42.17189990736193"/>
  </node>
  <node id="18" visible="true" version="1" lat="0.00000000000" lon="0.00000000000">
    <tag k="ele" v="-0.9767920275313082"/>
    <tag k="local_x" v="-11.193743624248897"/>
    <tag k="local_y" v="-43.551909166927715"/>
  </node>
  <node id="19" visible="true" version="1" lat="0.00000000000" lon="0.00000000000">
    <tag k="ele" v="-0.9574028705798235"/>
    <tag k="local_x" v="-12.45761826892273"/>
    <tag k="local_y" v="-45.10749414469159"/>
  </node>
  <node id="20" visible="true" version="1" lat="0.00000000000" lon="0.00000000000">
    <tag k="ele" v="-0.747885020326897"/>
    <tag k="local_x" v="-14.45513740385989"/>
    <tag k="local_y" v="-46.071625302097694"/>
  </node>
  <node id="21" visible="true" version="1" lat="0.00000000000" lon="0.00000000000">
    <tag k="ele" v="-0.7514315020494051"/>
    <tag k="local_x" v="-15.314374938624326"/>
    <tag k="local_y" v="-47.96705367893543"/>
  </node>
  <node id="22" visible="true" version="1" lat="0.00000000000" lon="0.00000000000">
    <tag k="ele" v="-0.6915345817006455"/>
    <tag k="local_x" v="-15.373386889399782"/>
    <tag k="local_y" v="-50.38345277232163"/>
  </node>
  <node id="23" visible="true" version="1" lat="0.00000000000" lon="0.00000000000">
    <tag k="ele" v="-0.6045881457560199"/>
    <tag k="local_x" v="-16.004256811988824"/>
    <tag k="local_y" v="-52.150542562597764"/>
  </node>
  <node id="24" visible="true" version="1" lat="0.00000000000" lon="0.00000000000">
    <tag k="ele" v="-0.5323959420912213"/>
    <tag k="local_x" v="-17.03944827472358"/>
    <tag k="local_y" v="-53.794107213027615"/>
  </node>
  <node id="25" visible="true" version="1" lat="0.00000000000" lon="0.00000000000">
    <tag k="ele" v="-0.47973968792909916"/>
    <tag k="local_x" v="-18.227018520069958"/>
    <tag k="local_y" v="-55.60542447158481"/>
  </node>
  <node id="26" visible="true" version="1" lat="0.00000000000" lon="0.00000000000">
    <tag k="ele" v="-0.5695729256680023"/>
    <tag k="local_x" v="-19.183931748212697"/>
    <tag k="local_y" v="-57.637409973778325"/>
  </node>
  <node id="27" visible="true" version="1" lat="0.00000000000" lon="0.00000000000">
    <tag k="ele" v="-0.44325554264587796"/>
    <tag k="local_x" v="-20.87590223299073"/>
    <tag k="local_y" v="-58.89710504402947"/>
  </node>
  <node id="28" visible="true" version="1" lat="0.00000000000" lon="0.00000000000">
    <tag k="ele" v="-0.35333075288126864"/>
    <tag k="local_x" v="-22.511348610340754"/>
    <tag k="local_y" v="-60.081610370077435"/>
  </node>
  <node id="29" visible="true" version="1" lat="0.00000000000" lon="0.00000000000">
    <tag k="ele" v="-0.26688674451358296"/>
    <tag k="local_x" v="-23.617465778850498"/>
    <tag k="local_y" v="-61.4981380592344"/>
  </node>
  <node id="30" visible="true" version="1" lat="0.00000000000" lon="0.00000000000">
    <tag k="ele" v="-0.24660986357391543"/>
    <tag k="local_x" v="-24.560077454393294"/>
    <tag k="local_y" v="-63.047675383450006"/>
  </node>
  <node id="31" visible="true" version="1" lat="0.00000000000" lon="0.00000000000">
    <tag k="ele" v="-0.19405828525941765"/>
    <tag k="local_x" v="-25.47682657709575"/>
    <tag k="local_y" v="-64.61242418335588"/>
  </node>
  <node id="32" visible="true" version="1" lat="0.00000000000" lon="0.00000000000">
    <tag k="ele" v="-0.17749997684090318"/>
    <tag k="local_x" v="-25.592886057664355"/>
    <tag k="local_y" v="-66.01516481331181"/>
  </node>
  <node id="33" visible="true" version="1" lat="0.00000000000" lon="0.00000000000">
    <tag k="ele" v="-0.0898459446090901"/>
    <tag k="local_x" v="-25.685607433495292"/>
    <tag k="local_y" v="-66.95066252875661"/>
  </node>
  <node id="34" visible="true" version="1" lat="0.00000000000" lon="0.00000000000">
    <tag k="ele" v="-0.13844089949689692"/>
    <tag k="local_x" v="-25.946408007698253"/>
    <tag k="local_y" v="-68.00640692744284"/>
  </node>
  <node id="35" visible="true" version="1" lat="0.00000000000" lon="0.00000000000">
    <tag k="ele" v="-1.5093358903479217"/>
    <tag k="local_x" v="1.1380087088500546"/>
    <tag k="local_y" v="-18.274041505236916"/>
  </node>
  <node id="36" visible="true" version="1" lat="0.00000000000" lon="0.00000000000">
    <tag k="ele" v="-1.4074721763245837"/>
    <tag k="local_x" v="-0.34692409407822056"/>
    <tag k="local_y" v="-19.816297529905054"/>
  </node>
  <node id="37" visible="true" version="1" lat="0.00000000000" lon="0.00000000000">
    <tag k="ele" v="-1.3876345430599044"/>
    <tag k="local_x" v="-1.0703909509151255"/>
    <tag k="local_y" v="-21.64798529262499"/>
  </node>
  <node id="38" visible="true" version="1" lat="0.00000000000" lon="0.00000000000">
    <tag k="ele" v="-1.3628762186604535"/>
    <tag k="local_x" v="-1.972853394103145"/>
    <tag k="local_y" v="-23.156168334104414"/>
  </node>
  <node id="39" visible="true" version="1" lat="0.00000000000" lon="0.00000000000">
    <tag k="ele" v="-1.3302463056804634"/>
    <tag k="local_x" v="-3.1433449687121633"/>
    <tag k="local_y" v="-24.701520532678423"/>
  </node>
  <node id="40" visible="true" version="1" lat="0.00000000000" lon="0.00000000000">
    <tag k="ele" v="-1.298220859778879"/>
    <tag k="local_x" v="-4.341042074679021"/>
    <tag k="local_y" v="-26.432737994043585"/>
  </node>
  <node id="41" visible="true" version="1" lat="0.00000000000" lon="0.00000000000">
    <tag k="ele" v="-1.2369187885975808"/>
    <tag k="local_x" v="-5.340538135984531"/>
    <tag k="local_y" v="-28.1748387995741"/>
  </node>
  <node id="42" visible="true" version="1" lat="0.00000000000" lon="0.00000000000">
    <tag k="ele" v="-1.2414760581230893"/>
    <tag k="local_x" v="-6.429687343667133"/>
    <tag k="local_y" v="-29.78480441205225"/>
  </node>
  <node id="43" visible="true" version="1" lat="0.00000000000" lon="0.00000000000">
    <tag k="ele" v="-1.1635257141896742"/>
    <tag k="local_x" v="-7.57807091206705"/>
    <tag k="local_y" v="-31.543790567633334"/>
  </node>
  <node id="44" visible="true" version="1" lat="0.00000000000" lon="0.00000000000">
    <tag k="ele" v="-1.043220467936007"/>
    <tag k="local_x" v="-8.93287634338599"/>
    <tag k="local_y" v="-33.06900464065172"/>
  </node>
  <node id="45" visible="true" version="1" lat="0.00000000000" lon="0.00000000000">
    <tag k="ele" v="-0.9742732667917233"/>
    <tag k="local_x" v="-9.982368397265587"/>
    <tag k="local_y" v="-34.698459149487675"/>
  </node>
  <node id="46" visible="true" version="1" lat="0.00000000000" lon="0.00000000000">
    <tag k="ele" v="-0.9742732667917233"/>
    <tag k="local_x" v="-10.957795475538228"/>
    <tag k="local_y" v="-36.35415064446019"/>
  </node>
  <node id="47" visible="true" version="1" lat="0.00000000000" lon="0.00000000000">
    <tag k="ele" v="-0.937523142744894"/>
    <tag k="local_x" v="-11.706843475886483"/>
    <tag k="local_y" v="-38.2040101352842"/>
  </node>
  <node id="48" visible="true" version="1" lat="0.00000000000" lon="0.00000000000">
    <tag k="ele" v="-0.8340824233107604"/>
    <tag k="local_x" v="-13.20519305677367"/>
    <tag k="local_y" v="-39.58185301235541"/>
  </node>
  <node id="49" visible="true" version="1" lat="0.00000000000" lon="0.00000000000">
    <tag k="ele" v="-0.7963258116442918"/>
    <tag k="local_x" v="-14.341991392841614"/>
    <tag k="local_y" v="-41.08441327279719"/>
  </node>
  <node id="50" visible="true" version="1" lat="0.00000000000" lon="0.00000000000">
    <tag k="ele" v="-0.7213735068583487"/>
    <tag k="local_x" v="-15.205535473575512"/>
    <tag k="local_y" v="-42.939787744744116"/>
  </node>
  <node id="51" visible="true" version="1" lat="0.00000000000" lon="0.00000000000">
    <tag k="ele" v="-0.6409183230349766"/>
    <tag k="local_x" v="-16.428827750772825"/>
    <tag k="local_y" v="-44.537172170033145"/>
  </node>
  <node id="52" visible="true" version="1" lat="0.00000000000" lon="0.00000000000">
    <tag k="ele" v="-0.6381558525369453"/>
    <tag k="local_x" v="-17.64619944124212"/>
    <tag k="local_y" v="-46.079570039538446"/>
  </node>
  <node id="53" visible="true" version="1" lat="0.00000000000" lon="0.00000000000">
    <tag k="ele" v="-0.5485356275325582"/>
    <tag k="local_x" v="-18.550585712902222"/>
    <tag k="local_y" v="-47.95334832272801"/>
  </node>
  <node id="54" visible="true" version="1" lat="0.00000000000" lon="0.00000000000">
    <tag k="ele" v="-0.46698088467980703"/>
    <tag k="local_x" v="-19.748689480752688"/>
    <tag k="local_y" v="-49.65470122367136"/>
  </node>
  <node id="55" visible="true" version="1" lat="0.00000000000" lon="0.00000000000">
    <tag k="ele" v="-0.40857160710166834"/>
    <tag k="local_x" v="-20.826157013702108"/>
    <tag k="local_y" v="-51.36288593018567"/>
  </node>
  <node id="56" visible="true" version="1" lat="0.00000000000" lon="0.00000000000">
    <tag k="ele" v="-0.3728767902841338"/>
    <tag k="local_x" v="-21.883095773484513"/>
    <tag k="local_y" v="-52.98185836472478"/>
  </node>
  <node id="57" visible="true" version="1" lat="0.00000000000" lon="0.00000000000">
    <tag k="ele" v="-0.3140265642753398"/>
    <tag k="local_x" v="-23.07569455359537"/>
    <tag k="local_y" v="-54.498272788716164"/>
  </node>
  <node id="58" visible="true" version="1" lat="0.00000000000" lon="0.00000000000">
    <tag k="ele" v="-0.30441250537017506"/>
    <tag k="local_x" v="-23.954221785099442"/>
    <tag k="local_y" v="-56.34290287209687"/>
  </node>
  <node id="59" visible="true" version="1" lat="0.00000000000" lon="0.00000000000">
    <tag k="ele" v="-0.16412144296588638"/>
    <tag k="local_x" v="-25.239048483469347"/>
    <tag k="local_y" v="-57.888518169066664"/>
  </node>
  <node id="60" visible="true" version="1" lat="0.00000000000" lon="0.00000000000">
    <tag k="ele" v="-0.16533815249389883"/>
    <tag k="local_x" v="-26.085340124044162"/>
    <tag k="local_y" v="-59.79238420350523"/>
  </node>
  <node id="61" visible="true" version="1" lat="0.00000000000" lon="0.00000000000">
    <tag k="ele" v="-0.06107893643242951"/>
    <tag k="local_x" v="-27.565153070808428"/>
    <tag k="local_y" v="-61.25337314034066"/>
  </node>
  <node id="62" visible="true" version="1" lat="0.00000000000" lon="0.00000000000">
    <tag k="ele" v="0.009899845168112265"/>
    <tag k="local_x" v="-28.593376325918804"/>
    <tag k="local_y" v="-63.01959096449368"/>
  </node>
  <node id="63" visible="true" version="1" lat="0.00000000000" lon="0.00000000000">
    <tag k="ele" v="0.036202549353720165"/>
    <tag k="local_x" v="-29.945023249156623"/>
    <tag k="local_y" v="-64.87109232153963"/>
  </node>
  <node id="64" visible="true" version="1" lat="0.00000000000" lon="0.00000000000">
    <tag k="ele" v="0.14305486306481366"/>
    <tag k="local_x" v="-32.170237110936874"/>
    <tag k="local_y" v="-67.39740400482965"/>
  </node>
  <node id="65" visible="true" version="1" lat="0.00000000000" lon="0.00000000000">
    <tag k="ele" v="0.24042420062156766"/>
    <tag k="local_x" v="-33.73452846500312"/>
    <tag k="local_y" v="-71.41157648893451"/>
  </node>
  <way id="1" visible="true" version="1">
    <nd ref="4"/>
    <nd ref="5"/>
    <nd ref="6"/>
    <nd ref="7"/>
    <nd ref="8"/>
    <nd ref="9"/>
    <nd ref="10"/>
    <nd ref="11"/>
    <nd ref="12"/>
    <nd ref="13"/>
    <nd ref="14"/>
    <nd ref="15"/>
    <nd ref="16"/>
    <nd ref="17"/>
    <nd ref="18"/>
    <nd ref="19"/>
    <nd ref="20"/>
    <nd ref="21"/>
    <nd ref="22"/>
    <nd ref="23"/>
    <nd ref="24"/>
    <nd ref="25"/>
    <nd ref="26"/>
    <nd ref="27"/>
    <nd ref="28"/>
    <nd ref="29"/>
    <nd ref="30"/>
    <nd ref="31"/>
    <nd ref="32"/>
    <nd ref="33"/>
    <nd ref="34"/>
    <tag k="type" v="virtual"/>
  </way>
  <way id="2" visible="true" version="1">
    <nd ref="35"/>
    <nd ref="36"/>
    <nd ref="37"/>
    <nd ref="38"/>
    <nd ref="39"/>
    <nd ref="40"/>
    <nd ref="41"/>
    <nd ref="42"/>
    <nd ref="43"/>
    <nd ref="44"/>
    <nd ref="45"/>
    <nd ref="46"/>
    <nd ref="47"/>
    <nd ref="48"/>
    <nd ref="49"/>
    <nd ref="50"/>
    <nd ref="51"/>
    <nd ref="52"/>
    <nd ref="53"/>
    <nd ref="54"/>
    <nd ref="55"/>
    <nd ref="56"/>
    <nd ref="57"/>
    <nd ref="58"/>
    <nd ref="59"/>
    <nd ref="60"/>
    <nd ref="61"/>
    <nd ref="62"/>
    <nd ref="63"/>
    <nd ref="64"/>
    <nd ref="65"/>
    <tag k="type" v="virtual"/>
  </way>
  <relation id="3" visible="true" version="1">
    <member type="way" ref="1" role="left"/>
    <member type="way" ref="2" role="right"/>
    <tag k="cloudanalyzer:assumption_status" v="hypothesis"/>
    <tag k="cloudanalyzer:boundary_policy" v="source_span_hypothesis"/>
    <tag k="cloudanalyzer:source_center_curve" v="1"/>
    <tag k="location" v="urban"/>
    <tag k="one_way" v="yes"/>
    <tag k="participant:vehicle" v="yes"/>
    <tag k="speed_limit" v="40"/>
    <tag k="subtype" v="road"/>
    <tag k="type" v="lanelet"/>
  </relation>
</osm>
