<?xml version="1.0" encoding="UTF-8"?>
<osm version="0.6" upload="false" generator="vectormap-rs 0.1.0">
  <node id="46" visible="true" version="1" lat="0.00000000000" lon="0.00000000000">
    <tag k="ele" v="-0.31027262319178195"/>
    <tag k="local_x" v="-0.2891951430624877"/>
    <tag k="local_y" v="3.2371076857634913"/>
  </node>
  <node id="47" visible="true" version="1" lat="0.00000000000" lon="0.00000000000">
    <tag k="ele" v="-0.6501453012829272"/>
    <tag k="local_x" v="1.5636057573553912"/>
    <tag k="local_y" v="1.8749449246571877"/>
  </node>
  <node id="48" visible="true" version="1" lat="0.00000000000" lon="0.00000000000">
    <tag k="ele" v="-0.42755888860474167"/>
    <tag k="local_x" v="0.15572046164903186"/>
    <tag k="local_y" v="-1.74305798464188"/>
  </node>
  <node id="49" visible="true" version="1" lat="0.00000000000" lon="0.00000000000">
    <tag k="ele" v="-0.6896592627621888"/>
    <tag k="local_x" v="2.417574872622343"/>
    <tag k="local_y" v="-1.5192761568532938"/>
  </node>
  <node id="50" visible="true" version="1" lat="0.00000000000" lon="0.00000000000">
    <tag k="ele" v="-1.3784237299098383"/>
    <tag k="local_x" v="8.688872171385713"/>
    <tag k="local_y" v="7.782847081283336"/>
  </node>
  <node id="51" visible="true" version="1" lat="0.00000000000" lon="0.00000000000">
    <tag k="ele" v="-1.5100622131358858"/>
    <tag k="local_x" v="10.792392894919882"/>
    <tag k="local_y" v="9.049020714892398"/>
  </node>
  <node id="52" visible="true" version="1" lat="0.00000000000" lon="0.00000000000">
    <tag k="ele" v="-1.4585216306816984"/>
    <tag k="local_x" v="10.179753248023195"/>
    <tag k="local_y" v="5.77604026065404"/>
  </node>
  <node id="53" visible="true" version="1" lat="0.00000000000" lon="0.00000000000">
    <tag k="ele" v="-1.7086448370945497"/>
    <tag k="local_x" v="12.457515326562637"/>
    <tag k="local_y" v="5.412075941096663"/>
  </node>
  <node id="54" visible="true" version="1" lat="0.00000000000" lon="0.00000000000">
    <tag k="ele" v="-2.8090483179880934"/>
    <tag k="local_x" v="23.149731883923124"/>
    <tag k="local_y" v="-1.5707775942154165"/>
  </node>
  <node id="55" visible="true" version="1" lat="0.00000000000" lon="0.00000000000">
    <tag k="ele" v="-2.6574958700215707"/>
    <tag k="local_x" v="18.801535591225328"/>
    <tag k="local_y" v="-1.4734791006063028"/>
  </node>
  <node id="56" visible="true" version="1" lat="0.00000000000" lon="0.00000000000">
    <tag k="ele" v="-2.467363948149793"/>
    <tag k="local_x" v="15.624909408443024"/>
    <tag k="local_y" v="-1.4823848883988082"/>
  </node>
  <node id="57" visible="true" version="1" lat="0.00000000000" lon="0.00000000000">
    <tag k="ele" v="-2.4096697240772658"/>
    <tag k="local_x" v="13.672108319164417"/>
    <tag k="local_y" v="-2.4618120627131277"/>
  </node>
  <node id="58" visible="true" version="1" lat="0.00000000000" lon="0.00000000000">
    <tag k="ele" v="-2.411488078934685"/>
    <tag k="local_x" v="12.617400386457158"/>
    <tag k="local_y" v="-4.119717713977307"/>
  </node>
  <node id="59" visible="true" version="1" lat="0.00000000000" lon="0.00000000000">
    <tag k="ele" v="-2.6498462487433323"/>
    <tag k="local_x" v="13.656937399739524"/>
    <tag k="local_y" v="-7.182574986825544"/>
  </node>
  <node id="60" visible="true" version="1" lat="0.00000000000" lon="0.00000000000">
    <tag k="ele" v="-2.636846110565232"/>
    <tag k="local_x" v="12.60109090486808"/>
    <tag k="local_y" v="-8.746406272340826"/>
  </node>
  <node id="61" visible="true" version="1" lat="0.00000000000" lon="0.00000000000">
    <tag k="ele" v="-2.5775041489807147"/>
    <tag k="local_x" v="10.400232488118712"/>
    <tag k="local_y" v="-9.703991227551693"/>
  </node>
  <node id="62" visible="true" version="1" lat="0.00000000000" lon="0.00000000000">
    <tag k="ele" v="-2.171925560360451"/>
    <tag k="local_x" v="15.23501483270272"/>
    <tag k="local_y" v="3.683482962620438"/>
  </node>
  <node id="63" visible="true" version="1" lat="0.00000000000" lon="0.00000000000">
    <tag k="ele" v="-2.2115336639754926"/>
    <tag k="local_x" v="14.473306322326474"/>
    <tag k="local_y" v="1.920107703329514"/>
  </node>
  <node id="64" visible="true" version="1" lat="0.00000000000" lon="0.00000000000">
    <tag k="ele" v="-2.238052567562232"/>
    <tag k="local_x" v="13.229769675802133"/>
    <tag k="local_y" v="0.3240773063688872"/>
  </node>
  <node id="65" visible="true" version="1" lat="0.00000000000" lon="0.00000000000">
    <tag k="ele" v="-2.238052567562232"/>
    <tag k="local_x" v="12.019840831504283"/>
    <tag k="local_y" v="-1.3348639054222649"/>
  </node>
  <node id="66" visible="true" version="1" lat="0.00000000000" lon="0.00000000000">
    <tag k="ele" v="-2.2607815362650765"/>
    <tag k="local_x" v="10.924354105315198"/>
    <tag k="local_y" v="-3.0550138631758825"/>
  </node>
  <node id="67" visible="true" version="1" lat="0.00000000000" lon="0.00000000000">
    <tag k="ele" v="-2.307127825837757"/>
    <tag k="local_x" v="9.877856012937158"/>
    <tag k="local_y" v="-4.7395146371976615"/>
  </node>
  <node id="68" visible="true" version="1" lat="0.00000000000" lon="0.00000000000">
    <tag k="ele" v="-2.325171243497942"/>
    <tag k="local_x" v="8.740371350946221"/>
    <tag k="local_y" v="-6.434514292605311"/>
  </node>
  <node id="69" visible="true" version="1" lat="0.00000000000" lon="0.00000000000">
    <tag k="ele" v="-2.2817051379649365"/>
    <tag k="local_x" v="7.35222230829258"/>
    <tag k="local_y" v="-7.983632560390606"/>
  </node>
  <node id="70" visible="true" version="1" lat="0.00000000000" lon="0.00000000000">
    <tag k="ele" v="-2.6301262873578835"/>
    <tag k="local_x" v="7.958402548554959"/>
    <tag k="local_y" v="-13.194548437214292"/>
  </node>
  <node id="71" visible="true" version="1" lat="0.00000000000" lon="0.00000000000">
    <tag k="ele" v="-2.6713638461632376"/>
    <tag k="local_x" v="7.200233126073212"/>
    <tag k="local_y" v="-14.993790837311144"/>
  </node>
  <node id="72" visible="true" version="1" lat="0.00000000000" lon="0.00000000000">
    <tag k="ele" v="-2.6723848222522477"/>
    <tag k="local_x" v="6.142380081908348"/>
    <tag k="local_y" v="-16.616963304132046"/>
  </node>
  <node id="73" visible="true" version="1" lat="0.00000000000" lon="0.00000000000">
    <tag k="ele" v="-2.665725255922975"/>
    <tag k="local_x" v="5.066269171824035"/>
    <tag k="local_y" v="-18.174510544528285"/>
  </node>
  <node id="74" visible="true" version="1" lat="0.00000000000" lon="0.00000000000">
    <tag k="ele" v="-2.697973441518581"/>
    <tag k="local_x" v="3.7408351011690293"/>
    <tag k="local_y" v="-19.625983340549"/>
  </node>
  <node id="75" visible="true" version="1" lat="0.00000000000" lon="0.00000000000">
    <tag k="ele" v="-2.6766194155235734"/>
    <tag k="local_x" v="2.782394066138909"/>
    <tag k="local_y" v="-21.2599549997618"/>
  </node>
  <node id="76" visible="true" version="1" lat="0.00000000000" lon="0.00000000000">
    <tag k="ele" v="-2.664468995446588"/>
    <tag k="local_x" v="1.1419583065607186"/>
    <tag k="local_y" v="-22.647202253673047"/>
  </node>
  <node id="77" visible="true" version="1" lat="0.00000000000" lon="0.00000000000">
    <tag k="ele" v="-2.7841633598607016"/>
    <tag k="local_x" v="0.4902633186718255"/>
    <tag k="local_y" v="-24.724640942536467"/>
  </node>
  <node id="78" visible="true" version="1" lat="0.00000000000" lon="0.00000000000">
    <tag k="ele" v="-2.788892358361097"/>
    <tag k="local_x" v="-0.7416627063850927"/>
    <tag k="local_y" v="-26.35745747922385"/>
  </node>
  <node id="79" visible="true" version="1" lat="0.00000000000" lon="0.00000000000">
    <tag k="ele" v="-2.816701598171455"/>
    <tag k="local_x" v="-1.8433819973507135"/>
    <tag k="local_y" v="-27.92710631655378"/>
  </node>
  <node id="80" visible="true" version="1" lat="0.00000000000" lon="0.00000000000">
    <tag k="ele" v="-2.8374673176801886"/>
    <tag k="local_x" v="-2.8382212745355515"/>
    <tag k="local_y" v="-29.647417654641554"/>
  </node>
  <node id="81" visible="true" version="1" lat="0.00000000000" lon="0.00000000000">
    <tag k="ele" v="-2.8464705377582273"/>
    <tag k="local_x" v="-3.973706664607503"/>
    <tag k="local_y" v="-31.331570827370648"/>
  </node>
  <node id="82" visible="true" version="1" lat="0.00000000000" lon="0.00000000000">
    <tag k="ele" v="-2.8242988073236805"/>
    <tag k="local_x" v="-5.036842628054233"/>
    <tag k="local_y" v="-32.942003566289614"/>
  </node>
  <node id="83" visible="true" version="1" lat="0.00000000000" lon="0.00000000000">
    <tag k="ele" v="-2.8114050075556514"/>
    <tag k="local_x" v="-6.388716269574627"/>
    <tag k="local_y" v="-34.452944879851806"/>
  </node>
  <node id="84" visible="true" version="1" lat="0.00000000000" lon="0.00000000000">
    <tag k="ele" v="-2.8891846051747434"/>
    <tag k="local_x" v="-7.05922898887385"/>
    <tag k="local_y" v="-36.41330211169475"/>
  </node>
  <node id="85" visible="true" version="1" lat="0.00000000000" lon="0.00000000000">
    <tag k="ele" v="-2.879534185856062"/>
    <tag k="local_x" v="-8.515451330636314"/>
    <tag k="local_y" v="-37.88769940881964"/>
  </node>
  <node id="86" visible="true" version="1" lat="0.00000000000" lon="0.00000000000">
    <tag k="ele" v="-2.956116980898601"/>
    <tag k="local_x" v="-9.308540949256194"/>
    <tag k="local_y" v="-39.79135017009788"/>
  </node>
  <node id="87" visible="true" version="1" lat="0.00000000000" lon="0.00000000000">
    <tag k="ele" v="-2.995606237683246"/>
    <tag k="local_x" v="-10.408835919810258"/>
    <tag k="local_y" v="-41.46771785990407"/>
  </node>
  <node id="88" visible="true" version="1" lat="0.00000000000" lon="0.00000000000">
    <tag k="ele" v="-3.0076352508924518"/>
    <tag k="local_x" v="-11.656586759164288"/>
    <tag k="local_y" v="-43.11337297221462"/>
  </node>
  <node id="89" visible="true" version="1" lat="0.00000000000" lon="0.00000000000">
    <tag k="ele" v="-3.03896490272063"/>
    <tag k="local_x" v="-12.924172446480965"/>
    <tag k="local_y" v="-44.664337689900634"/>
  </node>
  <node id="90" visible="true" version="1" lat="0.00000000000" lon="0.00000000000">
    <tag k="ele" v="-3.079377842840911"/>
    <tag k="local_x" v="-13.74278241175554"/>
    <tag k="local_y" v="-46.54879882113196"/>
  </node>
  <node id="91" visible="true" version="1" lat="0.00000000000" lon="0.00000000000">
    <tag k="ele" v="-3.0531823928832553"/>
    <tag k="local_x" v="-15.006030071299795"/>
    <tag k="local_y" v="-48.146324071562006"/>
  </node>
  <node id="92" visible="true" version="1" lat="0.00000000000" lon="0.00000000000">
    <tag k="ele" v="-3.0687263562427036"/>
    <tag k="local_x" v="-16.257485571678355"/>
    <tag k="local_y" v="-49.634860614616244"/>
  </node>
  <node id="93" visible="true" version="1" lat="0.00000000000" lon="0.00000000000">
    <tag k="ele" v="-3.103478244446487"/>
    <tag k="local_x" v="-17.34352250908358"/>
    <tag k="local_y" v="-51.17207336508521"/>
  </node>
  <node id="94" visible="true" version="1" lat="0.00000000000" lon="0.00000000000">
    <tag k="ele" v="-3.1287313889246477"/>
    <tag k="local_x" v="-18.396295649003577"/>
    <tag k="local_y" v="-52.83746279045508"/>
  </node>
  <node id="95" visible="true" version="1" lat="0.00000000000" lon="0.00000000000">
    <tag k="ele" v="-3.1609899439252165"/>
    <tag k="local_x" v="-19.546407758139402"/>
    <tag k="local_y" v="-54.57698283041125"/>
  </node>
  <node id="96" visible="true" version="1" lat="0.00000000000" lon="0.00000000000">
    <tag k="ele" v="-3.203229519045027"/>
    <tag k="local_x" v="-20.448842815786005"/>
    <tag k="local_y" v="-56.54411516708841"/>
  </node>
  <node id="97" visible="true" version="1" lat="0.00000000000" lon="0.00000000000">
    <tag k="ele" v="-3.198224845237009"/>
    <tag k="local_x" v="-21.7501030783403"/>
    <tag k="local_y" v="-58.10252887296688"/>
  </node>
  <node id="98" visible="true" version="1" lat="0.00000000000" lon="0.00000000000">
    <tag k="ele" v="-3.2192101848646453"/>
    <tag k="local_x" v="-23.005598677854294"/>
    <tag k="local_y" v="-59.61581498119257"/>
  </node>
  <node id="99" visible="true" version="1" lat="0.00000000000" lon="0.00000000000">
    <tag k="ele" v="-3.224468617797394"/>
    <tag k="local_x" v="-23.73536182713854"/>
    <tag k="local_y" v="-61.342830328567025"/>
  </node>
  <node id="100" visible="true" version="1" lat="0.00000000000" lon="0.00000000000">
    <tag k="ele" v="-3.2911379149198448"/>
    <tag k="local_x" v="-24.682760649044"/>
    <tag k="local_y" v="-62.892385832904395"/>
  </node>
  <node id="101" visible="true" version="1" lat="0.00000000000" lon="0.00000000000">
    <tag k="ele" v="-3.24026386064654"/>
    <tag k="local_x" v="-26.05764886540847"/>
    <tag k="local_y" v="-64.22042092530553"/>
  </node>
  <node id="102" visible="true" version="1" lat="0.00000000000" lon="0.00000000000">
    <tag k="ele" v="-3.2843264811396597"/>
    <tag k="local_x" v="-26.700898827692505"/>
    <tag k="local_y" v="-65.59910851016835"/>
  </node>
  <node id="103" visible="true" version="1" lat="0.00000000000" lon="0.00000000000">
    <tag k="ele" v="-3.2957653954970962"/>
    <tag k="local_x" v="-26.84176104567952"/>
    <tag k="local_y" v="-66.86466341610148"/>
  </node>
  <node id="104" visible="true" version="1" lat="0.00000000000" lon="0.00000000000">
    <tag k="ele" v="-3.353045566101022"/>
    <tag k="local_x" v="-27.04255757357511"/>
    <tag k="local_y" v="-68.24702899779395"/>
  </node>
  <node id="105" visible="true" version="1" lat="0.00000000000" lon="0.00000000000">
    <tag k="ele" v="-3.5004732009834196"/>
    <tag k="local_x" v="-26.182285138976045"/>
    <tag k="local_y" v="-69.52353881297815"/>
  </node>
  <node id="106" visible="true" version="1" lat="0.00000000000" lon="0.00000000000">
    <tag k="ele" v="-3.590068853597568"/>
    <tag k="local_x" v="-25.035626857234902"/>
    <tag k="local_y" v="-70.79630505386905"/>
  </node>
  <node id="107" visible="true" version="1" lat="0.00000000000" lon="0.00000000000">
    <tag k="ele" v="-2.343366872933003"/>
    <tag k="local_x" v="5.606872773259077"/>
    <tag k="local_y" v="-11.331672242751305"/>
  </node>
  <node id="108" visible="true" version="1" lat="0.00000000000" lon="0.00000000000">
    <tag k="ele" v="-2.3531665855893635"/>
    <tag k="local_x" v="4.346923057758081"/>
    <tag k="local_y" v="-12.966817316504445"/>
  </node>
  <node id="109" visible="true" version="1" lat="0.00000000000" lon="0.00000000000">
    <tag k="ele" v="-2.4658012523510453"/>
    <tag k="local_x" v="3.6504004920245348"/>
    <tag k="local_y" v="-14.946622703056176"/>
  </node>
  <node id="110" visible="true" version="1" lat="0.00000000000" lon="0.00000000000">
    <tag k="ele" v="-2.4025102706202683"/>
    <tag k="local_x" v="2.0709259237649507"/>
    <tag k="local_y" v="-16.364008176038574"/>
  </node>
  <node id="111" visible="true" version="1" lat="0.00000000000" lon="0.00000000000">
    <tag k="ele" v="-2.422113271824264"/>
    <tag k="local_x" v="1.1174027053209297"/>
    <tag k="local_y" v="-18.17078491269983"/>
  </node>
  <node id="112" visible="true" version="1" lat="0.00000000000" lon="0.00000000000">
    <tag k="ele" v="-2.431196897031789"/>
    <tag k="local_x" v="-0.3579762666693145"/>
    <tag k="local_y" v="-19.71461549893424"/>
  </node>
  <node id="113" visible="true" version="1" lat="0.00000000000" lon="0.00000000000">
    <tag k="ele" v="-2.4101170221888735"/>
    <tag k="local_x" v="-1.5445346115667866"/>
    <tag k="local_y" v="-21.312003466656385"/>
  </node>
  <node id="114" visible="true" version="1" lat="0.00000000000" lon="0.00000000000">
    <tag k="ele" v="-2.4787017453036495"/>
    <tag k="local_x" v="-2.4150082915094044"/>
    <tag k="local_y" v="-22.772873315211186"/>
  </node>
  <node id="115" visible="true" version="1" lat="0.00000000000" lon="0.00000000000">
    <tag k="ele" v="-2.532806395184026"/>
    <tag k="local_x" v="-3.166872487220086"/>
    <tag k="local_y" v="-24.591570303059335"/>
  </node>
  <node id="116" visible="true" version="1" lat="0.00000000000" lon="0.00000000000">
    <tag k="ele" v="-2.58118630775933"/>
    <tag k="local_x" v="-4.372385924595619"/>
    <tag k="local_y" v="-26.31337178572789"/>
  </node>
  <node id="117" visible="true" version="1" lat="0.00000000000" lon="0.00000000000">
    <tag k="ele" v="-2.635219059108931"/>
    <tag k="local_x" v="-5.381554731389803"/>
    <tag k="local_y" v="-28.056362995855185"/>
  </node>
  <node id="118" visible="true" version="1" lat="0.00000000000" lon="0.00000000000">
    <tag k="ele" v="-2.6799204388368323"/>
    <tag k="local_x" v="-6.885679000115885"/>
    <tag k="local_y" v="-29.3898146332943"/>
  </node>
  <node id="119" visible="true" version="1" lat="0.00000000000" lon="0.00000000000">
    <tag k="ele" v="-2.6712617770563343"/>
    <tag k="local_x" v="-8.053185441888978"/>
    <tag k="local_y" v="-31.166707526349374"/>
  </node>
  <node id="120" visible="true" version="1" lat="0.00000000000" lon="0.00000000000">
    <tag k="ele" v="-2.6445653802314166"/>
    <tag k="local_x" v="-8.981043147855397"/>
    <tag k="local_y" v="-32.943030525941936"/>
  </node>
  <node id="121" visible="true" version="1" lat="0.00000000000" lon="0.00000000000">
    <tag k="ele" v="-2.7472207778380424"/>
    <tag k="local_x" v="-9.609926816269814"/>
    <tag k="local_y" v="-34.83408059673317"/>
  </node>
  <node id="122" visible="true" version="1" lat="0.00000000000" lon="0.00000000000">
    <tag k="ele" v="-2.684186728902172"/>
    <tag k="local_x" v="-11.012380937128457"/>
    <tag k="local_y" v="-36.224767497939645"/>
  </node>
  <node id="123" visible="true" version="1" lat="0.00000000000" lon="0.00000000000">
    <tag k="ele" v="-2.7068659025433517"/>
    <tag k="local_x" v="-12.176703119354935"/>
    <tag k="local_y" v="-37.785447439152406"/>
  </node>
  <node id="124" visible="true" version="1" lat="0.00000000000" lon="0.00000000000">
    <tag k="ele" v="-2.79421523420125"/>
    <tag k="local_x" v="-12.859385935452321"/>
    <tag k="local_y" v="-39.73716747900305"/>
  </node>
  <node id="125" visible="true" version="1" lat="0.00000000000" lon="0.00000000000">
    <tag k="ele" v="-2.787918942058203"/>
    <tag k="local_x" v="-14.01343845796043"/>
    <tag k="local_y" v="-41.25723448872753"/>
  </node>
  <node id="126" visible="true" version="1" lat="0.00000000000" lon="0.00000000000">
    <tag k="ele" v="-2.7757110161402236"/>
    <tag k="local_x" v="-15.274794748713033"/>
    <tag k="local_y" v="-42.80031655476048"/>
  </node>
  <node id="127" visible="true" version="1" lat="0.00000000000" lon="0.00000000000">
    <tag k="ele" v="-2.8157327213636965"/>
    <tag k="local_x" v="-16.50272226835294"/>
    <tag k="local_y" v="-44.3964206043761"/>
  </node>
  <node id="128" visible="true" version="1" lat="0.00000000000" lon="0.00000000000">
    <tag k="ele" v="-2.8300065169150432"/>
    <tag k="local_x" v="-17.719421909190032"/>
    <tag k="local_y" v="-45.935553903934746"/>
  </node>
  <node id="129" visible="true" version="1" lat="0.00000000000" lon="0.00000000000">
    <tag k="ele" v="-2.799641241733726"/>
    <tag k="local_x" v="-19.029096205539172"/>
    <tag k="local_y" v="-47.49753179240156"/>
  </node>
  <node id="130" visible="true" version="1" lat="0.00000000000" lon="0.00000000000">
    <tag k="ele" v="-2.8737781812101133"/>
    <tag k="local_x" v="-19.83671812262626"/>
    <tag k="local_y" v="-49.50354837797487"/>
  </node>
  <node id="131" visible="true" version="1" lat="0.00000000000" lon="0.00000000000">
    <tag k="ele" v="-2.8892147214607706"/>
    <tag k="local_x" v="-20.91588974424096"/>
    <tag k="local_y" v="-51.20907536872617"/>
  </node>
  <node id="132" visible="true" version="1" lat="0.00000000000" lon="0.00000000000">
    <tag k="ele" v="-2.925485300340272"/>
    <tag k="local_x" v="-21.981621781814443"/>
    <tag k="local_y" v="-52.82491757509214"/>
  </node>
  <node id="133" visible="true" version="1" lat="0.00000000000" lon="0.00000000000">
    <tag k="ele" v="-2.925485300340272"/>
    <tag k="local_x" v="-23.170763468704553"/>
    <tag k="local_y" v="-54.34385428273504"/>
  </node>
  <node id="134" visible="true" version="1" lat="0.00000000000" lon="0.00000000000">
    <tag k="ele" v="-2.9945863967383453"/>
    <tag k="local_x" v="-24.05587063207511"/>
    <tag k="local_y" v="-56.183300906271995"/>
  </node>
  <node id="135" visible="true" version="1" lat="0.00000000000" lon="0.00000000000">
    <tag k="ele" v="-2.977689611402499"/>
    <tag k="local_x" v="-25.338527525994486"/>
    <tag k="local_y" v="-57.72969648292284"/>
  </node>
  <node id="136" visible="true" version="1" lat="0.00000000000" lon="0.00000000000">
    <tag k="ele" v="-2.97637088631623"/>
    <tag k="local_x" v="-26.60559291211711"/>
    <tag k="local_y" v="-59.339889111550725"/>
  </node>
  <node id="137" visible="true" version="1" lat="0.00000000000" lon="0.00000000000">
    <tag k="ele" v="-2.996494702633101"/>
    <tag k="local_x" v="-27.678085533780916"/>
    <tag k="local_y" v="-61.081853083994346"/>
  </node>
  <node id="138" visible="true" version="1" lat="0.00000000000" lon="0.00000000000">
    <tag k="ele" v="-3.021012711137725"/>
    <tag k="local_x" v="-29.16454479534411"/>
    <tag k="local_y" v="-62.60883857229053"/>
  </node>
  <node id="139" visible="true" version="1" lat="0.00000000000" lon="0.00000000000">
    <tag k="ele" v="-3.0759896371901565"/>
    <tag k="local_x" v="-30.56106279767001"/>
    <tag k="local_y" v="-64.55071253302637"/>
  </node>
  <node id="140" visible="true" version="1" lat="0.00000000000" lon="0.00000000000">
    <tag k="ele" v="-3.125187684152423"/>
    <tag k="local_x" v="-32.3333238188736"/>
    <tag k="local_y" v="-67.16919306665932"/>
  </node>
  <node id="141" visible="true" version="1" lat="0.00000000000" lon="0.00000000000">
    <tag k="ele" v="-3.0096645447279182"/>
    <tag k="local_x" v="-34.87434484060242"/>
    <tag k="local_y" v="-71.55052838541746"/>
  </node>
  <node id="142" visible="true" version="1" lat="0.00000000000" lon="0.00000000000">
    <tag k="ele" v="-3.5056531419697694"/>
    <tag k="local_x" v="-27.76724215363661"/>
    <tag k="local_y" v="-70.7433384939415"/>
  </node>
  <node id="143" visible="true" version="1" lat="0.00000000000" lon="0.00000000000">
    <tag k="ele" v="-3.5826586655720445"/>
    <tag k="local_x" v="-26.75270226599171"/>
    <tag k="local_y" v="-72.61334991865434"/>
  </node>
  <node id="144" visible="true" version="1" lat="0.00000000000" lon="0.00000000000">
    <tag k="ele" v="-3.8213852646503015"/>
    <tag k="local_x" v="-22.36611195385218"/>
    <tag k="local_y" v="-73.30533806417714"/>
  </node>
  <node id="145" visible="true" version="1" lat="0.00000000000" lon="0.00000000000">
    <tag k="ele" v="-3.864393650267995"/>
    <tag k="local_x" v="-20.567182624349588"/>
    <tag k="local_y" v="-74.2444531596542"/>
  </node>
  <node id="146" visible="true" version="1" lat="0.00000000000" lon="0.00000000000">
    <tag k="ele" v="-3.7425505279487243"/>
    <tag k="local_x" v="-26.104644761156784"/>
    <tag k="local_y" v="-79.80713569627144"/>
  </node>
  <node id="147" visible="true" version="1" lat="0.00000000000" lon="0.00000000000">
    <tag k="ele" v="-3.896789344087046"/>
    <tag k="local_x" v="-21.86411234032239"/>
    <tag k="local_y" v="-76.38173491736111"/>
  </node>
  <node id="148" visible="true" version="1" lat="0.00000000000" lon="0.00000000000">
    <tag k="ele" v="-4.181807723995444"/>
    <tag k="local_x" v="-14.469530646355018"/>
    <tag k="local_y" v="-75.73691014548311"/>
  </node>
  <node id="149" visible="true" version="1" lat="0.00000000000" lon="0.00000000000">
    <tag k="ele" v="-4.212366568878914"/>
    <tag k="local_x" v="-12.573820001826775"/>
    <tag k="local_y" v="-75.9381830580172"/>
  </node>
  <node id="150" visible="true" version="1" lat="0.00000000000" lon="0.00000000000">
    <tag k="ele" v="-4.391617411560594"/>
    <tag k="local_x" v="-12.633482775631968"/>
    <tag k="local_y" v="-81.449083831254"/>
  </node>
  <node id="151" visible="true" version="1" lat="0.00000000000" lon="0.00000000000">
    <tag k="ele" v="-4.4138373877844925"/>
    <tag k="local_x" v="-10.227750705580098"/>
    <tag k="local_y" v="-79.17792978534152"/>
  </node>
  <node id="152" visible="true" version="1" lat="0.00000000000" lon="0.00000000000">
    <tag k="ele" v="-4.207179712251714"/>
    <tag k="local_x" v="-10.435279504849749"/>
    <tag k="local_y" v="-72.76205048008231"/>
  </node>
  <node id="153" visible="true" version="1" lat="0.00000000000" lon="0.00000000000">
    <tag k="ele" v="-4.163479532324278"/>
    <tag k="local_x" v="-9.216783331276773"/>
    <tag k="local_y" v="-71.30547007310298"/>
  </node>
  <node id="154" visible="true" version="1" lat="0.00000000000" lon="0.00000000000">
    <tag k="ele" v="-4.174785533234955"/>
    <tag k="local_x" v="-8.196951946965655"/>
    <tag k="local_y" v="-69.64578826983737"/>
  </node>
  <node id="155" visible="true" version="1" lat="0.00000000000" lon="0.00000000000">
    <tag k="ele" v="-4.163479532324278"/>
    <tag k="local_x" v="-7.059115005842413"/>
    <tag k="local_y" v="-68.02425849871649"/>
  </node>
  <node id="156" visible="true" version="1" lat="0.00000000000" lon="0.00000000000">
    <tag k="ele" v="-4.105398542340599"/>
    <tag k="local_x" v="-11.587400464074289"/>
    <tag k="local_y" v="-62.90422577800591"/>
  </node>
  <node id="157" visible="true" version="1" lat="0.00000000000" lon="0.00000000000">
    <tag k="ele" v="-4.067294131957168"/>
    <tag k="local_x" v="-4.9014912817503875"/>
    <tag k="local_y" v="-64.5454710605672"/>
  </node>
  <node id="158" visible="true" version="1" lat="0.00000000000" lon="0.00000000000">
    <tag k="ele" v="-4.098548361718713"/>
    <tag k="local_x" v="-3.918243163409471"/>
    <tag k="local_y" v="-62.766617136528545"/>
  </node>
  <node id="159" visible="true" version="1" lat="0.00000000000" lon="0.00000000000">
    <tag k="ele" v="-4.028386931809948"/>
    <tag k="local_x" v="-2.881962006811551"/>
    <tag k="local_y" v="-61.22001862087705"/>
  </node>
  <node id="160" visible="true" version="1" lat="0.00000000000" lon="0.00000000000">
    <tag k="ele" v="-4.001445955844778"/>
    <tag k="local_x" v="-1.7689584404396412"/>
    <tag k="local_y" v="-59.58937264723581"/>
  </node>
  <node id="161" visible="true" version="1" lat="0.00000000000" lon="0.00000000000">
    <tag k="ele" v="-4.091740816025796"/>
    <tag k="local_x" v="-0.7010605403368875"/>
    <tag k="local_y" v="-57.90115487152458"/>
  </node>
  <node id="162" visible="true" version="1" lat="0.00000000000" lon="0.00000000000">
    <tag k="ele" v="-3.95808265668056"/>
    <tag k="local_x" v="-4.577880175182733"/>
    <tag k="local_y" v="-52.93487318766869"/>
  </node>
  <node id="163" visible="true" version="1" lat="0.00000000000" lon="0.00000000000">
    <tag k="ele" v="-3.9836210249174417"/>
    <tag k="local_x" v="1.5093920474327818"/>
    <tag k="local_y" v="-54.557256658549605"/>
  </node>
  <node id="164" visible="true" version="1" lat="0.00000000000" lon="0.00000000000">
    <tag k="ele" v="-4.348674555098823"/>
    <tag k="local_x" v="-8.129754326807873"/>
    <tag k="local_y" v="-74.681569600439"/>
  </node>
  <node id="165" visible="true" version="1" lat="0.00000000000" lon="0.00000000000">
    <tag k="ele" v="-4.339888550956579"/>
    <tag k="local_x" v="-6.781127839625554"/>
    <tag k="local_y" v="-73.0569215642923"/>
  </node>
  <node id="166" visible="true" version="1" lat="0.00000000000" lon="0.00000000000">
    <tag k="ele" v="-4.25180759043111"/>
    <tag k="local_x" v="-4.855369815542785"/>
    <tag k="local_y" v="-71.84438529042922"/>
  </node>
  <node id="167" visible="true" version="1" lat="0.00000000000" lon="0.00000000000">
    <tag k="ele" v="-4.248780766449116"/>
    <tag k="local_x" v="-3.2745981666746107"/>
    <tag k="local_y" v="-70.4588903587839"/>
  </node>
  <node id="168" visible="true" version="1" lat="0.00000000000" lon="0.00000000000">
    <tag k="ele" v="-4.2508854409662185"/>
    <tag k="local_x" v="-3.079557626224771"/>
    <tag k="local_y" v="-68.15937660804425"/>
  </node>
  <node id="169" visible="true" version="1" lat="0.00000000000" lon="0.00000000000">
    <tag k="ele" v="-4.186733219242836"/>
    <tag k="local_x" v="-2.146353895536209"/>
    <tag k="local_y" v="-66.70399323628949"/>
  </node>
  <node id="170" visible="true" version="1" lat="0.00000000000" lon="0.00000000000">
    <tag k="ele" v="-4.193817012542669"/>
    <tag k="local_x" v="-1.1820461182267819"/>
    <tag k="local_y" v="-64.94909868969997"/>
  </node>
  <node id="171" visible="true" version="1" lat="0.00000000000" lon="0.00000000000">
    <tag k="ele" v="-4.199152222710503"/>
    <tag k="local_x" v="0.014468300516388366"/>
    <tag k="local_y" v="-63.18488285913683"/>
  </node>
  <node id="172" visible="true" version="1" lat="0.00000000000" lon="0.00000000000">
    <tag k="ele" v="-4.146173075030948"/>
    <tag k="local_x" v="1.155946705235141"/>
    <tag k="local_y" v="-61.511592688959745"/>
  </node>
  <node id="173" visible="true" version="1" lat="0.00000000000" lon="0.00000000000">
    <tag k="ele" v="-4.121421489182603"/>
    <tag k="local_x" v="2.224852544780771"/>
    <tag k="local_y" v="-59.82184032686007"/>
  </node>
  <node id="174" visible="true" version="1" lat="0.00000000000" lon="0.00000000000">
    <tag k="ele" v="-4.119588301770986"/>
    <tag k="local_x" v="3.3471137710113705"/>
    <tag k="local_y" v="-58.1736202661968"/>
  </node>
  <node id="175" visible="true" version="1" lat="0.00000000000" lon="0.00000000000">
    <tag k="ele" v="-4.0468582211332365"/>
    <tag k="local_x" v="4.423434498611265"/>
    <tag k="local_y" v="-56.495904793908295"/>
  </node>
  <node id="176" visible="true" version="1" lat="0.00000000000" lon="0.00000000000">
    <tag k="ele" v="-3.9443990622623626"/>
    <tag k="local_x" v="3.881223518262293"/>
    <tag k="local_y" v="-51.53204254084256"/>
  </node>
  <node id="177" visible="true" version="1" lat="0.00000000000" lon="0.00000000000">
    <tag k="ele" v="-3.94772652812612"/>
    <tag k="local_x" v="5.271847783853836"/>
    <tag k="local_y" v="-49.922527284329455"/>
  </node>
  <node id="178" visible="true" version="1" lat="0.00000000000" lon="0.00000000000">
    <tag k="ele" v="-3.8540401896152106"/>
    <tag k="local_x" v="6.092956180190047"/>
    <tag k="local_y" v="-47.974658998010774"/>
  </node>
  <node id="179" visible="true" version="1" lat="0.00000000000" lon="0.00000000000">
    <tag k="ele" v="-3.8523710446168904"/>
    <tag k="local_x" v="7.263810170950087"/>
    <tag k="local_y" v="-46.35985206185441"/>
  </node>
  <node id="180" visible="true" version="1" lat="0.00000000000" lon="0.00000000000">
    <tag k="ele" v="-3.8578539260458893"/>
    <tag k="local_x" v="8.40509747314784"/>
    <tag k="local_y" v="-44.805565496137284"/>
  </node>
  <node id="181" visible="true" version="1" lat="0.00000000000" lon="0.00000000000">
    <tag k="ele" v="-3.8523710446168904"/>
    <tag k="local_x" v="9.39089575898547"/>
    <tag k="local_y" v="-43.13224797790814"/>
  </node>
  <node id="182" visible="true" version="1" lat="0.00000000000" lon="0.00000000000">
    <tag k="ele" v="-3.8722589635494167"/>
    <tag k="local_x" v="10.869962498131855"/>
    <tag k="local_y" v="-41.64536002899243"/>
  </node>
  <node id="183" visible="true" version="1" lat="0.00000000000" lon="0.00000000000">
    <tag k="ele" v="-3.834302579703749"/>
    <tag k="local_x" v="11.646158613337374"/>
    <tag k="local_y" v="-39.72343929999617"/>
  </node>
  <node id="184" visible="true" version="1" lat="0.00000000000" lon="0.00000000000">
    <tag k="ele" v="-3.8145929356401727"/>
    <tag k="local_x" v="12.8184902128916"/>
    <tag k="local_y" v="-38.06043521504161"/>
  </node>
  <node id="185" visible="true" version="1" lat="0.00000000000" lon="0.00000000000">
    <tag k="ele" v="-3.806678513037341"/>
    <tag k="local_x" v="14.098304880065944"/>
    <tag k="local_y" v="-36.487965054250346"/>
  </node>
  <node id="186" visible="true" version="1" lat="0.00000000000" lon="0.00000000000">
    <tag k="ele" v="-3.8307162613564296"/>
    <tag k="local_x" v="15.271053231141083"/>
    <tag k="local_y" v="-34.97482150758023"/>
  </node>
  <node id="187" visible="true" version="1" lat="0.00000000000" lon="0.00000000000">
    <tag k="ele" v="-3.916692222929628"/>
    <tag k="local_x" v="14.134712446359586"/>
    <tag k="local_y" v="-32.0661582141772"/>
  </node>
  <node id="188" visible="true" version="1" lat="0.00000000000" lon="0.00000000000">
    <tag k="ele" v="-3.84739326484154"/>
    <tag k="local_x" v="16.842406387180922"/>
    <tag k="local_y" v="-31.36522360163864"/>
  </node>
  <node id="189" visible="true" version="1" lat="0.00000000000" lon="0.00000000000">
    <tag k="ele" v="-3.993253159787476"/>
    <tag k="local_x" v="7.448034253864185"/>
    <tag k="local_y" v="-53.34252898829117"/>
  </node>
  <node id="190" visible="true" version="1" lat="0.00000000000" lon="0.00000000000">
    <tag k="ele" v="-4.046849854694366"/>
    <tag k="local_x" v="7.8191894305112095"/>
    <tag k="local_y" v="-51.50715674739169"/>
  </node>
  <node id="191" visible="true" version="1" lat="0.00000000000" lon="0.00000000000">
    <tag k="ele" v="-4.038327259484254"/>
    <tag k="local_x" v="8.914510490529196"/>
    <tag k="local_y" v="-50.045608363351846"/>
  </node>
  <node id="192" visible="true" version="1" lat="0.00000000000" lon="0.00000000000">
    <tag k="ele" v="-4.044748965629742"/>
    <tag k="local_x" v="9.687968662933187"/>
    <tag k="local_y" v="-48.12718214017771"/>
  </node>
  <node id="193" visible="true" version="1" lat="0.00000000000" lon="0.00000000000">
    <tag k="ele" v="-4.035403352433457"/>
    <tag k="local_x" v="10.909995052522335"/>
    <tag k="local_y" v="-46.456470737768015"/>
  </node>
  <node id="194" visible="true" version="1" lat="0.00000000000" lon="0.00000000000">
    <tag k="ele" v="-4.021049740033453"/>
    <tag k="local_x" v="12.397477873802321"/>
    <tag k="local_y" v="-44.92402474605294"/>
  </node>
  <node id="195" visible="true" version="1" lat="0.00000000000" lon="0.00000000000">
    <tag k="ele" v="-4.002662423734393"/>
    <tag k="local_x" v="13.371716482335957"/>
    <tag k="local_y" v="-43.3010251528985"/>
  </node>
  <node id="196" visible="true" version="1" lat="0.00000000000" lon="0.00000000000">
    <tag k="ele" v="-3.9520711442817547"/>
    <tag k="local_x" v="14.493275863164984"/>
    <tag k="local_y" v="-41.75910218115652"/>
  </node>
  <node id="197" visible="true" version="1" lat="0.00000000000" lon="0.00000000000">
    <tag k="ele" v="-3.934449148494965"/>
    <tag k="local_x" v="15.607796886142495"/>
    <tag k="local_y" v="-40.17461786622339"/>
  </node>
  <node id="198" visible="true" version="1" lat="0.00000000000" lon="0.00000000000">
    <tag k="ele" v="-3.957683086679428"/>
    <tag k="local_x" v="16.44786251030587"/>
    <tag k="local_y" v="-38.35332800611289"/>
  </node>
  <node id="199" visible="true" version="1" lat="0.00000000000" lon="0.00000000000">
    <tag k="ele" v="-3.950222920637221"/>
    <tag k="local_x" v="17.73450124701566"/>
    <tag k="local_y" v="-36.68696165169332"/>
  </node>
  <node id="200" visible="true" version="1" lat="0.00000000000" lon="0.00000000000">
    <tag k="ele" v="-3.8817954081158605"/>
    <tag k="local_x" v="19.714204041614803"/>
    <tag k="local_y" v="-35.40071568683776"/>
  </node>
  <node id="201" visible="true" version="1" lat="0.00000000000" lon="0.00000000000">
    <tag k="ele" v="-4.202338856185191"/>
    <tag k="local_x" v="25.017366312647702"/>
    <tag k="local_y" v="-36.20464817662813"/>
  </node>
  <node id="202" visible="true" version="1" lat="0.00000000000" lon="0.00000000000">
    <tag k="ele" v="-3.6619602639730764"/>
    <tag k="local_x" v="12.825188835644251"/>
    <tag k="local_y" v="-26.43119846499225"/>
  </node>
  <node id="203" visible="true" version="1" lat="0.00000000000" lon="0.00000000000">
    <tag k="ele" v="-3.664512344637663"/>
    <tag k="local_x" v="13.835100221070766"/>
    <tag k="local_y" v="-24.872132778336464"/>
  </node>
  <node id="204" visible="true" version="1" lat="0.00000000000" lon="0.00000000000">
    <tag k="ele" v="-3.648318123807655"/>
    <tag k="local_x" v="14.887207090784624"/>
    <tag k="local_y" v="-23.008530163078014"/>
  </node>
  <node id="205" visible="true" version="1" lat="0.00000000000" lon="0.00000000000">
    <tag k="ele" v="-3.724158626885986"/>
    <tag k="local_x" v="21.54419359114227"/>
    <tag k="local_y" v="-24.817433592527387"/>
  </node>
  <node id="206" visible="true" version="1" lat="0.00000000000" lon="0.00000000000">
    <tag k="ele" v="-3.6632055558731142"/>
    <tag k="local_x" v="22.554970800667714"/>
    <tag k="local_y" v="-23.102373596569446"/>
  </node>
  <node id="207" visible="true" version="1" lat="0.00000000000" lon="0.00000000000">
    <tag k="ele" v="-3.6820901284176903"/>
    <tag k="local_x" v="23.662156603487418"/>
    <tag k="local_y" v="-21.47174314658274"/>
  </node>
  <node id="208" visible="true" version="1" lat="0.00000000000" lon="0.00000000000">
    <tag k="ele" v="-3.6004493340186423"/>
    <tag k="local_x" v="24.553859465431664"/>
    <tag k="local_y" v="-19.7838403960868"/>
  </node>
  <node id="209" visible="true" version="1" lat="0.00000000000" lon="0.00000000000">
    <tag k="ele" v="-3.5226010673437576"/>
    <tag k="local_x" v="24.378824948799327"/>
    <tag k="local_y" v="-17.936960588203554"/>
  </node>
  <node id="210" visible="true" version="1" lat="0.00000000000" lon="0.00000000000">
    <tag k="ele" v="-3.9555022762127865"/>
    <tag k="local_x" v="22.56503364282133"/>
    <tag k="local_y" v="-32.545560503022514"/>
  </node>
  <node id="211" visible="true" version="1" lat="0.00000000000" lon="0.00000000000">
    <tag k="ele" v="-4.195333214824333"/>
    <tag k="local_x" v="27.111908615279816"/>
    <tag k="local_y" v="-32.870655070826494"/>
  </node>
  <node id="212" visible="true" version="1" lat="0.00000000000" lon="0.00000000000">
    <tag k="ele" v="-4.1574869549050195"/>
    <tag k="local_x" v="28.012112063653927"/>
    <tag k="local_y" v="-31.253945219529122"/>
  </node>
  <node id="213" visible="true" version="1" lat="0.00000000000" lon="0.00000000000">
    <tag k="ele" v="-4.054445863515214"/>
    <tag k="local_x" v="27.851921342686442"/>
    <tag k="local_y" v="-28.874842939931163"/>
  </node>
  <node id="214" visible="true" version="1" lat="0.00000000000" lon="0.00000000000">
    <tag k="ele" v="-4.0596500605824986"/>
    <tag k="local_x" v="29.314730555523884"/>
    <tag k="local_y" v="-27.380883624210714"/>
  </node>
  <node id="215" visible="true" version="1" lat="0.00000000000" lon="0.00000000000">
    <tag k="ele" v="-4.111422137378222"/>
    <tag k="local_x" v="31.375052768040334"/>
    <tag k="local_y" v="-26.109763495268695"/>
  </node>
  <node id="216" visible="true" version="1" lat="0.00000000000" lon="0.00000000000">
    <tag k="ele" v="-3.863187717215649"/>
    <tag k="local_x" v="29.457731961232415"/>
    <tag k="local_y" v="-22.274228828626775"/>
  </node>
  <node id="217" visible="true" version="1" lat="0.00000000000" lon="0.00000000000">
    <tag k="ele" v="-3.8957117232804572"/>
    <tag k="local_x" v="31.59249816617098"/>
    <tag k="local_y" v="-19.989500164673387"/>
  </node>
  <node id="218" visible="true" version="1" lat="0.00000000000" lon="0.00000000000">
    <tag k="ele" v="-3.2321391749869592"/>
    <tag k="local_x" v="20.473549394084763"/>
    <tag k="local_y" v="-11.566171985797345"/>
  </node>
  <node id="219" visible="true" version="1" lat="0.00000000000" lon="0.00000000000">
    <tag k="ele" v="-3.060098102955222"/>
    <tag k="local_x" v="21.176816208709493"/>
    <tag k="local_y" v="-10.088901417272478"/>
  </node>
  <node id="220" visible="true" version="1" lat="0.00000000000" lon="0.00000000000">
    <tag k="ele" v="-3.0211946352389556"/>
    <tag k="local_x" v="21.81231816369675"/>
    <tag k="local_y" v="-8.17513007101926"/>
  </node>
  <node id="221" visible="true" version="1" lat="0.00000000000" lon="0.00000000000">
    <tag k="ele" v="-3.7708507777871256"/>
    <tag k="local_x" v="31.411867718098815"/>
    <tag k="local_y" v="-16.50106734867368"/>
  </node>
  <node id="222" visible="true" version="1" lat="0.00000000000" lon="0.00000000000">
    <tag k="ele" v="-3.5099745213926097"/>
    <tag k="local_x" v="29.540767871099302"/>
    <tag k="local_y" v="-13.41219986748827"/>
  </node>
  <node id="223" visible="true" version="1" lat="0.00000000000" lon="0.00000000000">
    <tag k="ele" v="-3.5392343751897903"/>
    <tag k="local_x" v="30.163848127621787"/>
    <tag k="local_y" v="-11.529522305338658"/>
  </node>
  <node id="224" visible="true" version="1" lat="0.00000000000" lon="0.00000000000">
    <tag k="ele" v="-3.332224103674297"/>
    <tag k="local_x" v="28.65250932552391"/>
    <tag k="local_y" v="-8.937940933066661"/>
  </node>
  <node id="225" visible="true" version="1" lat="0.00000000000" lon="0.00000000000">
    <tag k="ele" v="-3.1413344302586594"/>
    <tag k="local_x" v="24.919451148802406"/>
    <tag k="local_y" v="-8.563687128719582"/>
  </node>
  <node id="226" visible="true" version="1" lat="0.00000000000" lon="0.00000000000">
    <tag k="ele" v="-3.6061078000531746"/>
    <tag k="local_x" v="35.40299345796165"/>
    <tag k="local_y" v="-10.790227082047506"/>
  </node>
  <node id="227" visible="true" version="1" lat="0.00000000000" lon="0.00000000000">
    <tag k="ele" v="-3.512176128992539"/>
    <tag k="local_x" v="37.562316858541564"/>
    <tag k="local_y" v="-5.537477181359382"/>
  </node>
  <node id="228" visible="true" version="1" lat="0.00000000000" lon="0.00000000000">
    <tag k="ele" v="-3.0727497220090156"/>
    <tag k="local_x" v="25.603203158009634"/>
    <tag k="local_y" v="-3.415676011148334"/>
  </node>
  <node id="229" visible="true" version="1" lat="0.00000000000" lon="0.00000000000">
    <tag k="ele" v="-2.9397804354778714"/>
    <tag k="local_x" v="24.2116863084774"/>
    <tag k="local_y" v="-1.9344760421696636"/>
  </node>
  <node id="230" visible="true" version="1" lat="0.00000000000" lon="0.00000000000">
    <tag k="ele" v="-3.1037909661181535"/>
    <tag k="local_x" v="30.88682536783599"/>
    <tag k="local_y" v="1.9072307458623197"/>
  </node>
  <node id="231" visible="true" version="1" lat="0.00000000000" lon="0.00000000000">
    <tag k="ele" v="-2.940360584690511"/>
    <tag k="local_x" v="26.782075918577057"/>
    <tag k="local_y" v="0.441044374979332"/>
  </node>
  <node id="232" visible="true" version="1" lat="0.00000000000" lon="0.00000000000">
    <tag k="ele" v="-2.712173994106366"/>
    <tag k="local_x" v="21.46066519667742"/>
    <tag k="local_y" v="0.8850500835209425"/>
  </node>
  <node id="233" visible="true" version="1" lat="0.00000000000" lon="0.00000000000">
    <tag k="ele" v="-2.580921691242141"/>
    <tag k="local_x" v="16.78161514322242"/>
    <tag k="local_y" v="-1.6038295200090804"/>
  </node>
  <node id="234" visible="true" version="1" lat="0.00000000000" lon="0.00000000000">
    <tag k="ele" v="-2.4602166075400773"/>
    <tag k="local_x" v="13.718381860128469"/>
    <tag k="local_y" v="-1.7252950123712116"/>
  </node>
  <node id="235" visible="true" version="1" lat="0.00000000000" lon="0.00000000000">
    <tag k="ele" v="-2.7143933995186282"/>
    <tag k="local_x" v="23.851380434553352"/>
    <tag k="local_y" v="3.441313108209098"/>
  </node>
  <node id="236" visible="true" version="1" lat="0.00000000000" lon="0.00000000000">
    <tag k="ele" v="-2.6655521798508928"/>
    <tag k="local_x" v="22.27633742578033"/>
    <tag k="local_y" v="4.881386516297003"/>
  </node>
  <node id="237" visible="true" version="1" lat="0.00000000000" lon="0.00000000000">
    <tag k="ele" v="-2.528190847796933"/>
    <tag k="local_x" v="20.771742794897698"/>
    <tag k="local_y" v="6.052885978314935"/>
  </node>
  <node id="238" visible="true" version="1" lat="0.00000000000" lon="0.00000000000">
    <tag k="ele" v="-2.238052567562232"/>
    <tag k="local_x" v="11.774680534195388"/>
    <tag k="local_y" v="0.44462912223545725"/>
  </node>
  <node id="239" visible="true" version="1" lat="0.00000000000" lon="0.00000000000">
    <tag k="ele" v="-2.0195177740878028"/>
    <tag k="local_x" v="13.740250119703477"/>
    <tag k="local_y" v="4.965942595115944"/>
  </node>
  <node id="240" visible="true" version="1" lat="0.00000000000" lon="0.00000000000">
    <tag k="ele" v="-1.7891336003463452"/>
    <tag k="local_x" v="12.546842298428299"/>
    <tag k="local_y" v="6.437388631444281"/>
  </node>
  <node id="241" visible="true" version="1" lat="0.00000000000" lon="0.00000000000">
    <tag k="ele" v="-1.593801203215238"/>
    <tag k="local_x" v="11.080742370407012"/>
    <tag k="local_y" v="5.826631375756307"/>
  </node>
  <node id="242" visible="true" version="1" lat="0.00000000000" lon="0.00000000000">
    <tag k="ele" v="-1.900714544843208"/>
    <tag k="local_x" v="20.481950154815905"/>
    <tag k="local_y" v="13.267790033407827"/>
  </node>
  <node id="243" visible="true" version="1" lat="0.00000000000" lon="0.00000000000">
    <tag k="ele" v="-1.9336368809612932"/>
    <tag k="local_x" v="14.465283438105091"/>
    <tag k="local_y" v="8.390023009943777"/>
  </node>
  <node id="244" visible="true" version="1" lat="0.00000000000" lon="0.00000000000">
    <tag k="ele" v="-1.5819314749562774"/>
    <tag k="local_x" v="11.978269518120717"/>
    <tag k="local_y" v="9.383016746718392"/>
  </node>
  <node id="245" visible="true" version="1" lat="0.00000000000" lon="0.00000000000">
    <tag k="ele" v="-1.4565771637840532"/>
    <tag k="local_x" v="9.600902811562776"/>
    <tag k="local_y" v="8.436243392911289"/>
  </node>
  <node id="246" visible="true" version="1" lat="0.00000000000" lon="0.00000000000">
    <tag k="ele" v="-1.1642036713844233"/>
    <tag k="local_x" v="7.63054510759654"/>
    <tag k="local_y" v="4.149412082060379"/>
  </node>
  <node id="247" visible="true" version="1" lat="0.00000000000" lon="0.00000000000">
    <tag k="ele" v="-1.2329210009334701"/>
    <tag k="local_x" v="8.304081588428302"/>
    <tag k="local_y" v="0.45928379475225656"/>
  </node>
  <node id="248" visible="true" version="1" lat="0.00000000000" lon="0.00000000000">
    <tag k="ele" v="-0.9218516828561022"/>
    <tag k="local_x" v="5.4838304843089825"/>
    <tag k="local_y" v="0.18539823887707074"/>
  </node>
  <node id="249" visible="true" version="1" lat="0.00000000000" lon="0.00000000000">
    <tag k="ele" v="-0.6454924769582"/>
    <tag k="local_x" v="2.8821268439228214"/>
    <tag k="local_y" v="0.4400988131103706"/>
  </node>
  <node id="250" visible="true" version="1" lat="0.00000000000" lon="0.00000000000">
    <tag k="ele" v="-1.0297205165941306"/>
    <tag k="local_x" v="5.833957108626396"/>
    <tag k="local_y" v="5.887880247416435"/>
  </node>
  <node id="251" visible="true" version="1" lat="0.00000000000" lon="0.00000000000">
    <tag k="ele" v="-0.9964256926470789"/>
    <tag k="local_x" v="5.268929052249493"/>
    <tag k="local_y" v="3.781609649048813"/>
  </node>
  <node id="252" visible="true" version="1" lat="0.00000000000" lon="0.00000000000">
    <tag k="ele" v="-0.823957792981328"/>
    <tag k="local_x" v="4.108886634714998"/>
    <tag k="local_y" v="2.2733468518615174"/>
  </node>
  <node id="253" visible="true" version="1" lat="0.00000000000" lon="0.00000000000">
    <tag k="ele" v="-0.483471678638454"/>
    <tag k="local_x" v="1.3134289424546195"/>
    <tag k="local_y" v="4.657821764411138"/>
  </node>
  <way id="1" visible="true" version="1">
    <nd ref="46"/>
    <nd ref="47"/>
    <tag k="type" v="virtual"/>
  </way>
  <way id="2" visible="true" version="1">
    <nd ref="48"/>
    <nd ref="49"/>
    <tag k="type" v="virtual"/>
  </way>
  <way id="4" visible="true" version="1">
    <nd ref="50"/>
    <nd ref="51"/>
    <tag k="type" v="virtual"/>
  </way>
  <way id="5" visible="true" version="1">
    <nd ref="52"/>
    <nd ref="53"/>
    <tag k="type" v="virtual"/>
  </way>
  <way id="7" visible="true" version="1">
    <nd ref="54"/>
    <nd ref="55"/>
    <nd ref="56"/>
    <nd ref="57"/>
    <nd ref="58"/>
    <nd ref="59"/>
    <nd ref="60"/>
    <nd ref="61"/>
    <tag k="type" v="virtual"/>
  </way>
  <way id="8" visible="true" version="1">
    <nd ref="62"/>
    <nd ref="63"/>
    <nd ref="64"/>
    <nd ref="65"/>
    <nd ref="66"/>
    <nd ref="67"/>
    <nd ref="68"/>
    <nd ref="69"/>
    <tag k="type" v="virtual"/>
  </way>
  <way id="10" visible="true" version="1">
    <nd ref="70"/>
    <nd ref="71"/>
    <nd ref="72"/>
    <nd ref="73"/>
    <nd ref="74"/>
    <nd ref="75"/>
    <nd ref="76"/>
    <nd ref="77"/>
    <nd ref="78"/>
    <nd ref="79"/>
    <nd ref="80"/>
    <nd ref="81"/>
    <nd ref="82"/>
    <nd ref="83"/>
    <nd ref="84"/>
    <nd ref="85"/>
    <nd ref="86"/>
    <nd ref="87"/>
    <nd ref="88"/>
    <nd ref="89"/>
    <nd ref="90"/>
    <nd ref="91"/>
    <nd ref="92"/>
    <nd ref="93"/>
    <nd ref="94"/>
    <nd ref="95"/>
    <nd ref="96"/>
    <nd ref="97"/>
    <nd ref="98"/>
    <nd ref="99"/>
    <nd ref="100"/>
    <nd ref="101"/>
    <nd ref="102"/>
    <nd ref="103"/>
    <nd ref="104"/>
    <nd ref="105"/>
    <nd ref="106"/>
    <tag k="type" v="virtual"/>
  </way>
  <way id="11" visible="true" version="1">
    <nd ref="107"/>
    <nd ref="108"/>
    <nd ref="109"/>
    <nd ref="110"/>
    <nd ref="111"/>
    <nd ref="112"/>
    <nd ref="113"/>
    <nd ref="114"/>
    <nd ref="115"/>
    <nd ref="116"/>
    <nd ref="117"/>
    <nd ref="118"/>
    <nd ref="119"/>
    <nd ref="120"/>
    <nd ref="121"/>
    <nd ref="122"/>
    <nd ref="123"/>
    <nd ref="124"/>
    <nd ref="125"/>
    <nd ref="126"/>
    <nd ref="127"/>
    <nd ref="128"/>
    <nd ref="129"/>
    <nd ref="130"/>
    <nd ref="131"/>
    <nd ref="132"/>
    <nd ref="133"/>
    <nd ref="134"/>
    <nd ref="135"/>
    <nd ref="136"/>
    <nd ref="137"/>
    <nd ref="138"/>
    <nd ref="139"/>
    <nd ref="140"/>
    <nd ref="141"/>
    <nd ref="142"/>
    <nd ref="143"/>
    <tag k="type" v="virtual"/>
  </way>
  <way id="13" visible="true" version="1">
    <nd ref="144"/>
    <nd ref="145"/>
    <tag k="type" v="virtual"/>
  </way>
  <way id="14" visible="true" version="1">
    <nd ref="146"/>
    <nd ref="147"/>
    <tag k="type" v="virtual"/>
  </way>
  <way id="16" visible="true" version="1">
    <nd ref="148"/>
    <nd ref="149"/>
    <tag k="type" v="virtual"/>
  </way>
  <way id="17" visible="true" version="1">
    <nd ref="150"/>
    <nd ref="151"/>
    <tag k="type" v="virtual"/>
  </way>
  <way id="19" visible="true" version="1">
    <nd ref="152"/>
    <nd ref="153"/>
    <nd ref="154"/>
    <nd ref="155"/>
    <nd ref="156"/>
    <nd ref="157"/>
    <nd ref="158"/>
    <nd ref="159"/>
    <nd ref="160"/>
    <nd ref="161"/>
    <nd ref="162"/>
    <nd ref="163"/>
    <tag k="type" v="virtual"/>
  </way>
  <way id="20" visible="true" version="1">
    <nd ref="164"/>
    <nd ref="165"/>
    <nd ref="166"/>
    <nd ref="167"/>
    <nd ref="168"/>
    <nd ref="169"/>
    <nd ref="170"/>
    <nd ref="171"/>
    <nd ref="172"/>
    <nd ref="173"/>
    <nd ref="174"/>
    <nd ref="175"/>
    <tag k="type" v="virtual"/>
  </way>
  <way id="22" visible="true" version="1">
    <nd ref="176"/>
    <nd ref="177"/>
    <nd ref="178"/>
    <nd ref="179"/>
    <nd ref="180"/>
    <nd ref="181"/>
    <nd ref="182"/>
    <nd ref="183"/>
    <nd ref="184"/>
    <nd ref="185"/>
    <nd ref="186"/>
    <nd ref="187"/>
    <nd ref="188"/>
    <tag k="type" v="virtual"/>
  </way>
  <way id="23" visible="true" version="1">
    <nd ref="189"/>
    <nd ref="190"/>
    <nd ref="191"/>
    <nd ref="192"/>
    <nd ref="193"/>
    <nd ref="194"/>
    <nd ref="195"/>
    <nd ref="196"/>
    <nd ref="197"/>
    <nd ref="198"/>
    <nd ref="199"/>
    <nd ref="200"/>
    <nd ref="201"/>
    <tag k="type" v="virtual"/>
  </way>
  <way id="25" visible="true" version="1">
    <nd ref="202"/>
    <nd ref="203"/>
    <nd ref="204"/>
    <nd ref="205"/>
    <nd ref="206"/>
    <nd ref="207"/>
    <nd ref="208"/>
    <nd ref="209"/>
    <tag k="type" v="virtual"/>
  </way>
  <way id="26" visible="true" version="1">
    <nd ref="210"/>
    <nd ref="211"/>
    <nd ref="212"/>
    <nd ref="213"/>
    <nd ref="214"/>
    <nd ref="215"/>
    <nd ref="216"/>
    <nd ref="217"/>
    <tag k="type" v="virtual"/>
  </way>
  <way id="28" visible="true" version="1">
    <nd ref="218"/>
    <nd ref="219"/>
    <nd ref="220"/>
    <tag k="type" v="virtual"/>
  </way>
  <way id="29" visible="true" version="1">
    <nd ref="221"/>
    <nd ref="222"/>
    <nd ref="223"/>
    <tag k="type" v="virtual"/>
  </way>
  <way id="31" visible="true" version="1">
    <nd ref="224"/>
    <nd ref="225"/>
    <tag k="type" v="virtual"/>
  </way>
  <way id="32" visible="true" version="1">
    <nd ref="226"/>
    <nd ref="227"/>
    <tag k="type" v="virtual"/>
  </way>
  <way id="34" visible="true" version="1">
    <nd ref="228"/>
    <nd ref="229"/>
    <tag k="type" v="virtual"/>
  </way>
  <way id="35" visible="true" version="1">
    <nd ref="230"/>
    <nd ref="231"/>
    <tag k="type" v="virtual"/>
  </way>
  <way id="37" visible="true" version="1">
    <nd ref="232"/>
    <nd ref="233"/>
    <nd ref="234"/>
    <tag k="type" v="virtual"/>
  </way>
  <way id="38" visible="true" version="1">
    <nd ref="235"/>
    <nd ref="236"/>
    <nd ref="237"/>
    <tag k="type" v="virtual"/>
  </way>
  <way id="40" visible="true" version="1">
    <nd ref="238"/>
    <nd ref="239"/>
    <nd ref="240"/>
    <nd ref="241"/>
    <tag k="type" v="virtual"/>
  </way>
  <way id="41" visible="true" version="1">
    <nd ref="242"/>
    <nd ref="243"/>
    <nd ref="244"/>
    <nd ref="245"/>
    <tag k="type" v="virtual"/>
  </way>
  <way id="43" visible="true" version="1">
    <nd ref="246"/>
    <nd ref="247"/>
    <nd ref="248"/>
    <nd ref="249"/>
    <tag k="type" v="virtual"/>
  </way>
  <way id="44" visible="true" version="1">
    <nd ref="250"/>
    <nd ref="251"/>
    <nd ref="252"/>
    <nd ref="253"/>
    <tag k="type" v="virtual"/>
  </way>
  <relation id="3" visible="true" version="1">
    <member type="way" ref="1" role="left"/>
    <member type="way" ref="2" role="right"/>
    <tag k="cloudanalyzer:assumption_status" v="hypothesis"/>
    <tag k="cloudanalyzer:boundary_policy" v="source_span_hypothesis"/>
    <tag k="cloudanalyzer:source_center_curve" v="1"/>
    <tag k="location" v="urban"/>
    <tag k="one_way" v="yes"/>
    <tag k="participant:vehicle" v="yes"/>
    <tag k="speed_limit" v="40"/>
    <tag k="subtype" v="road"/>
    <tag k="type" v="lanelet"/>
  </relation>
  <relation id="6" visible="true" version="1">
    <member type="way" ref="4" role="left"/>
    <member type="way" ref="5" role="right"/>
    <tag k="cloudanalyzer:assumption_status" v="hypothesis"/>
    <tag k="cloudanalyzer:boundary_policy" v="source_span_hypothesis"/>
    <tag k="cloudanalyzer:source_center_curve" v="4"/>
    <tag k="location" v="urban"/>
    <tag k="one_way" v="yes"/>
    <tag k="participant:vehicle" v="yes"/>
    <tag k="speed_limit" v="40"/>
    <tag k="subtype" v="road"/>
    <tag k="type" v="lanelet"/>
  </relation>
  <relation id="9" visible="true" version="1">
    <member type="way" ref="7" role="left"/>
    <member type="way" ref="8" role="right"/>
    <tag k="cloudanalyzer:assumption_status" v="hypothesis"/>
    <tag k="cloudanalyzer:boundary_policy" v="source_span_hypothesis"/>
    <tag k="cloudanalyzer:source_center_curve" v="7"/>
    <tag k="location" v="urban"/>
    <tag k="one_way" v="yes"/>
    <tag k="participant:vehicle" v="yes"/>
    <tag k="speed_limit" v="40"/>
    <tag k="subtype" v="road"/>
    <tag k="type" v="lanelet"/>
  </relation>
  <relation id="12" visible="true" version="1">
    <member type="way" ref="10" role="left"/>
    <member type="way" ref="11" role="right"/>
    <tag k="cloudanalyzer:assumption_status" v="hypothesis"/>
    <tag k="cloudanalyzer:boundary_policy" v="source_span_hypothesis"/>
    <tag k="cloudanalyzer:source_center_curve" v="10"/>
    <tag k="location" v="urban"/>
    <tag k="one_way" v="yes"/>
    <tag k="participant:vehicle" v="yes"/>
    <tag k="speed_limit" v="40"/>
    <tag k="subtype" v="road"/>
    <tag k="type" v="lanelet"/>
  </relation>
  <relation id="15" visible="true" version="1">
    <member type="way" ref="13" role="left"/>
    <member type="way" ref="14" role="right"/>
    <tag k="cloudanalyzer:assumption_status" v="hypothesis"/>
    <tag k="cloudanalyzer:boundary_policy" v="source_span_hypothesis"/>
    <tag k="cloudanalyzer:source_center_curve" v="13"/>
    <tag k="location" v="urban"/>
    <tag k="one_way" v="yes"/>
    <tag k="participant:vehicle" v="yes"/>
    <tag k="speed_limit" v="40"/>
    <tag k="subtype" v="road"/>
    <tag k="type" v="lanelet"/>
  </relation>
  <relation id="18" visible="true" version="1">
    <member type="way" ref="16" role="left"/>
    <member type="way" ref="17" role="right"/>
    <tag k="cloudanalyzer:assumption_status" v="hypothesis"/>
    <tag k="cloudanalyzer:boundary_policy" v="source_span_hypothesis"/>
    <tag k="cloudanalyzer:source_center_curve" v="16"/>
    <tag k="location" v="urban"/>
    <tag k="one_way" v="yes"/>
    <tag k="participant:vehicle" v="yes"/>
    <tag k="speed_limit" v="40"/>
    <tag k="subtype" v="road"/>
    <tag k="type" v="lanelet"/>
  </relation>
  <relation id="21" visible="true" version="1">
    <member type="way" ref="19" role="left"/>
    <member type="way" ref="20" role="right"/>
    <tag k="cloudanalyzer:assumption_status" v="hypothesis"/>
    <tag k="cloudanalyzer:boundary_policy" v="source_span_hypothesis"/>
    <tag k="cloudanalyzer:source_center_curve" v="19"/>
    <tag k="location" v="urban"/>
    <tag k="one_way" v="yes"/>
    <tag k="participant:vehicle" v="yes"/>
    <tag k="speed_limit" v="40"/>
    <tag k="subtype" v="road"/>
    <tag k="type" v="lanelet"/>
  </relation>
  <relation id="24" visible="true" version="1">
    <member type="way" ref="22" role="left"/>
    <member type="way" ref="23" role="right"/>
    <tag k="cloudanalyzer:assumption_status" v="hypothesis"/>
    <tag k="cloudanalyzer:boundary_policy" v="source_span_hypothesis"/>
    <tag k="cloudanalyzer:source_center_curve" v="22"/>
    <tag k="location" v="urban"/>
    <tag k="one_way" v="yes"/>
    <tag k="participant:vehicle" v="yes"/>
    <tag k="speed_limit" v="40"/>
    <tag k="subtype" v="road"/>
    <tag k="type" v="lanelet"/>
  </relation>
  <relation id="27" visible="true" version="1">
    <member type="way" ref="25" role="left"/>
    <member type="way" ref="26" role="right"/>
    <tag k="cloudanalyzer:assumption_status" v="hypothesis"/>
    <tag k="cloudanalyzer:boundary_policy" v="source_span_hypothesis"/>
    <tag k="cloudanalyzer:source_center_curve" v="25"/>
    <tag k="location" v="urban"/>
    <tag k="one_way" v="yes"/>
    <tag k="participant:vehicle" v="yes"/>
    <tag k="speed_limit" v="40"/>
    <tag k="subtype" v="road"/>
    <tag k="type" v="lanelet"/>
  </relation>
  <relation id="30" visible="true" version="1">
    <member type="way" ref="28" role="left"/>
    <member type="way" ref="29" role="right"/>
    <tag k="cloudanalyzer:assumption_status" v="hypothesis"/>
    <tag k="cloudanalyzer:boundary_policy" v="source_span_hypothesis"/>
    <tag k="cloudanalyzer:source_center_curve" v="28"/>
    <tag k="location" v="urban"/>
    <tag k="one_way" v="yes"/>
    <tag k="participant:vehicle" v="yes"/>
    <tag k="speed_limit" v="40"/>
    <tag k="subtype" v="road"/>
    <tag k="type" v="lanelet"/>
  </relation>
  <relation id="33" visible="true" version="1">
    <member type="way" ref="31" role="left"/>
    <member type="way" ref="32" role="right"/>
    <tag k="cloudanalyzer:assumption_status" v="hypothesis"/>
    <tag k="cloudanalyzer:boundary_policy" v="source_span_hypothesis"/>
    <tag k="cloudanalyzer:source_center_curve" v="31"/>
    <tag k="location" v="urban"/>
    <tag k="one_way" v="yes"/>
    <tag k="participant:vehicle" v="yes"/>
    <tag k="speed_limit" v="40"/>
    <tag k="subtype" v="road"/>
    <tag k="type" v="lanelet"/>
  </relation>
  <relation id="36" visible="true" version="1">
    <member type="way" ref="34" role="left"/>
    <member type="way" ref="35" role="right"/>
    <tag k="cloudanalyzer:assumption_status" v="hypothesis"/>
    <tag k="cloudanalyzer:boundary_policy" v="source_span_hypothesis"/>
    <tag k="cloudanalyzer:source_center_curve" v="34"/>
    <tag k="location" v="urban"/>
    <tag k="one_way" v="yes"/>
    <tag k="participant:vehicle" v="yes"/>
    <tag k="speed_limit" v="40"/>
    <tag k="subtype" v="road"/>
    <tag k="type" v="lanelet"/>
  </relation>
  <relation id="39" visible="true" version="1">
    <member type="way" ref="37" role="left"/>
    <member type="way" ref="38" role="right"/>
    <tag k="cloudanalyzer:assumption_status" v="hypothesis"/>
    <tag k="cloudanalyzer:boundary_policy" v="source_span_hypothesis"/>
    <tag k="cloudanalyzer:source_center_curve" v="37"/>
    <tag k="location" v="urban"/>
    <tag k="one_way" v="yes"/>
    <tag k="participant:vehicle" v="yes"/>
    <tag k="speed_limit" v="40"/>
    <tag k="subtype" v="road"/>
    <tag k="type" v="lanelet"/>
  </relation>
  <relation id="42" visible="true" version="1">
    <member type="way" ref="40" role="left"/>
    <member type="way" ref="41" role="right"/>
    <tag k="cloudanalyzer:assumption_status" v="hypothesis"/>
    <tag k="cloudanalyzer:boundary_policy" v="source_span_hypothesis"/>
    <tag k="cloudanalyzer:source_center_curve" v="40"/>
    <tag k="location" v="urban"/>
    <tag k="one_way" v="yes"/>
    <tag k="participant:vehicle" v="yes"/>
    <tag k="speed_limit" v="40"/>
    <tag k="subtype" v="road"/>
    <tag k="type" v="lanelet"/>
  </relation>
  <relation id="45" visible="true" version="1">
    <member type="way" ref="43" role="left"/>
    <member type="way" ref="44" role="right"/>
    <tag k="cloudanalyzer:assumption_status" v="hypothesis"/>
    <tag k="cloudanalyzer:boundary_policy" v="source_span_hypothesis"/>
    <tag k="cloudanalyzer:source_center_curve" v="43"/>
    <tag k="location" v="urban"/>
    <tag k="one_way" v="yes"/>
    <tag k="participant:vehicle" v="yes"/>
    <tag k="speed_limit" v="40"/>
    <tag k="subtype" v="road"/>
    <tag k="type" v="lanelet"/>
  </relation>
</osm>
