<?xml version="1.0" encoding="UTF-8"?>
<osm version="0.6" upload="false" generator="vectormap-rs 0.1.0">
  <node id="55" visible="true" version="1" lat="0.00000000000" lon="0.00000000000">
    <tag k="ele" v="-0.7719644454586505"/>
    <tag k="local_x" v="2.477976305739457"/>
    <tag k="local_y" v="3.359177262712079"/>
  </node>
  <node id="56" visible="true" version="1" lat="0.00000000000" lon="0.00000000000">
    <tag k="ele" v="-1.0561526070130725"/>
    <tag k="local_x" v="4.40358819290314"/>
    <tag k="local_y" v="3.514570530121089"/>
  </node>
  <node id="57" visible="true" version="1" lat="0.00000000000" lon="0.00000000000">
    <tag k="ele" v="-1.2106314046159234"/>
    <tag k="local_x" v="5.279333946488938"/>
    <tag k="local_y" v="5.48276507247412"/>
  </node>
  <node id="58" visible="true" version="1" lat="0.00000000000" lon="0.00000000000">
    <tag k="ele" v="-0.8810993415077022"/>
    <tag k="local_x" v="4.67513374862907"/>
    <tag k="local_y" v="-0.5679717249321093"/>
  </node>
  <node id="59" visible="true" version="1" lat="0.00000000000" lon="0.00000000000">
    <tag k="ele" v="-0.9690101498235761"/>
    <tag k="local_x" v="6.500756782554971"/>
    <tag k="local_y" v="0.7124492075196309"/>
  </node>
  <node id="60" visible="true" version="1" lat="0.00000000000" lon="0.00000000000">
    <tag k="ele" v="-1.2382012128512252"/>
    <tag k="local_x" v="7.176842766827681"/>
    <tag k="local_y" v="3.1590911976077107"/>
  </node>
  <node id="61" visible="true" version="1" lat="0.00000000000" lon="0.00000000000">
    <tag k="ele" v="-1.6628772427103726"/>
    <tag k="local_x" v="8.69135325717387"/>
    <tag k="local_y" v="7.785546390143338"/>
  </node>
  <node id="62" visible="true" version="1" lat="0.00000000000" lon="0.00000000000">
    <tag k="ele" v="-1.8478267224886524"/>
    <tag k="local_x" v="10.598173565845558"/>
    <tag k="local_y" v="9.502729592722877"/>
  </node>
  <node id="63" visible="true" version="1" lat="0.00000000000" lon="0.00000000000">
    <tag k="ele" v="-2.1845879959128953"/>
    <tag k="local_x" v="13.416136371552788"/>
    <tag k="local_y" v="9.338095772643197"/>
  </node>
  <node id="64" visible="true" version="1" lat="0.00000000000" lon="0.00000000000">
    <tag k="ele" v="-2.4890157047216332"/>
    <tag k="local_x" v="16.33769542496384"/>
    <tag k="local_y" v="9.54366681188164"/>
  </node>
  <node id="65" visible="true" version="1" lat="0.00000000000" lon="0.00000000000">
    <tag k="ele" v="-1.7135001717031595"/>
    <tag k="local_x" v="10.17846119199688"/>
    <tag k="local_y" v="5.775941953895636"/>
  </node>
  <node id="66" visible="true" version="1" lat="0.00000000000" lon="0.00000000000">
    <tag k="ele" v="-1.9795911742790606"/>
    <tag k="local_x" v="12.45314782886249"/>
    <tag k="local_y" v="5.402842949955202"/>
  </node>
  <node id="67" visible="true" version="1" lat="0.00000000000" lon="0.00000000000">
    <tag k="ele" v="-2.1398980963760703"/>
    <tag k="local_x" v="13.759075771516363"/>
    <tag k="local_y" v="6.357761467912833"/>
  </node>
  <node id="68" visible="true" version="1" lat="0.00000000000" lon="0.00000000000">
    <tag k="ele" v="-2.325521801817639"/>
    <tag k="local_x" v="14.935369541826176"/>
    <tag k="local_y" v="5.797537860886735"/>
  </node>
  <node id="69" visible="true" version="1" lat="0.00000000000" lon="0.00000000000">
    <tag k="ele" v="-2.6197851766065083"/>
    <tag k="local_x" v="19.35443390082997"/>
    <tag k="local_y" v="4.194634284182834"/>
  </node>
  <node id="70" visible="true" version="1" lat="0.00000000000" lon="0.00000000000">
    <tag k="ele" v="-2.572908160885117"/>
    <tag k="local_x" v="18.529005959569798"/>
    <tag k="local_y" v="1.4106657471280672"/>
  </node>
  <node id="71" visible="true" version="1" lat="0.00000000000" lon="0.00000000000">
    <tag k="ele" v="-2.6187636189321015"/>
    <tag k="local_x" v="17.58720323906255"/>
    <tag k="local_y" v="-0.6069194318324402"/>
  </node>
  <node id="72" visible="true" version="1" lat="0.00000000000" lon="0.00000000000">
    <tag k="ele" v="-2.463707603757105"/>
    <tag k="local_x" v="15.595115614372423"/>
    <tag k="local_y" v="-1.5477177437072145"/>
  </node>
  <node id="73" visible="true" version="1" lat="0.00000000000" lon="0.00000000000">
    <tag k="ele" v="-2.3829553654602305"/>
    <tag k="local_x" v="14.471615318624542"/>
    <tag k="local_y" v="-3.090023387620503"/>
  </node>
  <node id="74" visible="true" version="1" lat="0.00000000000" lon="0.00000000000">
    <tag k="ele" v="-2.396767992830977"/>
    <tag k="local_x" v="15.87953327185637"/>
    <tag k="local_y" v="4.613042719517118"/>
  </node>
  <node id="75" visible="true" version="1" lat="0.00000000000" lon="0.00000000000">
    <tag k="ele" v="-2.439459754158093"/>
    <tag k="local_x" v="15.610836169291671"/>
    <tag k="local_y" v="3.343095584174714"/>
  </node>
  <node id="76" visible="true" version="1" lat="0.00000000000" lon="0.00000000000">
    <tag k="ele" v="-2.286073362389615"/>
    <tag k="local_x" v="14.433398034476959"/>
    <tag k="local_y" v="1.8534693040239174"/>
  </node>
  <node id="77" visible="true" version="1" lat="0.00000000000" lon="0.00000000000">
    <tag k="ele" v="-2.27207272766561"/>
    <tag k="local_x" v="13.595504497749852"/>
    <tag k="local_y" v="-0.0471993725169666"/>
  </node>
  <node id="78" visible="true" version="1" lat="0.00000000000" lon="0.00000000000">
    <tag k="ele" v="-2.188715143936424"/>
    <tag k="local_x" v="12.815163185830608"/>
    <tag k="local_y" v="-1.9692351240477495"/>
  </node>
  <node id="79" visible="true" version="1" lat="0.00000000000" lon="0.00000000000">
    <tag k="ele" v="-1.932296665847567"/>
    <tag k="local_x" v="7.561156057938009"/>
    <tag k="local_y" v="-12.967984931018233"/>
  </node>
  <node id="80" visible="true" version="1" lat="0.00000000000" lon="0.00000000000">
    <tag k="ele" v="-2.016296554451016"/>
    <tag k="local_x" v="8.432095556724128"/>
    <tag k="local_y" v="-15.940267927767241"/>
  </node>
  <node id="81" visible="true" version="1" lat="0.00000000000" lon="0.00000000000">
    <tag k="ele" v="-1.7261722842993026"/>
    <tag k="local_x" v="5.599086283465287"/>
    <tag k="local_y" v="-11.418700515521657"/>
  </node>
  <node id="82" visible="true" version="1" lat="0.00000000000" lon="0.00000000000">
    <tag k="ele" v="-1.6856850154952834"/>
    <tag k="local_x" v="4.343895733911014"/>
    <tag k="local_y" v="-13.061618555448545"/>
  </node>
  <node id="83" visible="true" version="1" lat="0.00000000000" lon="0.00000000000">
    <tag k="ele" v="-1.7419077483124585"/>
    <tag k="local_x" v="5.082503051738977"/>
    <tag k="local_y" v="-18.26517448343039"/>
  </node>
  <node id="84" visible="true" version="1" lat="0.00000000000" lon="0.00000000000">
    <tag k="ele" v="-1.723568694435937"/>
    <tag k="local_x" v="4.199068986943638"/>
    <tag k="local_y" v="-19.971071255676677"/>
  </node>
  <node id="85" visible="true" version="1" lat="0.00000000000" lon="0.00000000000">
    <tag k="ele" v="-1.6298062747793827"/>
    <tag k="local_x" v="2.797237535729927"/>
    <tag k="local_y" v="-21.35390854886992"/>
  </node>
  <node id="86" visible="true" version="1" lat="0.00000000000" lon="0.00000000000">
    <tag k="ele" v="-1.5259006977585574"/>
    <tag k="local_x" v="1.1726868250337645"/>
    <tag k="local_y" v="-22.75188840931784"/>
  </node>
  <node id="87" visible="true" version="1" lat="0.00000000000" lon="0.00000000000">
    <tag k="ele" v="-1.4808508307552424"/>
    <tag k="local_x" v="0.10120538023060577"/>
    <tag k="local_y" v="-24.551976415686255"/>
  </node>
  <node id="88" visible="true" version="1" lat="0.00000000000" lon="0.00000000000">
    <tag k="ele" v="-1.521311609503595"/>
    <tag k="local_x" v="0.09709707951718727"/>
    <tag k="local_y" v="-27.04662934296147"/>
  </node>
  <node id="89" visible="true" version="1" lat="0.00000000000" lon="0.00000000000">
    <tag k="ele" v="-1.4269080173453281"/>
    <tag k="local_x" v="-1.8043819196942628"/>
    <tag k="local_y" v="-28.03441063791083"/>
  </node>
  <node id="90" visible="true" version="1" lat="0.00000000000" lon="0.00000000000">
    <tag k="ele" v="-1.353638444664779"/>
    <tag k="local_x" v="-1.946025774400735"/>
    <tag k="local_y" v="-30.290798588193628"/>
  </node>
  <node id="91" visible="true" version="1" lat="0.00000000000" lon="0.00000000000">
    <tag k="ele" v="-1.3118658651820687"/>
    <tag k="local_x" v="-3.0988171758293275"/>
    <tag k="local_y" v="-31.999596484687544"/>
  </node>
  <node id="92" visible="true" version="1" lat="0.00000000000" lon="0.00000000000">
    <tag k="ele" v="-1.6524840130845875"/>
    <tag k="local_x" v="2.5089273507594214"/>
    <tag k="local_y" v="-16.72351689780134"/>
  </node>
  <node id="93" visible="true" version="1" lat="0.00000000000" lon="0.00000000000">
    <tag k="ele" v="-1.6399622917883363"/>
    <tag k="local_x" v="1.575303034291995"/>
    <tag k="local_y" v="-18.51647432672831"/>
  </node>
  <node id="94" visible="true" version="1" lat="0.00000000000" lon="0.00000000000">
    <tag k="ele" v="-1.407472176324584"/>
    <tag k="local_x" v="-0.34692409407822056"/>
    <tag k="local_y" v="-19.816297529905054"/>
  </node>
  <node id="95" visible="true" version="1" lat="0.00000000000" lon="0.00000000000">
    <tag k="ele" v="-1.3876345430599042"/>
    <tag k="local_x" v="-1.0703909509151255"/>
    <tag k="local_y" v="-21.64798529262499"/>
  </node>
  <node id="96" visible="true" version="1" lat="0.00000000000" lon="0.00000000000">
    <tag k="ele" v="-1.3628762186604535"/>
    <tag k="local_x" v="-1.972853394103145"/>
    <tag k="local_y" v="-23.156168334104414"/>
  </node>
  <node id="97" visible="true" version="1" lat="0.00000000000" lon="0.00000000000">
    <tag k="ele" v="-1.3302463056804632"/>
    <tag k="local_x" v="-3.1433449687121633"/>
    <tag k="local_y" v="-24.701520532678423"/>
  </node>
  <node id="98" visible="true" version="1" lat="0.00000000000" lon="0.00000000000">
    <tag k="ele" v="-1.2982208597788787"/>
    <tag k="local_x" v="-4.341042074679021"/>
    <tag k="local_y" v="-26.432737994043585"/>
  </node>
  <node id="99" visible="true" version="1" lat="0.00000000000" lon="0.00000000000">
    <tag k="ele" v="-1.2369187885975805"/>
    <tag k="local_x" v="-5.340538135984531"/>
    <tag k="local_y" v="-28.1748387995741"/>
  </node>
  <node id="100" visible="true" version="1" lat="0.00000000000" lon="0.00000000000">
    <tag k="ele" v="-1.24147605812309"/>
    <tag k="local_x" v="-6.429687343667133"/>
    <tag k="local_y" v="-29.78480441205225"/>
  </node>
  <node id="101" visible="true" version="1" lat="0.00000000000" lon="0.00000000000">
    <tag k="ele" v="-1.136776706578623"/>
    <tag k="local_x" v="-5.90431698196426"/>
    <tag k="local_y" v="-34.82337865845545"/>
  </node>
  <node id="102" visible="true" version="1" lat="0.00000000000" lon="0.00000000000">
    <tag k="ele" v="-1.1134099159709414"/>
    <tag k="local_x" v="-7.00307143352501"/>
    <tag k="local_y" v="-36.53524699838209"/>
  </node>
  <node id="103" visible="true" version="1" lat="0.00000000000" lon="0.00000000000">
    <tag k="ele" v="-1.0542612032713303"/>
    <tag k="local_x" v="-8.457169827293926"/>
    <tag k="local_y" v="-38.011519452946324"/>
  </node>
  <node id="104" visible="true" version="1" lat="0.00000000000" lon="0.00000000000">
    <tag k="ele" v="-1.0357914406379443"/>
    <tag k="local_x" v="-9.654987460535592"/>
    <tag k="local_y" v="-39.632256224817915"/>
  </node>
  <node id="105" visible="true" version="1" lat="0.00000000000" lon="0.00000000000">
    <tag k="ele" v="-0.9607143322827498"/>
    <tag k="local_x" v="-9.525293998148957"/>
    <tag k="local_y" v="-42.17189990736193"/>
  </node>
  <node id="106" visible="true" version="1" lat="0.00000000000" lon="0.00000000000">
    <tag k="ele" v="-0.9767920275313069"/>
    <tag k="local_x" v="-11.193743624248897"/>
    <tag k="local_y" v="-43.551909166927715"/>
  </node>
  <node id="107" visible="true" version="1" lat="0.00000000000" lon="0.00000000000">
    <tag k="ele" v="-0.9574028705798239"/>
    <tag k="local_x" v="-12.45761826892273"/>
    <tag k="local_y" v="-45.10749414469159"/>
  </node>
  <node id="108" visible="true" version="1" lat="0.00000000000" lon="0.00000000000">
    <tag k="ele" v="-0.7547269470271039"/>
    <tag k="local_x" v="-14.45513740385989"/>
    <tag k="local_y" v="-46.071625302097694"/>
  </node>
  <node id="109" visible="true" version="1" lat="0.00000000000" lon="0.00000000000">
    <tag k="ele" v="-0.7977917935297729"/>
    <tag k="local_x" v="-14.92573752152136"/>
    <tag k="local_y" v="-48.28163428550159"/>
  </node>
  <node id="110" visible="true" version="1" lat="0.00000000000" lon="0.00000000000">
    <tag k="ele" v="-0.7376600521956036"/>
    <tag k="local_x" v="-14.976237036461978"/>
    <tag k="local_y" v="-50.687215828520834"/>
  </node>
  <node id="111" visible="true" version="1" lat="0.00000000000" lon="0.00000000000">
    <tag k="ele" v="-0.6258476083354187"/>
    <tag k="local_x" v="-16.004256811988824"/>
    <tag k="local_y" v="-52.150542562597764"/>
  </node>
  <node id="112" visible="true" version="1" lat="0.00000000000" lon="0.00000000000">
    <tag k="ele" v="-0.532395942091221"/>
    <tag k="local_x" v="-17.03944827472358"/>
    <tag k="local_y" v="-53.794107213027615"/>
  </node>
  <node id="113" visible="true" version="1" lat="0.00000000000" lon="0.00000000000">
    <tag k="ele" v="-0.4797396879290986"/>
    <tag k="local_x" v="-18.227018520069958"/>
    <tag k="local_y" v="-55.60542447158481"/>
  </node>
  <node id="114" visible="true" version="1" lat="0.00000000000" lon="0.00000000000">
    <tag k="ele" v="-0.5695729256680025"/>
    <tag k="local_x" v="-19.183931748212697"/>
    <tag k="local_y" v="-57.637409973778325"/>
  </node>
  <node id="115" visible="true" version="1" lat="0.00000000000" lon="0.00000000000">
    <tag k="ele" v="-0.4859918543134118"/>
    <tag k="local_x" v="-20.87590223299073"/>
    <tag k="local_y" v="-58.89710504402947"/>
  </node>
  <node id="116" visible="true" version="1" lat="0.00000000000" lon="0.00000000000">
    <tag k="ele" v="-0.33672204041602416"/>
    <tag k="local_x" v="-22.511348610340754"/>
    <tag k="local_y" v="-60.081610370077435"/>
  </node>
  <node id="117" visible="true" version="1" lat="0.00000000000" lon="0.00000000000">
    <tag k="ele" v="-0.2668867445135834"/>
    <tag k="local_x" v="-23.617465778850498"/>
    <tag k="local_y" v="-61.4981380592344"/>
  </node>
  <node id="118" visible="true" version="1" lat="0.00000000000" lon="0.00000000000">
    <tag k="ele" v="-0.24660986357391543"/>
    <tag k="local_x" v="-24.560077454393294"/>
    <tag k="local_y" v="-63.047675383450006"/>
  </node>
  <node id="119" visible="true" version="1" lat="0.00000000000" lon="0.00000000000">
    <tag k="ele" v="-0.1940582852594171"/>
    <tag k="local_x" v="-25.47682657709575"/>
    <tag k="local_y" v="-64.61242418335588"/>
  </node>
  <node id="120" visible="true" version="1" lat="0.00000000000" lon="0.00000000000">
    <tag k="ele" v="-0.1774999768409034"/>
    <tag k="local_x" v="-25.592886057664355"/>
    <tag k="local_y" v="-66.01516481331181"/>
  </node>
  <node id="121" visible="true" version="1" lat="0.00000000000" lon="0.00000000000">
    <tag k="ele" v="-0.09262136858724968"/>
    <tag k="local_x" v="-25.685607433495292"/>
    <tag k="local_y" v="-66.95066252875661"/>
  </node>
  <node id="122" visible="true" version="1" lat="0.00000000000" lon="0.00000000000">
    <tag k="ele" v="-1.0432204679360075"/>
    <tag k="local_x" v="-8.93287634338599"/>
    <tag k="local_y" v="-33.06900464065172"/>
  </node>
  <node id="123" visible="true" version="1" lat="0.00000000000" lon="0.00000000000">
    <tag k="ele" v="-0.9742732667917234"/>
    <tag k="local_x" v="-9.982368397265587"/>
    <tag k="local_y" v="-34.698459149487675"/>
  </node>
  <node id="124" visible="true" version="1" lat="0.00000000000" lon="0.00000000000">
    <tag k="ele" v="-0.9742732667917234"/>
    <tag k="local_x" v="-10.957795475538228"/>
    <tag k="local_y" v="-36.35415064446019"/>
  </node>
  <node id="125" visible="true" version="1" lat="0.00000000000" lon="0.00000000000">
    <tag k="ele" v="-0.9375231427448942"/>
    <tag k="local_x" v="-11.706843475886483"/>
    <tag k="local_y" v="-38.2040101352842"/>
  </node>
  <node id="126" visible="true" version="1" lat="0.00000000000" lon="0.00000000000">
    <tag k="ele" v="-0.8446451508683247"/>
    <tag k="local_x" v="-13.20519305677367"/>
    <tag k="local_y" v="-39.58185301235541"/>
  </node>
  <node id="127" visible="true" version="1" lat="0.00000000000" lon="0.00000000000">
    <tag k="ele" v="-0.796325811644292"/>
    <tag k="local_x" v="-14.341991392841614"/>
    <tag k="local_y" v="-41.08441327279719"/>
  </node>
  <node id="128" visible="true" version="1" lat="0.00000000000" lon="0.00000000000">
    <tag k="ele" v="-0.7213735068583489"/>
    <tag k="local_x" v="-15.205535473575512"/>
    <tag k="local_y" v="-42.939787744744116"/>
  </node>
  <node id="129" visible="true" version="1" lat="0.00000000000" lon="0.00000000000">
    <tag k="ele" v="-0.6409183230349766"/>
    <tag k="local_x" v="-16.428827750772825"/>
    <tag k="local_y" v="-44.537172170033145"/>
  </node>
  <node id="130" visible="true" version="1" lat="0.00000000000" lon="0.00000000000">
    <tag k="ele" v="-0.6381558525369451"/>
    <tag k="local_x" v="-17.64619944124212"/>
    <tag k="local_y" v="-46.079570039538446"/>
  </node>
  <node id="131" visible="true" version="1" lat="0.00000000000" lon="0.00000000000">
    <tag k="ele" v="-0.5503762365565117"/>
    <tag k="local_x" v="-18.550585712902222"/>
    <tag k="local_y" v="-47.95334832272801"/>
  </node>
  <node id="132" visible="true" version="1" lat="0.00000000000" lon="0.00000000000">
    <tag k="ele" v="-0.4669808846798068"/>
    <tag k="local_x" v="-19.748689480752688"/>
    <tag k="local_y" v="-49.65470122367136"/>
  </node>
  <node id="133" visible="true" version="1" lat="0.00000000000" lon="0.00000000000">
    <tag k="ele" v="-0.4085716071016689"/>
    <tag k="local_x" v="-20.826157013702108"/>
    <tag k="local_y" v="-51.36288593018567"/>
  </node>
  <node id="134" visible="true" version="1" lat="0.00000000000" lon="0.00000000000">
    <tag k="ele" v="-0.3728767902841339"/>
    <tag k="local_x" v="-21.883095773484513"/>
    <tag k="local_y" v="-52.98185836472478"/>
  </node>
  <node id="135" visible="true" version="1" lat="0.00000000000" lon="0.00000000000">
    <tag k="ele" v="-0.31402656427534004"/>
    <tag k="local_x" v="-23.07569455359537"/>
    <tag k="local_y" v="-54.498272788716164"/>
  </node>
  <node id="136" visible="true" version="1" lat="0.00000000000" lon="0.00000000000">
    <tag k="ele" v="-0.30947495097310573"/>
    <tag k="local_x" v="-23.954221785099442"/>
    <tag k="local_y" v="-56.34290287209687"/>
  </node>
  <node id="137" visible="true" version="1" lat="0.00000000000" lon="0.00000000000">
    <tag k="ele" v="-0.26892744861609125"/>
    <tag k="local_x" v="-25.239048483469347"/>
    <tag k="local_y" v="-57.888518169066664"/>
  </node>
  <node id="138" visible="true" version="1" lat="0.00000000000" lon="0.00000000000">
    <tag k="ele" v="-0.08799900605231592"/>
    <tag k="local_x" v="-26.496652514909773"/>
    <tag k="local_y" v="-59.50809189421703"/>
  </node>
  <node id="139" visible="true" version="1" lat="0.00000000000" lon="0.00000000000">
    <tag k="ele" v="-0.06107893643242884"/>
    <tag k="local_x" v="-27.565153070808428"/>
    <tag k="local_y" v="-61.25337314034066"/>
  </node>
  <node id="140" visible="true" version="1" lat="0.00000000000" lon="0.00000000000">
    <tag k="ele" v="0.009899845168113042"/>
    <tag k="local_x" v="-28.593376325918804"/>
    <tag k="local_y" v="-63.01959096449368"/>
  </node>
  <node id="141" visible="true" version="1" lat="0.00000000000" lon="0.00000000000">
    <tag k="ele" v="0.036202549353720276"/>
    <tag k="local_x" v="-29.945023249156623"/>
    <tag k="local_y" v="-64.87109232153963"/>
  </node>
  <node id="142" visible="true" version="1" lat="0.00000000000" lon="0.00000000000">
    <tag k="ele" v="0.14305486306481383"/>
    <tag k="local_x" v="-32.170237110936874"/>
    <tag k="local_y" v="-67.39740400482965"/>
  </node>
  <node id="143" visible="true" version="1" lat="0.00000000000" lon="0.00000000000">
    <tag k="ele" v="-0.2695680902516078"/>
    <tag k="local_x" v="-25.196678808976422"/>
    <tag k="local_y" v="-69.06254177152638"/>
  </node>
  <node id="144" visible="true" version="1" lat="0.00000000000" lon="0.00000000000">
    <tag k="ele" v="-0.301900715874621"/>
    <tag k="local_x" v="-24.822458123250136"/>
    <tag k="local_y" v="-70.94880391729399"/>
  </node>
  <node id="145" visible="true" version="1" lat="0.00000000000" lon="0.00000000000">
    <tag k="ele" v="0.029699674727150727"/>
    <tag k="local_x" v="-29.522835578561327"/>
    <tag k="local_y" v="-72.45877020980535"/>
  </node>
  <node id="146" visible="true" version="1" lat="0.00000000000" lon="0.00000000000">
    <tag k="ele" v="-0.1857890708103896"/>
    <tag k="local_x" v="-26.529228839024647"/>
    <tag k="local_y" v="-72.77553151706758"/>
  </node>
  <node id="147" visible="true" version="1" lat="0.00000000000" lon="0.00000000000">
    <tag k="ele" v="-0.8506566868519349"/>
    <tag k="local_x" v="-15.689870242268583"/>
    <tag k="local_y" v="-76.1163872468291"/>
  </node>
  <node id="148" visible="true" version="1" lat="0.00000000000" lon="0.00000000000">
    <tag k="ele" v="-0.9344972086687945"/>
    <tag k="local_x" v="-14.734830652620651"/>
    <tag k="local_y" v="-74.41450414124579"/>
  </node>
  <node id="149" visible="true" version="1" lat="0.00000000000" lon="0.00000000000">
    <tag k="ele" v="-0.9482276664710478"/>
    <tag k="local_x" v="-15.61841971219594"/>
    <tag k="local_y" v="-80.11574904863603"/>
  </node>
  <node id="150" visible="true" version="1" lat="0.00000000000" lon="0.00000000000">
    <tag k="ele" v="-0.8882845992257784"/>
    <tag k="local_x" v="-13.625436289587219"/>
    <tag k="local_y" v="-77.73402882819566"/>
  </node>
  <node id="151" visible="true" version="1" lat="0.00000000000" lon="0.00000000000">
    <tag k="ele" v="-1.1150643246167102"/>
    <tag k="local_x" v="-10.72980888845592"/>
    <tag k="local_y" v="-75.00216487982613"/>
  </node>
  <node id="152" visible="true" version="1" lat="0.00000000000" lon="0.00000000000">
    <tag k="ele" v="-1.0656914696577635"/>
    <tag k="local_x" v="-10.233605118616275"/>
    <tag k="local_y" v="-72.830778793748"/>
  </node>
  <node id="153" visible="true" version="1" lat="0.00000000000" lon="0.00000000000">
    <tag k="ele" v="-1.201984288558788"/>
    <tag k="local_x" v="-8.859056142531845"/>
    <tag k="local_y" v="-76.660562951345"/>
  </node>
  <node id="154" visible="true" version="1" lat="0.00000000000" lon="0.00000000000">
    <tag k="ele" v="-1.2172898473623854"/>
    <tag k="local_x" v="-7.533208871647812"/>
    <tag k="local_y" v="-75.05740406742083"/>
  </node>
  <node id="155" visible="true" version="1" lat="0.00000000000" lon="0.00000000000">
    <tag k="ele" v="-1.236765664385633"/>
    <tag k="local_x" v="-5.8716377668278925"/>
    <tag k="local_y" v="-66.36856078443562"/>
  </node>
  <node id="156" visible="true" version="1" lat="0.00000000000" lon="0.00000000000">
    <tag k="ele" v="-1.3091197307038067"/>
    <tag k="local_x" v="-4.708601501865212"/>
    <tag k="local_y" v="-64.60041603663117"/>
  </node>
  <node id="157" visible="true" version="1" lat="0.00000000000" lon="0.00000000000">
    <tag k="ele" v="-1.4396929594607528"/>
    <tag k="local_x" v="-4.127732328569212"/>
    <tag k="local_y" v="-62.51520971702927"/>
  </node>
  <node id="158" visible="true" version="1" lat="0.00000000000" lon="0.00000000000">
    <tag k="ele" v="-1.4507766243750129"/>
    <tag k="local_x" v="-3.123465950308213"/>
    <tag k="local_y" v="-60.9911592713074"/>
  </node>
  <node id="159" visible="true" version="1" lat="0.00000000000" lon="0.00000000000">
    <tag k="ele" v="-1.4455578493605419"/>
    <tag k="local_x" v="-3.321672945917623"/>
    <tag k="local_y" v="-67.9489656098269"/>
  </node>
  <node id="160" visible="true" version="1" lat="0.00000000000" lon="0.00000000000">
    <tag k="ele" v="-1.4455578493605419"/>
    <tag k="local_x" v="-2.34884476977244"/>
    <tag k="local_y" v="-66.45285987257947"/>
  </node>
  <node id="161" visible="true" version="1" lat="0.00000000000" lon="0.00000000000">
    <tag k="ele" v="-1.4487609307866107"/>
    <tag k="local_x" v="-0.9889186778639747"/>
    <tag k="local_y" v="-64.99469532217935"/>
  </node>
  <node id="162" visible="true" version="1" lat="0.00000000000" lon="0.00000000000">
    <tag k="ele" v="-1.5235283854422104"/>
    <tag k="local_x" v="-0.6340076570839017"/>
    <tag k="local_y" v="-62.665255268046145"/>
  </node>
  <node id="163" visible="true" version="1" lat="0.00000000000" lon="0.00000000000">
    <tag k="ele" v="-1.5433282248804951"/>
    <tag k="local_x" v="-0.5369046737007996"/>
    <tag k="local_y" v="-57.94181473748589"/>
  </node>
  <node id="164" visible="true" version="1" lat="0.00000000000" lon="0.00000000000">
    <tag k="ele" v="-1.5917747429792302"/>
    <tag k="local_x" v="0.5936598009956167"/>
    <tag k="local_y" v="-56.28210755559775"/>
  </node>
  <node id="165" visible="true" version="1" lat="0.00000000000" lon="0.00000000000">
    <tag k="ele" v="-1.6174856704368634"/>
    <tag k="local_x" v="1.6682118290986654"/>
    <tag k="local_y" v="-54.600405962494214"/>
  </node>
  <node id="166" visible="true" version="1" lat="0.00000000000" lon="0.00000000000">
    <tag k="ele" v="-1.702934508353093"/>
    <tag k="local_x" v="2.3935052958080734"/>
    <tag k="local_y" v="-59.85563223416707"/>
  </node>
  <node id="167" visible="true" version="1" lat="0.00000000000" lon="0.00000000000">
    <tag k="ele" v="-1.7542763097411584"/>
    <tag k="local_x" v="3.5148697927931853"/>
    <tag k="local_y" v="-58.20993850872151"/>
  </node>
  <node id="168" visible="true" version="1" lat="0.00000000000" lon="0.00000000000">
    <tag k="ele" v="-1.7618786719134836"/>
    <tag k="local_x" v="4.592405247054653"/>
    <tag k="local_y" v="-56.52370855293153"/>
  </node>
  <node id="169" visible="true" version="1" lat="0.00000000000" lon="0.00000000000">
    <tag k="ele" v="-1.764721003994898"/>
    <tag k="local_x" v="4.02817729783453"/>
    <tag k="local_y" v="-51.56042810969931"/>
  </node>
  <node id="170" visible="true" version="1" lat="0.00000000000" lon="0.00000000000">
    <tag k="ele" v="-1.8812379846649172"/>
    <tag k="local_x" v="5.4134572763345625"/>
    <tag k="local_y" v="-49.9448951167874"/>
  </node>
  <node id="171" visible="true" version="1" lat="0.00000000000" lon="0.00000000000">
    <tag k="ele" v="-1.9253567485765588"/>
    <tag k="local_x" v="6.259851909922029"/>
    <tag k="local_y" v="-52.687206005188976"/>
  </node>
  <node id="172" visible="true" version="1" lat="0.00000000000" lon="0.00000000000">
    <tag k="ele" v="-2.0494680841403285"/>
    <tag k="local_x" v="7.535829764602237"/>
    <tag k="local_y" v="-51.26608209108153"/>
  </node>
  <node id="173" visible="true" version="1" lat="0.00000000000" lon="0.00000000000">
    <tag k="ele" v="-1.9826914752828422"/>
    <tag k="local_x" v="7.806501508037062"/>
    <tag k="local_y" v="-46.67895415897682"/>
  </node>
  <node id="174" visible="true" version="1" lat="0.00000000000" lon="0.00000000000">
    <tag k="ele" v="-2.0703544605027515"/>
    <tag k="local_x" v="8.5332476059295"/>
    <tag k="local_y" v="-44.822735916437104"/>
  </node>
  <node id="175" visible="true" version="1" lat="0.00000000000" lon="0.00000000000">
    <tag k="ele" v="-2.0875980816743307"/>
    <tag k="local_x" v="9.520478390383614"/>
    <tag k="local_y" v="-43.14938828066447"/>
  </node>
  <node id="176" visible="true" version="1" lat="0.00000000000" lon="0.00000000000">
    <tag k="ele" v="-2.2776937858508077"/>
    <tag k="local_x" v="10.156308218154063"/>
    <tag k="local_y" v="-41.10428255330994"/>
  </node>
  <node id="177" visible="true" version="1" lat="0.00000000000" lon="0.00000000000">
    <tag k="ele" v="-2.2364780893536764"/>
    <tag k="local_x" v="9.835028158891076"/>
    <tag k="local_y" v="-48.14014532606448"/>
  </node>
  <node id="178" visible="true" version="1" lat="0.00000000000" lon="0.00000000000">
    <tag k="ele" v="-2.2236458560376415"/>
    <tag k="local_x" v="10.206488201319376"/>
    <tag k="local_y" v="-45.91830239545119"/>
  </node>
  <node id="179" visible="true" version="1" lat="0.00000000000" lon="0.00000000000">
    <tag k="ele" v="-2.3336443362885757"/>
    <tag k="local_x" v="12.531570284070046"/>
    <tag k="local_y" v="-44.93357594113515"/>
  </node>
  <node id="180" visible="true" version="1" lat="0.00000000000" lon="0.00000000000">
    <tag k="ele" v="-2.3871577886553976"/>
    <tag k="local_x" v="13.495003936130711"/>
    <tag k="local_y" v="-43.3072602887318"/>
  </node>
  <node id="181" visible="true" version="1" lat="0.00000000000" lon="0.00000000000">
    <tag k="ele" v="-2.6266754503542513"/>
    <tag k="local_x" v="16.81626936199061"/>
    <tag k="local_y" v="-33.605230768593465"/>
  </node>
  <node id="182" visible="true" version="1" lat="0.00000000000" lon="0.00000000000">
    <tag k="ele" v="-2.6247445246896506"/>
    <tag k="local_x" v="17.369889551556316"/>
    <tag k="local_y" v="-31.614348772759293"/>
  </node>
  <node id="183" visible="true" version="1" lat="0.00000000000" lon="0.00000000000">
    <tag k="ele" v="-2.6718824787367343"/>
    <tag k="local_x" v="18.431156917846195"/>
    <tag k="local_y" v="-29.882529029115236"/>
  </node>
  <node id="184" visible="true" version="1" lat="0.00000000000" lon="0.00000000000">
    <tag k="ele" v="-2.699038291385564"/>
    <tag k="local_x" v="19.49670164842016"/>
    <tag k="local_y" v="-28.219052912991543"/>
  </node>
  <node id="185" visible="true" version="1" lat="0.00000000000" lon="0.00000000000">
    <tag k="ele" v="-2.8750686458705808"/>
    <tag k="local_x" v="21.331557208804405"/>
    <tag k="local_y" v="-26.98903718999374"/>
  </node>
  <node id="186" visible="true" version="1" lat="0.00000000000" lon="0.00000000000">
    <tag k="ele" v="-2.627438610742381"/>
    <tag k="local_x" v="18.966467449033345"/>
    <tag k="local_y" v="-34.88063195507471"/>
  </node>
  <node id="187" visible="true" version="1" lat="0.00000000000" lon="0.00000000000">
    <tag k="ele" v="-2.770100435017214"/>
    <tag k="local_x" v="20.384899191657926"/>
    <tag k="local_y" v="-33.3919080179307"/>
  </node>
  <node id="188" visible="true" version="1" lat="0.00000000000" lon="0.00000000000">
    <tag k="ele" v="-2.7614774374665165"/>
    <tag k="local_x" v="20.126029832001382"/>
    <tag k="local_y" v="-30.944322702510924"/>
  </node>
  <node id="189" visible="true" version="1" lat="0.00000000000" lon="0.00000000000">
    <tag k="ele" v="-2.784772377147788"/>
    <tag k="local_x" v="21.21205357239824"/>
    <tag k="local_y" v="-29.247434056782453"/>
  </node>
  <node id="190" visible="true" version="1" lat="0.00000000000" lon="0.00000000000">
    <tag k="ele" v="-2.8784601551632303"/>
    <tag k="local_x" v="23.02887639324944"/>
    <tag k="local_y" v="-28.046916004468656"/>
  </node>
  <node id="191" visible="true" version="1" lat="0.00000000000" lon="0.00000000000">
    <tag k="ele" v="-2.9398094160887838"/>
    <tag k="local_x" v="22.98802031454635"/>
    <tag k="local_y" v="-17.506534755446673"/>
  </node>
  <node id="192" visible="true" version="1" lat="0.00000000000" lon="0.00000000000">
    <tag k="ele" v="-3.036225208479534"/>
    <tag k="local_x" v="26.55083340668106"/>
    <tag k="local_y" v="-16.49063291207147"/>
  </node>
  <node id="193" visible="true" version="1" lat="0.00000000000" lon="0.00000000000">
    <tag k="ele" v="-3.1890853719449157"/>
    <tag k="local_x" v="29.245903320094513"/>
    <tag k="local_y" v="-19.264061508833798"/>
  </node>
  <node id="194" visible="true" version="1" lat="0.00000000000" lon="0.00000000000">
    <tag k="ele" v="-3.216004806347342"/>
    <tag k="local_x" v="29.456206769228697"/>
    <tag k="local_y" v="-17.23816593756174"/>
  </node>
  <node id="195" visible="true" version="1" lat="0.00000000000" lon="0.00000000000">
    <tag k="ele" v="-2.418363123472727"/>
    <tag k="local_x" v="15.156686972813695"/>
    <tag k="local_y" v="3.19070323379824"/>
  </node>
  <node id="196" visible="true" version="1" lat="0.00000000000" lon="0.00000000000">
    <tag k="ele" v="-2.4446462777419984"/>
    <tag k="local_x" v="15.351775015664078"/>
    <tag k="local_y" v="5.824970241502113"/>
  </node>
  <node id="197" visible="true" version="1" lat="0.00000000000" lon="0.00000000000">
    <tag k="ele" v="-2.230235591692497"/>
    <tag k="local_x" v="13.964597782868216"/>
    <tag k="local_y" v="6.405002696293607"/>
  </node>
  <node id="198" visible="true" version="1" lat="0.00000000000" lon="0.00000000000">
    <tag k="ele" v="-2.052974917594701"/>
    <tag k="local_x" v="12.359260454585538"/>
    <tag k="local_y" v="6.901040865135204"/>
  </node>
  <node id="199" visible="true" version="1" lat="0.00000000000" lon="0.00000000000">
    <tag k="ele" v="-1.8760053976721276"/>
    <tag k="local_x" v="11.000977861100221"/>
    <tag k="local_y" v="5.779967386290577"/>
  </node>
  <node id="200" visible="true" version="1" lat="0.00000000000" lon="0.00000000000">
    <tag k="ele" v="-1.6922693599890826"/>
    <tag k="local_x" v="9.94965823841093"/>
    <tag k="local_y" v="4.3302582691283815"/>
  </node>
  <node id="201" visible="true" version="1" lat="0.00000000000" lon="0.00000000000">
    <tag k="ele" v="-1.3844841691421985"/>
    <tag k="local_x" v="8.630901941988698"/>
    <tag k="local_y" v="3.031180529420081"/>
  </node>
  <node id="202" visible="true" version="1" lat="0.00000000000" lon="0.00000000000">
    <tag k="ele" v="-1.1829667275406397"/>
    <tag k="local_x" v="7.205660176490582"/>
    <tag k="local_y" v="1.4942846720132859"/>
  </node>
  <node id="203" visible="true" version="1" lat="0.00000000000" lon="0.00000000000">
    <tag k="ele" v="-0.9690101498235761"/>
    <tag k="local_x" v="5.38136028430969"/>
    <tag k="local_y" v="0.11081906022381238"/>
  </node>
  <node id="204" visible="true" version="1" lat="0.00000000000" lon="0.00000000000">
    <tag k="ele" v="-2.6172865760014075"/>
    <tag k="local_x" v="19.430686876185657"/>
    <tag k="local_y" v="7.401751182465704"/>
  </node>
  <node id="205" visible="true" version="1" lat="0.00000000000" lon="0.00000000000">
    <tag k="ele" v="-2.468476430016974"/>
    <tag k="local_x" v="17.835804361607586"/>
    <tag k="local_y" v="9.577249310080497"/>
  </node>
  <node id="206" visible="true" version="1" lat="0.00000000000" lon="0.00000000000">
    <tag k="ele" v="-2.2083275407169607"/>
    <tag k="local_x" v="14.752105520679423"/>
    <tag k="local_y" v="10.32671553163577"/>
  </node>
  <node id="207" visible="true" version="1" lat="0.00000000000" lon="0.00000000000">
    <tag k="ele" v="-2.0101763736335525"/>
    <tag k="local_x" v="11.86736147753215"/>
    <tag k="local_y" v="9.352170277543664"/>
  </node>
  <node id="208" visible="true" version="1" lat="0.00000000000" lon="0.00000000000">
    <tag k="ele" v="-1.7787592037964126"/>
    <tag k="local_x" v="9.491344145744502"/>
    <tag k="local_y" v="8.372457703622793"/>
  </node>
  <node id="209" visible="true" version="1" lat="0.00000000000" lon="0.00000000000">
    <tag k="ele" v="-1.587504559736335"/>
    <tag k="local_x" v="7.650829218304382"/>
    <tag k="local_y" v="6.969459878766412"/>
  </node>
  <node id="210" visible="true" version="1" lat="0.00000000000" lon="0.00000000000">
    <tag k="ele" v="-1.1741676551335645"/>
    <tag k="local_x" v="5.398997794691768"/>
    <tag k="local_y" v="6.162441550587895"/>
  </node>
  <node id="211" visible="true" version="1" lat="0.00000000000" lon="0.00000000000">
    <tag k="ele" v="-1.1563520240964358"/>
    <tag k="local_x" v="5.861880806049188"/>
    <tag k="local_y" v="2.9755871406455814"/>
  </node>
  <node id="212" visible="true" version="1" lat="0.00000000000" lon="0.00000000000">
    <tag k="ele" v="-0.859298447916417"/>
    <tag k="local_x" v="3.489826544363061"/>
    <tag k="local_y" v="3.055662028981827"/>
  </node>
  <node id="213" visible="true" version="1" lat="0.00000000000" lon="0.00000000000">
    <tag k="ele" v="-2.507697057848044"/>
    <tag k="local_x" v="17.18209729071561"/>
    <tag k="local_y" v="9.333340194659222"/>
  </node>
  <node id="214" visible="true" version="1" lat="0.00000000000" lon="0.00000000000">
    <tag k="ele" v="-2.5263784109744547"/>
    <tag k="local_x" v="17.940530105594917"/>
    <tag k="local_y" v="8.801436453094324"/>
  </node>
  <node id="215" visible="true" version="1" lat="0.00000000000" lon="0.00000000000">
    <tag k="ele" v="-2.5450597641008654"/>
    <tag k="local_x" v="18.58188745485678"/>
    <tag k="local_y" v="8.03013768444552"/>
  </node>
  <node id="216" visible="true" version="1" lat="0.00000000000" lon="0.00000000000">
    <tag k="ele" v="-2.563741117227276"/>
    <tag k="local_x" v="19.0750629237562"/>
    <tag k="local_y" v="7.101625985971393"/>
  </node>
  <node id="217" visible="true" version="1" lat="0.00000000000" lon="0.00000000000">
    <tag k="ele" v="-2.582422470353687"/>
    <tag k="local_x" v="19.388950097548204"/>
    <tag k="local_y" v="6.098083454930517"/>
  </node>
  <node id="218" visible="true" version="1" lat="0.00000000000" lon="0.00000000000">
    <tag k="ele" v="-2.6011038234800976"/>
    <tag k="local_x" v="19.49244256148779"/>
    <tag k="local_y" v="5.101692188581472"/>
  </node>
  <node id="219" visible="true" version="1" lat="0.00000000000" lon="0.00000000000">
    <tag k="ele" v="-2.3433333495709734"/>
    <tag k="local_x" v="15.317621135047156"/>
    <tag k="local_y" v="5.67466428107057"/>
  </node>
  <node id="220" visible="true" version="1" lat="0.00000000000" lon="0.00000000000">
    <tag k="ele" v="-2.361144897324308"/>
    <tag k="local_x" v="15.654820066141909"/>
    <tag k="local_y" v="5.380725589161388"/>
  </node>
  <node id="221" visible="true" version="1" lat="0.00000000000" lon="0.00000000000">
    <tag k="ele" v="-2.378956445077643"/>
    <tag k="local_x" v="15.868334667586344"/>
    <tag k="local_y" v="4.999069247772476"/>
  </node>
  <node id="222" visible="true" version="1" lat="0.00000000000" lon="0.00000000000">
    <tag k="ele" v="-2.881542722892401"/>
    <tag k="local_x" v="21.95962163789315"/>
    <tag k="local_y" v="-26.345948006132332"/>
  </node>
  <node id="223" visible="true" version="1" lat="0.00000000000" lon="0.00000000000">
    <tag k="ele" v="-2.8880167999142214"/>
    <tag k="local_x" v="22.28980466502323"/>
    <tag k="local_y" v="-25.513594133884514"/>
  </node>
  <node id="224" visible="true" version="1" lat="0.00000000000" lon="0.00000000000">
    <tag k="ele" v="-2.894490876936042"/>
    <tag k="local_x" v="22.3952769727196"/>
    <tag k="local_y" v="-24.53751974309574"/>
  </node>
  <node id="225" visible="true" version="1" lat="0.00000000000" lon="0.00000000000">
    <tag k="ele" v="-2.900964953957862"/>
    <tag k="local_x" v="22.34920924350721"/>
    <tag k="local_y" v="-23.46326900361147"/>
  </node>
  <node id="226" visible="true" version="1" lat="0.00000000000" lon="0.00000000000">
    <tag k="ele" v="-2.907439030979682"/>
    <tag k="local_x" v="22.224772159911023"/>
    <tag k="local_y" v="-22.336386085277184"/>
  </node>
  <node id="227" visible="true" version="1" lat="0.00000000000" lon="0.00000000000">
    <tag k="ele" v="-2.9139131080015024"/>
    <tag k="local_x" v="22.095136404455978"/>
    <tag k="local_y" v="-21.202415157938333"/>
  </node>
  <node id="228" visible="true" version="1" lat="0.00000000000" lon="0.00000000000">
    <tag k="ele" v="-2.9203871850233227"/>
    <tag k="local_x" v="22.033472659667034"/>
    <tag k="local_y" v="-20.1069003914404"/>
  </node>
  <node id="229" visible="true" version="1" lat="0.00000000000" lon="0.00000000000">
    <tag k="ele" v="-2.926861262045143"/>
    <tag k="local_x" v="22.11295160806915"/>
    <tag k="local_y" v="-19.09538595562883"/>
  </node>
  <node id="230" visible="true" version="1" lat="0.00000000000" lon="0.00000000000">
    <tag k="ele" v="-2.9333353390669634"/>
    <tag k="local_x" v="22.40674393218727"/>
    <tag k="local_y" v="-18.2134160203491"/>
  </node>
  <node id="231" visible="true" version="1" lat="0.00000000000" lon="0.00000000000">
    <tag k="ele" v="-2.9066988112342926"/>
    <tag k="local_x" v="23.78379617267953"/>
    <tag k="local_y" v="-27.44522026432089"/>
  </node>
  <node id="232" visible="true" version="1" lat="0.00000000000" lon="0.00000000000">
    <tag k="ele" v="-2.934937467305355"/>
    <tag k="local_x" v="24.43448019532819"/>
    <tag k="local_y" v="-26.738573644431618"/>
  </node>
  <node id="233" visible="true" version="1" lat="0.00000000000" lon="0.00000000000">
    <tag k="ele" v="-2.9631761233764173"/>
    <tag k="local_x" v="25.003024679232357"/>
    <tag k="local_y" v="-25.948843399538852"/>
  </node>
  <node id="234" visible="true" version="1" lat="0.00000000000" lon="0.00000000000">
    <tag k="ele" v="-2.9914147794474797"/>
    <tag k="local_x" v="25.511525842428945"/>
    <tag k="local_y" v="-25.097896784380623"/>
  </node>
  <node id="235" visible="true" version="1" lat="0.00000000000" lon="0.00000000000">
    <tag k="ele" v="-3.019653435518542"/>
    <tag k="local_x" v="25.98207990295488"/>
    <tag k="local_y" v="-24.207601053694948"/>
  </node>
  <node id="236" visible="true" version="1" lat="0.00000000000" lon="0.00000000000">
    <tag k="ele" v="-3.047892091589604"/>
    <tag k="local_x" v="26.43678307884708"/>
    <tag k="local_y" v="-23.299823462219855"/>
  </node>
  <node id="237" visible="true" version="1" lat="0.00000000000" lon="0.00000000000">
    <tag k="ele" v="-3.0761307476606663"/>
    <tag k="local_x" v="26.897731588142484"/>
    <tag k="local_y" v="-22.396431264693355"/>
  </node>
  <node id="238" visible="true" version="1" lat="0.00000000000" lon="0.00000000000">
    <tag k="ele" v="-3.1043694037317286"/>
    <tag k="local_x" v="27.387021648878"/>
    <tag k="local_y" v="-21.519291715853477"/>
  </node>
  <node id="239" visible="true" version="1" lat="0.00000000000" lon="0.00000000000">
    <tag k="ele" v="-3.132608059802791"/>
    <tag k="local_x" v="27.92674947909056"/>
    <tag k="local_y" v="-20.690272070438244"/>
  </node>
  <node id="240" visible="true" version="1" lat="0.00000000000" lon="0.00000000000">
    <tag k="ele" v="-3.1608467158738534"/>
    <tag k="local_x" v="28.53901129681709"/>
    <tag k="local_y" v="-19.93123958318568"/>
  </node>
  <way id="1" visible="true" version="1">
    <nd ref="55"/>
    <nd ref="56"/>
    <nd ref="57"/>
    <tag k="type" v="virtual"/>
  </way>
  <way id="2" visible="true" version="1">
    <nd ref="58"/>
    <nd ref="59"/>
    <nd ref="60"/>
    <tag k="type" v="virtual"/>
  </way>
  <way id="4" visible="true" version="1">
    <nd ref="61"/>
    <nd ref="62"/>
    <nd ref="63"/>
    <nd ref="64"/>
    <tag k="type" v="virtual"/>
  </way>
  <way id="5" visible="true" version="1">
    <nd ref="65"/>
    <nd ref="66"/>
    <nd ref="67"/>
    <nd ref="68"/>
    <tag k="type" v="virtual"/>
  </way>
  <way id="7" visible="true" version="1">
    <nd ref="69"/>
    <nd ref="70"/>
    <nd ref="71"/>
    <nd ref="72"/>
    <nd ref="73"/>
    <tag k="type" v="virtual"/>
  </way>
  <way id="8" visible="true" version="1">
    <nd ref="74"/>
    <nd ref="75"/>
    <nd ref="76"/>
    <nd ref="77"/>
    <nd ref="78"/>
    <tag k="type" v="virtual"/>
  </way>
  <way id="10" visible="true" version="1">
    <nd ref="79"/>
    <nd ref="80"/>
    <tag k="type" v="virtual"/>
  </way>
  <way id="11" visible="true" version="1">
    <nd ref="81"/>
    <nd ref="82"/>
    <tag k="type" v="virtual"/>
  </way>
  <way id="13" visible="true" version="1">
    <nd ref="83"/>
    <nd ref="84"/>
    <nd ref="85"/>
    <nd ref="86"/>
    <nd ref="87"/>
    <nd ref="88"/>
    <nd ref="89"/>
    <nd ref="90"/>
    <nd ref="91"/>
    <tag k="type" v="virtual"/>
  </way>
  <way id="14" visible="true" version="1">
    <nd ref="92"/>
    <nd ref="93"/>
    <nd ref="94"/>
    <nd ref="95"/>
    <nd ref="96"/>
    <nd ref="97"/>
    <nd ref="98"/>
    <nd ref="99"/>
    <nd ref="100"/>
    <tag k="type" v="virtual"/>
  </way>
  <way id="16" visible="true" version="1">
    <nd ref="101"/>
    <nd ref="102"/>
    <nd ref="103"/>
    <nd ref="104"/>
    <nd ref="105"/>
    <nd ref="106"/>
    <nd ref="107"/>
    <nd ref="108"/>
    <nd ref="109"/>
    <nd ref="110"/>
    <nd ref="111"/>
    <nd ref="112"/>
    <nd ref="113"/>
    <nd ref="114"/>
    <nd ref="115"/>
    <nd ref="116"/>
    <nd ref="117"/>
    <nd ref="118"/>
    <nd ref="119"/>
    <nd ref="120"/>
    <nd ref="121"/>
    <tag k="type" v="virtual"/>
  </way>
  <way id="17" visible="true" version="1">
    <nd ref="122"/>
    <nd ref="123"/>
    <nd ref="124"/>
    <nd ref="125"/>
    <nd ref="126"/>
    <nd ref="127"/>
    <nd ref="128"/>
    <nd ref="129"/>
    <nd ref="130"/>
    <nd ref="131"/>
    <nd ref="132"/>
    <nd ref="133"/>
    <nd ref="134"/>
    <nd ref="135"/>
    <nd ref="136"/>
    <nd ref="137"/>
    <nd ref="138"/>
    <nd ref="139"/>
    <nd ref="140"/>
    <nd ref="141"/>
    <nd ref="142"/>
    <tag k="type" v="virtual"/>
  </way>
  <way id="19" visible="true" version="1">
    <nd ref="143"/>
    <nd ref="144"/>
    <tag k="type" v="virtual"/>
  </way>
  <way id="20" visible="true" version="1">
    <nd ref="145"/>
    <nd ref="146"/>
    <tag k="type" v="virtual"/>
  </way>
  <way id="22" visible="true" version="1">
    <nd ref="147"/>
    <nd ref="148"/>
    <tag k="type" v="virtual"/>
  </way>
  <way id="23" visible="true" version="1">
    <nd ref="149"/>
    <nd ref="150"/>
    <tag k="type" v="virtual"/>
  </way>
  <way id="25" visible="true" version="1">
    <nd ref="151"/>
    <nd ref="152"/>
    <tag k="type" v="virtual"/>
  </way>
  <way id="26" visible="true" version="1">
    <nd ref="153"/>
    <nd ref="154"/>
    <tag k="type" v="virtual"/>
  </way>
  <way id="28" visible="true" version="1">
    <nd ref="155"/>
    <nd ref="156"/>
    <nd ref="157"/>
    <nd ref="158"/>
    <tag k="type" v="virtual"/>
  </way>
  <way id="29" visible="true" version="1">
    <nd ref="159"/>
    <nd ref="160"/>
    <nd ref="161"/>
    <nd ref="162"/>
    <tag k="type" v="virtual"/>
  </way>
  <way id="31" visible="true" version="1">
    <nd ref="163"/>
    <nd ref="164"/>
    <nd ref="165"/>
    <tag k="type" v="virtual"/>
  </way>
  <way id="32" visible="true" version="1">
    <nd ref="166"/>
    <nd ref="167"/>
    <nd ref="168"/>
    <tag k="type" v="virtual"/>
  </way>
  <way id="34" visible="true" version="1">
    <nd ref="169"/>
    <nd ref="170"/>
    <tag k="type" v="virtual"/>
  </way>
  <way id="35" visible="true" version="1">
    <nd ref="171"/>
    <nd ref="172"/>
    <tag k="type" v="virtual"/>
  </way>
  <way id="37" visible="true" version="1">
    <nd ref="173"/>
    <nd ref="174"/>
    <nd ref="175"/>
    <nd ref="176"/>
    <tag k="type" v="virtual"/>
  </way>
  <way id="38" visible="true" version="1">
    <nd ref="177"/>
    <nd ref="178"/>
    <nd ref="179"/>
    <nd ref="180"/>
    <tag k="type" v="virtual"/>
  </way>
  <way id="40" visible="true" version="1">
    <nd ref="181"/>
    <nd ref="182"/>
    <nd ref="183"/>
    <nd ref="184"/>
    <nd ref="185"/>
    <tag k="type" v="virtual"/>
  </way>
  <way id="41" visible="true" version="1">
    <nd ref="186"/>
    <nd ref="187"/>
    <nd ref="188"/>
    <nd ref="189"/>
    <nd ref="190"/>
    <tag k="type" v="virtual"/>
  </way>
  <way id="43" visible="true" version="1">
    <nd ref="191"/>
    <nd ref="192"/>
    <tag k="type" v="virtual"/>
  </way>
  <way id="44" visible="true" version="1">
    <nd ref="193"/>
    <nd ref="194"/>
    <tag k="type" v="virtual"/>
  </way>
  <way id="46" visible="true" version="1">
    <nd ref="195"/>
    <nd ref="196"/>
    <nd ref="197"/>
    <nd ref="198"/>
    <nd ref="199"/>
    <nd ref="200"/>
    <nd ref="201"/>
    <nd ref="202"/>
    <nd ref="203"/>
    <tag k="type" v="virtual"/>
  </way>
  <way id="47" visible="true" version="1">
    <nd ref="204"/>
    <nd ref="205"/>
    <nd ref="206"/>
    <nd ref="207"/>
    <nd ref="208"/>
    <nd ref="209"/>
    <nd ref="210"/>
    <nd ref="211"/>
    <nd ref="212"/>
    <tag k="type" v="virtual"/>
  </way>
  <way id="49" visible="true" version="1">
    <nd ref="64"/>
    <nd ref="213"/>
    <nd ref="214"/>
    <nd ref="215"/>
    <nd ref="216"/>
    <nd ref="217"/>
    <nd ref="218"/>
    <nd ref="69"/>
    <tag k="type" v="virtual"/>
  </way>
  <way id="50" visible="true" version="1">
    <nd ref="68"/>
    <nd ref="219"/>
    <nd ref="220"/>
    <nd ref="221"/>
    <nd ref="74"/>
    <tag k="type" v="virtual"/>
  </way>
  <way id="52" visible="true" version="1">
    <nd ref="185"/>
    <nd ref="222"/>
    <nd ref="223"/>
    <nd ref="224"/>
    <nd ref="225"/>
    <nd ref="226"/>
    <nd ref="227"/>
    <nd ref="228"/>
    <nd ref="229"/>
    <nd ref="230"/>
    <nd ref="191"/>
    <tag k="type" v="virtual"/>
  </way>
  <way id="53" visible="true" version="1">
    <nd ref="190"/>
    <nd ref="231"/>
    <nd ref="232"/>
    <nd ref="233"/>
    <nd ref="234"/>
    <nd ref="235"/>
    <nd ref="236"/>
    <nd ref="237"/>
    <nd ref="238"/>
    <nd ref="239"/>
    <nd ref="240"/>
    <nd ref="193"/>
    <tag k="type" v="virtual"/>
  </way>
  <relation id="3" visible="true" version="1">
    <member type="way" ref="1" role="left"/>
    <member type="way" ref="2" role="right"/>
    <tag k="cloudanalyzer:assumption_status" v="hypothesis"/>
    <tag k="cloudanalyzer:boundary_policy" v="source_span_hypothesis"/>
    <tag k="cloudanalyzer:source_center_curve" v="1"/>
    <tag k="location" v="urban"/>
    <tag k="one_way" v="yes"/>
    <tag k="participant:vehicle" v="yes"/>
    <tag k="speed_limit" v="40"/>
    <tag k="subtype" v="road"/>
    <tag k="type" v="lanelet"/>
  </relation>
  <relation id="6" visible="true" version="1">
    <member type="way" ref="4" role="left"/>
    <member type="way" ref="5" role="right"/>
    <tag k="cloudanalyzer:assumption_status" v="hypothesis"/>
    <tag k="cloudanalyzer:boundary_policy" v="source_span_hypothesis"/>
    <tag k="cloudanalyzer:source_center_curve" v="4"/>
    <tag k="location" v="urban"/>
    <tag k="one_way" v="yes"/>
    <tag k="participant:vehicle" v="yes"/>
    <tag k="speed_limit" v="40"/>
    <tag k="subtype" v="road"/>
    <tag k="type" v="lanelet"/>
  </relation>
  <relation id="9" visible="true" version="1">
    <member type="way" ref="7" role="left"/>
    <member type="way" ref="8" role="right"/>
    <tag k="cloudanalyzer:assumption_status" v="hypothesis"/>
    <tag k="cloudanalyzer:boundary_policy" v="source_span_hypothesis"/>
    <tag k="cloudanalyzer:source_center_curve" v="7"/>
    <tag k="location" v="urban"/>
    <tag k="one_way" v="yes"/>
    <tag k="participant:vehicle" v="yes"/>
    <tag k="speed_limit" v="40"/>
    <tag k="subtype" v="road"/>
    <tag k="type" v="lanelet"/>
  </relation>
  <relation id="12" visible="true" version="1">
    <member type="way" ref="10" role="left"/>
    <member type="way" ref="11" role="right"/>
    <tag k="cloudanalyzer:assumption_status" v="hypothesis"/>
    <tag k="cloudanalyzer:boundary_policy" v="source_span_hypothesis"/>
    <tag k="cloudanalyzer:source_center_curve" v="10"/>
    <tag k="location" v="urban"/>
    <tag k="one_way" v="yes"/>
    <tag k="participant:vehicle" v="yes"/>
    <tag k="speed_limit" v="40"/>
    <tag k="subtype" v="road"/>
    <tag k="type" v="lanelet"/>
  </relation>
  <relation id="15" visible="true" version="1">
    <member type="way" ref="13" role="left"/>
    <member type="way" ref="14" role="right"/>
    <tag k="cloudanalyzer:assumption_status" v="hypothesis"/>
    <tag k="cloudanalyzer:boundary_policy" v="source_span_hypothesis"/>
    <tag k="cloudanalyzer:source_center_curve" v="13"/>
    <tag k="location" v="urban"/>
    <tag k="one_way" v="yes"/>
    <tag k="participant:vehicle" v="yes"/>
    <tag k="speed_limit" v="40"/>
    <tag k="subtype" v="road"/>
    <tag k="type" v="lanelet"/>
  </relation>
  <relation id="18" visible="true" version="1">
    <member type="way" ref="16" role="left"/>
    <member type="way" ref="17" role="right"/>
    <tag k="cloudanalyzer:assumption_status" v="hypothesis"/>
    <tag k="cloudanalyzer:boundary_policy" v="source_span_hypothesis"/>
    <tag k="cloudanalyzer:source_center_curve" v="16"/>
    <tag k="location" v="urban"/>
    <tag k="one_way" v="yes"/>
    <tag k="participant:vehicle" v="yes"/>
    <tag k="speed_limit" v="40"/>
    <tag k="subtype" v="road"/>
    <tag k="type" v="lanelet"/>
  </relation>
  <relation id="21" visible="true" version="1">
    <member type="way" ref="19" role="left"/>
    <member type="way" ref="20" role="right"/>
    <tag k="cloudanalyzer:assumption_status" v="hypothesis"/>
    <tag k="cloudanalyzer:boundary_policy" v="source_span_hypothesis"/>
    <tag k="cloudanalyzer:source_center_curve" v="19"/>
    <tag k="location" v="urban"/>
    <tag k="one_way" v="yes"/>
    <tag k="participant:vehicle" v="yes"/>
    <tag k="speed_limit" v="40"/>
    <tag k="subtype" v="road"/>
    <tag k="type" v="lanelet"/>
  </relation>
  <relation id="24" visible="true" version="1">
    <member type="way" ref="22" role="left"/>
    <member type="way" ref="23" role="right"/>
    <tag k="cloudanalyzer:assumption_status" v="hypothesis"/>
    <tag k="cloudanalyzer:boundary_policy" v="source_span_hypothesis"/>
    <tag k="cloudanalyzer:source_center_curve" v="22"/>
    <tag k="location" v="urban"/>
    <tag k="one_way" v="yes"/>
    <tag k="participant:vehicle" v="yes"/>
    <tag k="speed_limit" v="40"/>
    <tag k="subtype" v="road"/>
    <tag k="type" v="lanelet"/>
  </relation>
  <relation id="27" visible="true" version="1">
    <member type="way" ref="25" role="left"/>
    <member type="way" ref="26" role="right"/>
    <tag k="cloudanalyzer:assumption_status" v="hypothesis"/>
    <tag k="cloudanalyzer:boundary_policy" v="source_span_hypothesis"/>
    <tag k="cloudanalyzer:source_center_curve" v="25"/>
    <tag k="location" v="urban"/>
    <tag k="one_way" v="yes"/>
    <tag k="participant:vehicle" v="yes"/>
    <tag k="speed_limit" v="40"/>
    <tag k="subtype" v="road"/>
    <tag k="type" v="lanelet"/>
  </relation>
  <relation id="30" visible="true" version="1">
    <member type="way" ref="28" role="left"/>
    <member type="way" ref="29" role="right"/>
    <tag k="cloudanalyzer:assumption_status" v="hypothesis"/>
    <tag k="cloudanalyzer:boundary_policy" v="source_span_hypothesis"/>
    <tag k="cloudanalyzer:source_center_curve" v="28"/>
    <tag k="location" v="urban"/>
    <tag k="one_way" v="yes"/>
    <tag k="participant:vehicle" v="yes"/>
    <tag k="speed_limit" v="40"/>
    <tag k="subtype" v="road"/>
    <tag k="type" v="lanelet"/>
  </relation>
  <relation id="33" visible="true" version="1">
    <member type="way" ref="31" role="left"/>
    <member type="way" ref="32" role="right"/>
    <tag k="cloudanalyzer:assumption_status" v="hypothesis"/>
    <tag k="cloudanalyzer:boundary_policy" v="source_span_hypothesis"/>
    <tag k="cloudanalyzer:source_center_curve" v="31"/>
    <tag k="location" v="urban"/>
    <tag k="one_way" v="yes"/>
    <tag k="participant:vehicle" v="yes"/>
    <tag k="speed_limit" v="40"/>
    <tag k="subtype" v="road"/>
    <tag k="type" v="lanelet"/>
  </relation>
  <relation id="36" visible="true" version="1">
    <member type="way" ref="34" role="left"/>
    <member type="way" ref="35" role="right"/>
    <tag k="cloudanalyzer:assumption_status" v="hypothesis"/>
    <tag k="cloudanalyzer:boundary_policy" v="source_span_hypothesis"/>
    <tag k="cloudanalyzer:source_center_curve" v="34"/>
    <tag k="location" v="urban"/>
    <tag k="one_way" v="yes"/>
    <tag k="participant:vehicle" v="yes"/>
    <tag k="speed_limit" v="40"/>
    <tag k="subtype" v="road"/>
    <tag k="type" v="lanelet"/>
  </relation>
  <relation id="39" visible="true" version="1">
    <member type="way" ref="37" role="left"/>
    <member type="way" ref="38" role="right"/>
    <tag k="cloudanalyzer:assumption_status" v="hypothesis"/>
    <tag k="cloudanalyzer:boundary_policy" v="source_span_hypothesis"/>
    <tag k="cloudanalyzer:source_center_curve" v="37"/>
    <tag k="location" v="urban"/>
    <tag k="one_way" v="yes"/>
    <tag k="participant:vehicle" v="yes"/>
    <tag k="speed_limit" v="40"/>
    <tag k="subtype" v="road"/>
    <tag k="type" v="lanelet"/>
  </relation>
  <relation id="42" visible="true" version="1">
    <member type="way" ref="40" role="left"/>
    <member type="way" ref="41" role="right"/>
    <tag k="cloudanalyzer:assumption_status" v="hypothesis"/>
    <tag k="cloudanalyzer:boundary_policy" v="source_span_hypothesis"/>
    <tag k="cloudanalyzer:source_center_curve" v="40"/>
    <tag k="location" v="urban"/>
    <tag k="one_way" v="yes"/>
    <tag k="participant:vehicle" v="yes"/>
    <tag k="speed_limit" v="40"/>
    <tag k="subtype" v="road"/>
    <tag k="type" v="lanelet"/>
  </relation>
  <relation id="45" visible="true" version="1">
    <member type="way" ref="43" role="left"/>
    <member type="way" ref="44" role="right"/>
    <tag k="cloudanalyzer:assumption_status" v="hypothesis"/>
    <tag k="cloudanalyzer:boundary_policy" v="source_span_hypothesis"/>
    <tag k="cloudanalyzer:source_center_curve" v="43"/>
    <tag k="location" v="urban"/>
    <tag k="one_way" v="yes"/>
    <tag k="participant:vehicle" v="yes"/>
    <tag k="speed_limit" v="40"/>
    <tag k="subtype" v="road"/>
    <tag k="type" v="lanelet"/>
  </relation>
  <relation id="48" visible="true" version="1">
    <member type="way" ref="46" role="left"/>
    <member type="way" ref="47" role="right"/>
    <tag k="cloudanalyzer:assumption_status" v="hypothesis"/>
    <tag k="cloudanalyzer:boundary_policy" v="source_span_hypothesis"/>
    <tag k="cloudanalyzer:source_center_curve" v="46"/>
    <tag k="location" v="urban"/>
    <tag k="one_way" v="yes"/>
    <tag k="participant:vehicle" v="yes"/>
    <tag k="speed_limit" v="40"/>
    <tag k="subtype" v="road"/>
    <tag k="type" v="lanelet"/>
  </relation>
  <relation id="51" visible="true" version="1">
    <member type="way" ref="49" role="left"/>
    <member type="way" ref="50" role="right"/>
    <tag k="cloudanalyzer_geometry_source" v="ground_supported_connection"/>
    <tag k="cloudanalyzer_review_required" v="yes"/>
    <tag k="location" v="urban"/>
    <tag k="one_way" v="yes"/>
    <tag k="participant:vehicle" v="yes"/>
    <tag k="speed_limit" v="40"/>
    <tag k="subtype" v="road"/>
    <tag k="turn_direction" v="right"/>
    <tag k="type" v="lanelet"/>
  </relation>
  <relation id="54" visible="true" version="1">
    <member type="way" ref="52" role="left"/>
    <member type="way" ref="53" role="right"/>
    <tag k="cloudanalyzer_geometry_source" v="ground_supported_connection"/>
    <tag k="cloudanalyzer_review_required" v="yes"/>
    <tag k="location" v="urban"/>
    <tag k="one_way" v="yes"/>
    <tag k="participant:vehicle" v="yes"/>
    <tag k="speed_limit" v="40"/>
    <tag k="subtype" v="road"/>
    <tag k="turn_direction" v="straight"/>
    <tag k="type" v="lanelet"/>
  </relation>
</osm>
