<?xml version="1.0" encoding="UTF-8"?>
<osm version="0.6" upload="false" generator="vectormap-rs 0.1.0">
  <node id="16" visible="true" version="1" lat="0.00000000000" lon="0.00000000000">
    <tag k="ele" v="19.1560001373291"/>
    <tag k="local_x" v="3754.382488240485"/>
    <tag k="local_y" v="73787.08682069674"/>
  </node>
  <node id="17" visible="true" version="1" lat="0.00000000000" lon="0.00000000000">
    <tag k="ele" v="19.163637161254883"/>
    <tag k="local_x" v="3756.2926579499062"/>
    <tag k="local_y" v="73788.78555437972"/>
  </node>
  <node id="18" visible="true" version="1" lat="0.00000000000" lon="0.00000000000">
    <tag k="ele" v="19.163908004760742"/>
    <tag k="local_x" v="3757.7357653919944"/>
    <tag k="local_y" v="73789.28206470457"/>
  </node>
  <node id="19" visible="true" version="1" lat="0.00000000000" lon="0.00000000000">
    <tag k="ele" v="19.163999557495117"/>
    <tag k="local_x" v="3759.5103949919953"/>
    <tag k="local_y" v="73790.20722250582"/>
  </node>
  <node id="20" visible="true" version="1" lat="0.00000000000" lon="0.00000000000">
    <tag k="ele" v="19.167545318603516"/>
    <tag k="local_x" v="3761.309419321025"/>
    <tag k="local_y" v="73791.08944558396"/>
  </node>
  <node id="21" visible="true" version="1" lat="0.00000000000" lon="0.00000000000">
    <tag k="ele" v="19.166908264160156"/>
    <tag k="local_x" v="3763.111647857638"/>
    <tag k="local_y" v="73791.96602925676"/>
  </node>
  <node id="22" visible="true" version="1" lat="0.00000000000" lon="0.00000000000">
    <tag k="ele" v="19.165090560913086"/>
    <tag k="local_x" v="3764.9147688107255"/>
    <tag k="local_y" v="73792.84104227657"/>
  </node>
  <node id="23" visible="true" version="1" lat="0.00000000000" lon="0.00000000000">
    <tag k="ele" v="19.164546966552734"/>
    <tag k="local_x" v="3766.599277159652"/>
    <tag k="local_y" v="73793.9248134797"/>
  </node>
  <node id="24" visible="true" version="1" lat="0.00000000000" lon="0.00000000000">
    <tag k="ele" v="19.164230346679688"/>
    <tag k="local_x" v="3768.257722940243"/>
    <tag k="local_y" v="73795.05445480312"/>
  </node>
  <node id="25" visible="true" version="1" lat="0.00000000000" lon="0.00000000000">
    <tag k="ele" v="19.165306091308594"/>
    <tag k="local_x" v="3769.9124131314447"/>
    <tag k="local_y" v="73796.19070596382"/>
  </node>
  <node id="26" visible="true" version="1" lat="0.00000000000" lon="0.00000000000">
    <tag k="ele" v="19.168582916259766"/>
    <tag k="local_x" v="3771.6146041426646"/>
    <tag k="local_y" v="73797.24335568132"/>
  </node>
  <node id="27" visible="true" version="1" lat="0.00000000000" lon="0.00000000000">
    <tag k="ele" v="19.169357299804688"/>
    <tag k="local_x" v="3773.383874492898"/>
    <tag k="local_y" v="73798.17794576217"/>
  </node>
  <node id="28" visible="true" version="1" lat="0.00000000000" lon="0.00000000000">
    <tag k="ele" v="19.171274185180664"/>
    <tag k="local_x" v="3775.2173053365623"/>
    <tag k="local_y" v="73798.99961337454"/>
  </node>
  <node id="29" visible="true" version="1" lat="0.00000000000" lon="0.00000000000">
    <tag k="ele" v="19.17092514038086"/>
    <tag k="local_x" v="3777.0818911547335"/>
    <tag k="local_y" v="73799.7664482318"/>
  </node>
  <node id="30" visible="true" version="1" lat="0.00000000000" lon="0.00000000000">
    <tag k="ele" v="19.167308807373047"/>
    <tag k="local_x" v="3778.9403112636214"/>
    <tag k="local_y" v="73800.5441347374"/>
  </node>
  <node id="31" visible="true" version="1" lat="0.00000000000" lon="0.00000000000">
    <tag k="ele" v="19.167076110839844"/>
    <tag k="local_x" v="3780.7524455992284"/>
    <tag k="local_y" v="73801.40328420399"/>
  </node>
  <node id="32" visible="true" version="1" lat="0.00000000000" lon="0.00000000000">
    <tag k="ele" v="19.17057991027832"/>
    <tag k="local_x" v="3782.511365889874"/>
    <tag k="local_y" v="73802.35609038969"/>
  </node>
  <node id="33" visible="true" version="1" lat="0.00000000000" lon="0.00000000000">
    <tag k="ele" v="19.173498153686523"/>
    <tag k="local_x" v="3784.225030350955"/>
    <tag k="local_y" v="73803.38854683543"/>
  </node>
  <node id="34" visible="true" version="1" lat="0.00000000000" lon="0.00000000000">
    <tag k="ele" v="19.17261505126953"/>
    <tag k="local_x" v="3785.9112818909884"/>
    <tag k="local_y" v="73804.4692500222"/>
  </node>
  <node id="35" visible="true" version="1" lat="0.00000000000" lon="0.00000000000">
    <tag k="ele" v="19.174152374267578"/>
    <tag k="local_x" v="3787.5794598046973"/>
    <tag k="local_y" v="73805.5817627913"/>
  </node>
  <node id="36" visible="true" version="1" lat="0.00000000000" lon="0.00000000000">
    <tag k="ele" v="19.172000885009766"/>
    <tag k="local_x" v="3789.2188646962545"/>
    <tag k="local_y" v="73806.74491607943"/>
  </node>
  <node id="37" visible="true" version="1" lat="0.00000000000" lon="0.00000000000">
    <tag k="ele" v="19.171001434326172"/>
    <tag k="local_x" v="3790.8658432203542"/>
    <tag k="local_y" v="73807.89473977427"/>
  </node>
  <node id="38" visible="true" version="1" lat="0.00000000000" lon="0.00000000000">
    <tag k="ele" v="19.16916847229004"/>
    <tag k="local_x" v="3792.5298632564677"/>
    <tag k="local_y" v="73809.01457040792"/>
  </node>
  <node id="39" visible="true" version="1" lat="0.00000000000" lon="0.00000000000">
    <tag k="ele" v="19.167455673217773"/>
    <tag k="local_x" v="3794.2000305763054"/>
    <tag k="local_y" v="73810.12358182225"/>
  </node>
  <node id="40" visible="true" version="1" lat="0.00000000000" lon="0.00000000000">
    <tag k="ele" v="19.16892433166504"/>
    <tag k="local_x" v="3795.7564964745397"/>
    <tag k="local_y" v="73811.11924625769"/>
  </node>
  <node id="41" visible="true" version="1" lat="0.00000000000" lon="0.00000000000">
    <tag k="ele" v="19.172924041748047"/>
    <tag k="local_x" v="3796.8640073638994"/>
    <tag k="local_y" v="73811.81457966419"/>
  </node>
  <node id="42" visible="true" version="1" lat="0.00000000000" lon="0.00000000000">
    <tag k="ele" v="19.172924041748047"/>
    <tag k="local_x" v="3798.0995122004397"/>
    <tag k="local_y" v="73812.58485852722"/>
  </node>
  <node id="43" visible="true" version="1" lat="0.00000000000" lon="0.00000000000">
    <tag k="ele" v="19.1560001373291"/>
    <tag k="local_x" v="3756.111521167119"/>
    <tag k="local_y" v="73784.04372274586"/>
  </node>
  <node id="44" visible="true" version="1" lat="0.00000000000" lon="0.00000000000">
    <tag k="ele" v="19.163637161254883"/>
    <tag k="local_x" v="3758.021690876546"/>
    <tag k="local_y" v="73785.74245642884"/>
  </node>
  <node id="45" visible="true" version="1" lat="0.00000000000" lon="0.00000000000">
    <tag k="ele" v="19.163908004760742"/>
    <tag k="local_x" v="3759.4647983186305"/>
    <tag k="local_y" v="73786.2389667537"/>
  </node>
  <node id="46" visible="true" version="1" lat="0.00000000000" lon="0.00000000000">
    <tag k="ele" v="19.163999557495117"/>
    <tag k="local_x" v="3761.239427918616"/>
    <tag k="local_y" v="73787.16412455494"/>
  </node>
  <node id="47" visible="true" version="1" lat="0.00000000000" lon="0.00000000000">
    <tag k="ele" v="19.167545318603516"/>
    <tag k="local_x" v="3763.038452247658"/>
    <tag k="local_y" v="73788.04634763308"/>
  </node>
  <node id="48" visible="true" version="1" lat="0.00000000000" lon="0.00000000000">
    <tag k="ele" v="19.166908264160156"/>
    <tag k="local_x" v="3764.840680784279"/>
    <tag k="local_y" v="73788.92293130589"/>
  </node>
  <node id="49" visible="true" version="1" lat="0.00000000000" lon="0.00000000000">
    <tag k="ele" v="19.165090560913086"/>
    <tag k="local_x" v="3766.6438017373553"/>
    <tag k="local_y" v="73789.79794432569"/>
  </node>
  <node id="50" visible="true" version="1" lat="0.00000000000" lon="0.00000000000">
    <tag k="ele" v="19.164546966552734"/>
    <tag k="local_x" v="3768.328310086293"/>
    <tag k="local_y" v="73790.88171552883"/>
  </node>
  <node id="51" visible="true" version="1" lat="0.00000000000" lon="0.00000000000">
    <tag k="ele" v="19.164230346679688"/>
    <tag k="local_x" v="3769.986755866871"/>
    <tag k="local_y" v="73792.01135685224"/>
  </node>
  <node id="52" visible="true" version="1" lat="0.00000000000" lon="0.00000000000">
    <tag k="ele" v="19.165306091308594"/>
    <tag k="local_x" v="3771.6414460580786"/>
    <tag k="local_y" v="73793.14760801295"/>
  </node>
  <node id="53" visible="true" version="1" lat="0.00000000000" lon="0.00000000000">
    <tag k="ele" v="19.168582916259766"/>
    <tag k="local_x" v="3773.3436370693066"/>
    <tag k="local_y" v="73794.20025773045"/>
  </node>
  <node id="54" visible="true" version="1" lat="0.00000000000" lon="0.00000000000">
    <tag k="ele" v="19.169357299804688"/>
    <tag k="local_x" v="3775.1129074195137"/>
    <tag k="local_y" v="73795.13484781129"/>
  </node>
  <node id="55" visible="true" version="1" lat="0.00000000000" lon="0.00000000000">
    <tag k="ele" v="19.171274185180664"/>
    <tag k="local_x" v="3776.9463382631907"/>
    <tag k="local_y" v="73795.95651542366"/>
  </node>
  <node id="56" visible="true" version="1" lat="0.00000000000" lon="0.00000000000">
    <tag k="ele" v="19.17092514038086"/>
    <tag k="local_x" v="3778.8109240813747"/>
    <tag k="local_y" v="73796.72335028092"/>
  </node>
  <node id="57" visible="true" version="1" lat="0.00000000000" lon="0.00000000000">
    <tag k="ele" v="19.167308807373047"/>
    <tag k="local_x" v="3780.669344190262"/>
    <tag k="local_y" v="73797.50103678653"/>
  </node>
  <node id="58" visible="true" version="1" lat="0.00000000000" lon="0.00000000000">
    <tag k="ele" v="19.167076110839844"/>
    <tag k="local_x" v="3782.4814785258695"/>
    <tag k="local_y" v="73798.3601862531"/>
  </node>
  <node id="59" visible="true" version="1" lat="0.00000000000" lon="0.00000000000">
    <tag k="ele" v="19.17057991027832"/>
    <tag k="local_x" v="3784.2403988164942"/>
    <tag k="local_y" v="73799.3129924388"/>
  </node>
  <node id="60" visible="true" version="1" lat="0.00000000000" lon="0.00000000000">
    <tag k="ele" v="19.173498153686523"/>
    <tag k="local_x" v="3785.954063277583"/>
    <tag k="local_y" v="73800.34544888455"/>
  </node>
  <node id="61" visible="true" version="1" lat="0.00000000000" lon="0.00000000000">
    <tag k="ele" v="19.17261505126953"/>
    <tag k="local_x" v="3787.64031481763"/>
    <tag k="local_y" v="73801.42615207132"/>
  </node>
  <node id="62" visible="true" version="1" lat="0.00000000000" lon="0.00000000000">
    <tag k="ele" v="19.174152374267578"/>
    <tag k="local_x" v="3789.3084927313394"/>
    <tag k="local_y" v="73802.53866484044"/>
  </node>
  <node id="63" visible="true" version="1" lat="0.00000000000" lon="0.00000000000">
    <tag k="ele" v="19.172000885009766"/>
    <tag k="local_x" v="3790.9478976228907"/>
    <tag k="local_y" v="73803.70181812855"/>
  </node>
  <node id="64" visible="true" version="1" lat="0.00000000000" lon="0.00000000000">
    <tag k="ele" v="19.171001434326172"/>
    <tag k="local_x" v="3792.594876146976"/>
    <tag k="local_y" v="73804.85164182339"/>
  </node>
  <node id="65" visible="true" version="1" lat="0.00000000000" lon="0.00000000000">
    <tag k="ele" v="19.16916847229004"/>
    <tag k="local_x" v="3794.258896183096"/>
    <tag k="local_y" v="73805.97147245705"/>
  </node>
  <node id="66" visible="true" version="1" lat="0.00000000000" lon="0.00000000000">
    <tag k="ele" v="19.167455673217773"/>
    <tag k="local_x" v="3795.929063502946"/>
    <tag k="local_y" v="73807.08048387138"/>
  </node>
  <node id="67" visible="true" version="1" lat="0.00000000000" lon="0.00000000000">
    <tag k="ele" v="19.16892433166504"/>
    <tag k="local_x" v="3797.485529401175"/>
    <tag k="local_y" v="73808.07614830682"/>
  </node>
  <node id="68" visible="true" version="1" lat="0.00000000000" lon="0.00000000000">
    <tag k="ele" v="19.172924041748047"/>
    <tag k="local_x" v="3798.593040290535"/>
    <tag k="local_y" v="73808.77148171332"/>
  </node>
  <node id="69" visible="true" version="1" lat="0.00000000000" lon="0.00000000000">
    <tag k="ele" v="19.172924041748047"/>
    <tag k="local_x" v="3799.828545127072"/>
    <tag k="local_y" v="73809.54176057635"/>
  </node>
  <node id="70" visible="true" version="1" lat="0.00000000000" lon="0.00000000000">
    <tag k="ele" v="18.86866569519043"/>
    <tag k="local_x" v="3757.987959883632"/>
    <tag k="local_y" v="73780.74119060482"/>
  </node>
  <node id="71" visible="true" version="1" lat="0.00000000000" lon="0.00000000000">
    <tag k="ele" v="19.163637161254883"/>
    <tag k="local_x" v="3759.750723803186"/>
    <tag k="local_y" v="73782.69935847797"/>
  </node>
  <node id="72" visible="true" version="1" lat="0.00000000000" lon="0.00000000000">
    <tag k="ele" v="19.163908004760742"/>
    <tag k="local_x" v="3761.346955994478"/>
    <tag k="local_y" v="73782.92636924423"/>
  </node>
  <node id="73" visible="true" version="1" lat="0.00000000000" lon="0.00000000000">
    <tag k="ele" v="19.163999557495117"/>
    <tag k="local_x" v="3763.1813737762277"/>
    <tag k="local_y" v="73783.74629984552"/>
  </node>
  <node id="74" visible="true" version="1" lat="0.00000000000" lon="0.00000000000">
    <tag k="ele" v="18.788000106811523"/>
    <tag k="local_x" v="3765.048828272564"/>
    <tag k="local_y" v="73784.50808582923"/>
  </node>
  <node id="75" visible="true" version="1" lat="0.00000000000" lon="0.00000000000">
    <tag k="ele" v="18.788000106811523"/>
    <tag k="local_x" v="3766.838273290676"/>
    <tag k="local_y" v="73785.40716849464"/>
  </node>
  <node id="76" visible="true" version="1" lat="0.00000000000" lon="0.00000000000">
    <tag k="ele" v="19.165090560913086"/>
    <tag k="local_x" v="3768.531847503438"/>
    <tag k="local_y" v="73786.47498377737"/>
  </node>
  <node id="77" visible="true" version="1" lat="0.00000000000" lon="0.00000000000">
    <tag k="ele" v="19.164546966552734"/>
    <tag k="local_x" v="3770.1543425461687"/>
    <tag k="local_y" v="73787.66789839946"/>
  </node>
  <node id="78" visible="true" version="1" lat="0.00000000000" lon="0.00000000000">
    <tag k="ele" v="19.164230346679688"/>
    <tag k="local_x" v="3771.752548020119"/>
    <tag k="local_y" v="73788.90356266253"/>
  </node>
  <node id="79" visible="true" version="1" lat="0.00000000000" lon="0.00000000000">
    <tag k="ele" v="19.165306091308594"/>
    <tag k="local_x" v="3773.3749550700213"/>
    <tag k="local_y" v="73790.09663215191"/>
  </node>
  <node id="80" visible="true" version="1" lat="0.00000000000" lon="0.00000000000">
    <tag k="ele" v="19.168582916259766"/>
    <tag k="local_x" v="3775.0657658434748"/>
    <tag k="local_y" v="73791.16931108793"/>
  </node>
  <node id="81" visible="true" version="1" lat="0.00000000000" lon="0.00000000000">
    <tag k="ele" v="19.169357299804688"/>
    <tag k="local_x" v="3776.8363855762454"/>
    <tag k="local_y" v="73792.10152625541"/>
  </node>
  <node id="82" visible="true" version="1" lat="0.00000000000" lon="0.00000000000">
    <tag k="ele" v="19.171274185180664"/>
    <tag k="local_x" v="3778.677448177863"/>
    <tag k="local_y" v="73792.90976197383"/>
  </node>
  <node id="83" visible="true" version="1" lat="0.00000000000" lon="0.00000000000">
    <tag k="ele" v="19.17092514038086"/>
    <tag k="local_x" v="3780.5508895767935"/>
    <tag k="local_y" v="73793.66101100901"/>
  </node>
  <node id="84" visible="true" version="1" lat="0.00000000000" lon="0.00000000000">
    <tag k="ele" v="18.98699951171875"/>
    <tag k="local_x" v="3782.41381128965"/>
    <tag k="local_y" v="73794.43077469162"/>
  </node>
  <node id="85" visible="true" version="1" lat="0.00000000000" lon="0.00000000000">
    <tag k="ele" v="18.99066734313965"/>
    <tag k="local_x" v="3784.2177823107195"/>
    <tag k="local_y" v="73795.30429159179"/>
  </node>
  <node id="86" visible="true" version="1" lat="0.00000000000" lon="0.00000000000">
    <tag k="ele" v="18.95599937438965"/>
    <tag k="local_x" v="3785.9730381324407"/>
    <tag k="local_y" v="73796.26354724272"/>
  </node>
  <node id="87" visible="true" version="1" lat="0.00000000000" lon="0.00000000000">
    <tag k="ele" v="18.964000701904297"/>
    <tag k="local_x" v="3787.666550851702"/>
    <tag k="local_y" v="73797.33147075408"/>
  </node>
  <node id="88" visible="true" version="1" lat="0.00000000000" lon="0.00000000000">
    <tag k="ele" v="19.17261505126953"/>
    <tag k="local_x" v="3789.3032587568305"/>
    <tag k="local_y" v="73798.49937073835"/>
  </node>
  <node id="89" visible="true" version="1" lat="0.00000000000" lon="0.00000000000">
    <tag k="ele" v="18.983665466308594"/>
    <tag k="local_x" v="3790.9287665255697"/>
    <tag k="local_y" v="73799.68698296261"/>
  </node>
  <node id="90" visible="true" version="1" lat="0.00000000000" lon="0.00000000000">
    <tag k="ele" v="19.172000885009766"/>
    <tag k="local_x" v="3792.58516239203"/>
    <tag k="local_y" v="73800.8202321349"/>
  </node>
  <node id="91" visible="true" version="1" lat="0.00000000000" lon="0.00000000000">
    <tag k="ele" v="19.171001434326172"/>
    <tag k="local_x" v="3794.2654024944536"/>
    <tag k="local_y" v="73801.9115154518"/>
  </node>
  <node id="92" visible="true" version="1" lat="0.00000000000" lon="0.00000000000">
    <tag k="ele" v="19.16916847229004"/>
    <tag k="local_x" v="3795.9585062353553"/>
    <tag k="local_y" v="73802.98015876507"/>
  </node>
  <node id="93" visible="true" version="1" lat="0.00000000000" lon="0.00000000000">
    <tag k="ele" v="19.167455673217773"/>
    <tag k="local_x" v="3797.647757554132"/>
    <tag k="local_y" v="73804.05558234132"/>
  </node>
  <node id="94" visible="true" version="1" lat="0.00000000000" lon="0.00000000000">
    <tag k="ele" v="19.16892433166504"/>
    <tag k="local_x" v="3799.2146125253043"/>
    <tag k="local_y" v="73805.03296200834"/>
  </node>
  <node id="95" visible="true" version="1" lat="0.00000000000" lon="0.00000000000">
    <tag k="ele" v="19.172924041748047"/>
    <tag k="local_x" v="3800.3275871506407"/>
    <tag k="local_y" v="73805.71867923954"/>
  </node>
  <node id="96" visible="true" version="1" lat="0.00000000000" lon="0.00000000000">
    <tag k="ele" v="19.172924041748047"/>
    <tag k="local_x" v="3801.5684883435333"/>
    <tag k="local_y" v="73806.47946051537"/>
  </node>
  <node id="97" visible="true" version="1" lat="0.00000000000" lon="0.00000000000">
    <tag k="ele" v="19.171430587768555"/>
    <tag k="local_x" v="3818.7274197315382"/>
    <tag k="local_y" v="73825.2131830756"/>
  </node>
  <node id="98" visible="true" version="1" lat="0.00000000000" lon="0.00000000000">
    <tag k="ele" v="19.170499801635742"/>
    <tag k="local_x" v="3820.727396587722"/>
    <tag k="local_y" v="73826.75029810616"/>
  </node>
  <node id="99" visible="true" version="1" lat="0.00000000000" lon="0.00000000000">
    <tag k="ele" v="19.131071090698242"/>
    <tag k="local_x" v="3821.966672375573"/>
    <tag k="local_y" v="73827.60423725643"/>
  </node>
  <node id="100" visible="true" version="1" lat="0.00000000000" lon="0.00000000000">
    <tag k="ele" v="19.159000396728516"/>
    <tag k="local_x" v="3823.6978995875425"/>
    <tag k="local_y" v="73828.60567584261"/>
  </node>
  <node id="101" visible="true" version="1" lat="0.00000000000" lon="0.00000000000">
    <tag k="ele" v="19.17128562927246"/>
    <tag k="local_x" v="3825.5303809836005"/>
    <tag k="local_y" v="73829.43102019557"/>
  </node>
  <node id="102" visible="true" version="1" lat="0.00000000000" lon="0.00000000000">
    <tag k="ele" v="19.169286727905273"/>
    <tag k="local_x" v="3827.3957247807675"/>
    <tag k="local_y" v="73830.19921254656"/>
  </node>
  <node id="103" visible="true" version="1" lat="0.00000000000" lon="0.00000000000">
    <tag k="ele" v="19.16612434387207"/>
    <tag k="local_x" v="3829.242365510452"/>
    <tag k="local_y" v="73830.99993197148"/>
  </node>
  <node id="104" visible="true" version="1" lat="0.00000000000" lon="0.00000000000">
    <tag k="ele" v="19.163787841796875"/>
    <tag k="local_x" v="3831.060836185127"/>
    <tag k="local_y" v="73831.84964279644"/>
  </node>
  <node id="105" visible="true" version="1" lat="0.00000000000" lon="0.00000000000">
    <tag k="ele" v="19.16217613220215"/>
    <tag k="local_x" v="3832.851407341407"/>
    <tag k="local_y" v="73832.74787452295"/>
  </node>
  <node id="106" visible="true" version="1" lat="0.00000000000" lon="0.00000000000">
    <tag k="ele" v="19.16217613220215"/>
    <tag k="local_x" v="3834.6029225229545"/>
    <tag k="local_y" v="73833.71402968373"/>
  </node>
  <node id="107" visible="true" version="1" lat="0.00000000000" lon="0.00000000000">
    <tag k="ele" v="19.164562225341797"/>
    <tag k="local_x" v="3836.3159939772263"/>
    <tag k="local_y" v="73834.74704350065"/>
  </node>
  <node id="108" visible="true" version="1" lat="0.00000000000" lon="0.00000000000">
    <tag k="ele" v="19.157833099365234"/>
    <tag k="local_x" v="3837.9985770116637"/>
    <tag k="local_y" v="73835.83308065646"/>
  </node>
  <node id="109" visible="true" version="1" lat="0.00000000000" lon="0.00000000000">
    <tag k="ele" v="19.14019012451172"/>
    <tag k="local_x" v="3839.671155281566"/>
    <tag k="local_y" v="73836.93651740278"/>
  </node>
  <node id="110" visible="true" version="1" lat="0.00000000000" lon="0.00000000000">
    <tag k="ele" v="19.152999877929688"/>
    <tag k="local_x" v="3841.379548183032"/>
    <tag k="local_y" v="73837.97766783324"/>
  </node>
  <node id="111" visible="true" version="1" lat="0.00000000000" lon="0.00000000000">
    <tag k="ele" v="19.215499877929688"/>
    <tag k="local_x" v="3843.1327639620436"/>
    <tag k="local_y" v="73838.94086543325"/>
  </node>
  <node id="112" visible="true" version="1" lat="0.00000000000" lon="0.00000000000">
    <tag k="ele" v="19.145240783691406"/>
    <tag k="local_x" v="3844.928419419006"/>
    <tag k="local_y" v="73839.83025489768"/>
  </node>
  <node id="113" visible="true" version="1" lat="0.00000000000" lon="0.00000000000">
    <tag k="ele" v="19.1156063079834"/>
    <tag k="local_x" v="3846.7333367358856"/>
    <tag k="local_y" v="73840.70353677968"/>
  </node>
  <node id="114" visible="true" version="1" lat="0.00000000000" lon="0.00000000000">
    <tag k="ele" v="19.151641845703125"/>
    <tag k="local_x" v="3848.521394850187"/>
    <tag k="local_y" v="73841.60613901394"/>
  </node>
  <node id="115" visible="true" version="1" lat="0.00000000000" lon="0.00000000000">
    <tag k="ele" v="19.11490821838379"/>
    <tag k="local_x" v="3850.302118969092"/>
    <tag k="local_y" v="73842.52149602282"/>
  </node>
  <node id="116" visible="true" version="1" lat="0.00000000000" lon="0.00000000000">
    <tag k="ele" v="19.139421463012695"/>
    <tag k="local_x" v="3852.066435061267"/>
    <tag k="local_y" v="73843.46538873036"/>
  </node>
  <node id="117" visible="true" version="1" lat="0.00000000000" lon="0.00000000000">
    <tag k="ele" v="19.272785186767578"/>
    <tag k="local_x" v="3853.8394525688855"/>
    <tag k="local_y" v="73844.3941485415"/>
  </node>
  <node id="118" visible="true" version="1" lat="0.00000000000" lon="0.00000000000">
    <tag k="ele" v="19.121427536010742"/>
    <tag k="local_x" v="3855.649960921568"/>
    <tag k="local_y" v="73845.25770688291"/>
  </node>
  <node id="119" visible="true" version="1" lat="0.00000000000" lon="0.00000000000">
    <tag k="ele" v="19.091705322265625"/>
    <tag k="local_x" v="3857.2982973648277"/>
    <tag k="local_y" v="73845.98894476224"/>
  </node>
  <node id="120" visible="true" version="1" lat="0.00000000000" lon="0.00000000000">
    <tag k="ele" v="19.088193893432617"/>
    <tag k="local_x" v="3858.444453514605"/>
    <tag k="local_y" v="73846.48688290235"/>
  </node>
  <node id="121" visible="true" version="1" lat="0.00000000000" lon="0.00000000000">
    <tag k="ele" v="19.088144302368164"/>
    <tag k="local_x" v="3859.466658709734"/>
    <tag k="local_y" v="73846.92755007003"/>
  </node>
  <node id="122" visible="true" version="1" lat="0.00000000000" lon="0.00000000000">
    <tag k="ele" v="19.171430587768555"/>
    <tag k="local_x" v="3820.505476649996"/>
    <tag k="local_y" v="73822.12091017391"/>
  </node>
  <node id="123" visible="true" version="1" lat="0.00000000000" lon="0.00000000000">
    <tag k="ele" v="19.170499801635742"/>
    <tag k="local_x" v="3822.5483504725603"/>
    <tag k="local_y" v="73823.58342178469"/>
  </node>
  <node id="124" visible="true" version="1" lat="0.00000000000" lon="0.00000000000">
    <tag k="ele" v="19.170583724975586"/>
    <tag k="local_x" v="3823.8055344440995"/>
    <tag k="local_y" v="73824.40621626769"/>
  </node>
  <node id="125" visible="true" version="1" lat="0.00000000000" lon="0.00000000000">
    <tag k="ele" v="19.172922134399414"/>
    <tag k="local_x" v="3825.536896307336"/>
    <tag k="local_y" v="73825.40742067773"/>
  </node>
  <node id="126" visible="true" version="1" lat="0.00000000000" lon="0.00000000000">
    <tag k="ele" v="19.17128562927246"/>
    <tag k="local_x" v="3827.339443071577"/>
    <tag k="local_y" v="73826.28482525992"/>
  </node>
  <node id="127" visible="true" version="1" lat="0.00000000000" lon="0.00000000000">
    <tag k="ele" v="19.169286727905273"/>
    <tag k="local_x" v="3829.1721222523606"/>
    <tag k="local_y" v="73827.10982563948"/>
  </node>
  <node id="128" visible="true" version="1" lat="0.00000000000" lon="0.00000000000">
    <tag k="ele" v="19.16612434387207"/>
    <tag k="local_x" v="3830.994604391298"/>
    <tag k="local_y" v="73827.95256000482"/>
  </node>
  <node id="129" visible="true" version="1" lat="0.00000000000" lon="0.00000000000">
    <tag k="ele" v="19.163787841796875"/>
    <tag k="local_x" v="3832.8007213769447"/>
    <tag k="local_y" v="73828.82375550632"/>
  </node>
  <node id="130" visible="true" version="1" lat="0.00000000000" lon="0.00000000000">
    <tag k="ele" v="19.16217613220215"/>
    <tag k="local_x" v="3834.592145135528"/>
    <tag k="local_y" v="73829.72050444619"/>
  </node>
  <node id="131" visible="true" version="1" lat="0.00000000000" lon="0.00000000000">
    <tag k="ele" v="19.16217613220215"/>
    <tag k="local_x" v="3836.3603115360806"/>
    <tag k="local_y" v="73830.65770096524"/>
  </node>
  <node id="132" visible="true" version="1" lat="0.00000000000" lon="0.00000000000">
    <tag k="ele" v="19.164562225341797"/>
    <tag k="local_x" v="3838.109402936616"/>
    <tag k="local_y" v="73831.6280713974"/>
  </node>
  <node id="133" visible="true" version="1" lat="0.00000000000" lon="0.00000000000">
    <tag k="ele" v="19.157833099365234"/>
    <tag k="local_x" v="3839.8477597355322"/>
    <tag k="local_y" v="73832.61711070193"/>
  </node>
  <node id="134" visible="true" version="1" lat="0.00000000000" lon="0.00000000000">
    <tag k="ele" v="19.155000686645508"/>
    <tag k="local_x" v="3841.584060673026"/>
    <tag k="local_y" v="73833.6097254176"/>
  </node>
  <node id="135" visible="true" version="1" lat="0.00000000000" lon="0.00000000000">
    <tag k="ele" v="19.152523040771484"/>
    <tag k="local_x" v="3843.3261867828915"/>
    <tag k="local_y" v="73834.59220939872"/>
  </node>
  <node id="136" visible="true" version="1" lat="0.00000000000" lon="0.00000000000">
    <tag k="ele" v="19.148954391479492"/>
    <tag k="local_x" v="3845.0805993096346"/>
    <tag k="local_y" v="73835.55332569833"/>
  </node>
  <node id="137" visible="true" version="1" lat="0.00000000000" lon="0.00000000000">
    <tag k="ele" v="19.147544860839844"/>
    <tag k="local_x" v="3846.8502613325622"/>
    <tag k="local_y" v="73836.48792113499"/>
  </node>
  <node id="138" visible="true" version="1" lat="0.00000000000" lon="0.00000000000">
    <tag k="ele" v="19.146696090698242"/>
    <tag k="local_x" v="3848.6294877856444"/>
    <tag k="local_y" v="73837.40588278009"/>
  </node>
  <node id="139" visible="true" version="1" lat="0.00000000000" lon="0.00000000000">
    <tag k="ele" v="19.14569664001465"/>
    <tag k="local_x" v="3850.4074448813994"/>
    <tag k="local_y" v="73838.3260520031"/>
  </node>
  <node id="140" visible="true" version="1" lat="0.00000000000" lon="0.00000000000">
    <tag k="ele" v="19.13691520690918"/>
    <tag k="local_x" v="3852.18172020536"/>
    <tag k="local_y" v="73839.25262430758"/>
  </node>
  <node id="141" visible="true" version="1" lat="0.00000000000" lon="0.00000000000">
    <tag k="ele" v="19.128000259399414"/>
    <tag k="local_x" v="3853.947286593644"/>
    <tag k="local_y" v="73840.1943425871"/>
  </node>
  <node id="142" visible="true" version="1" lat="0.00000000000" lon="0.00000000000">
    <tag k="ele" v="19.12350082397461"/>
    <tag k="local_x" v="3855.711310009748"/>
    <tag k="local_y" v="73841.1387442965"/>
  </node>
  <node id="143" visible="true" version="1" lat="0.00000000000" lon="0.00000000000">
    <tag k="ele" v="19.108936309814453"/>
    <tag k="local_x" v="3857.485211099009"/>
    <tag k="local_y" v="73842.06596744388"/>
  </node>
  <node id="144" visible="true" version="1" lat="0.00000000000" lon="0.00000000000">
    <tag k="ele" v="19.091705322265625"/>
    <tag k="local_x" v="3859.090433724919"/>
    <tag k="local_y" v="73842.87218587515"/>
  </node>
  <node id="145" visible="true" version="1" lat="0.00000000000" lon="0.00000000000">
    <tag k="ele" v="19.088193893432617"/>
    <tag k="local_x" v="3860.206685972006"/>
    <tag k="local_y" v="73843.42213080249"/>
  </node>
  <node id="146" visible="true" version="1" lat="0.00000000000" lon="0.00000000000">
    <tag k="ele" v="19.088144302368164"/>
    <tag k="local_x" v="3861.202494310201"/>
    <tag k="local_y" v="73843.9087055475"/>
  </node>
  <node id="147" visible="true" version="1" lat="0.00000000000" lon="0.00000000000">
    <tag k="ele" v="19.171430587768555"/>
    <tag k="local_x" v="3822.245045801056"/>
    <tag k="local_y" v="73819.09557251989"/>
  </node>
  <node id="148" visible="true" version="1" lat="0.00000000000" lon="0.00000000000">
    <tag k="ele" v="19.170499801635742"/>
    <tag k="local_x" v="3824.2930397679147"/>
    <tag k="local_y" v="73820.54917953191"/>
  </node>
  <node id="149" visible="true" version="1" lat="0.00000000000" lon="0.00000000000">
    <tag k="ele" v="19.170583724975586"/>
    <tag k="local_x" v="3825.5544864003673"/>
    <tag k="local_y" v="73821.36456069158"/>
  </node>
  <node id="150" visible="true" version="1" lat="0.00000000000" lon="0.00000000000">
    <tag k="ele" v="19.172922134399414"/>
    <tag k="local_x" v="3827.2934706222827"/>
    <tag k="local_y" v="73822.35250882561"/>
  </node>
  <node id="151" visible="true" version="1" lat="0.00000000000" lon="0.00000000000">
    <tag k="ele" v="19.17128562927246"/>
    <tag k="local_x" v="3829.106356170058"/>
    <tag k="local_y" v="73823.21193291471"/>
  </node>
  <node id="152" visible="true" version="1" lat="0.00000000000" lon="0.00000000000">
    <tag k="ele" v="19.169286727905273"/>
    <tag k="local_x" v="3830.9492933147285"/>
    <tag k="local_y" v="73824.01909335711"/>
  </node>
  <node id="153" visible="true" version="1" lat="0.00000000000" lon="0.00000000000">
    <tag k="ele" v="19.233999252319336"/>
    <tag k="local_x" v="3832.7735893124577"/>
    <tag k="local_y" v="73824.85867318544"/>
  </node>
  <node id="154" visible="true" version="1" lat="0.00000000000" lon="0.00000000000">
    <tag k="ele" v="19.233665466308594"/>
    <tag k="local_x" v="3834.5565822345393"/>
    <tag k="local_y" v="73825.77008444963"/>
  </node>
  <node id="155" visible="true" version="1" lat="0.00000000000" lon="0.00000000000">
    <tag k="ele" v="19.204248428344727"/>
    <tag k="local_x" v="3836.3224814291693"/>
    <tag k="local_y" v="73826.71122393549"/>
  </node>
  <node id="156" visible="true" version="1" lat="0.00000000000" lon="0.00000000000">
    <tag k="ele" v="19.256420135498047"/>
    <tag k="local_x" v="3838.0931872054543"/>
    <tag k="local_y" v="73827.64400414893"/>
  </node>
  <node id="157" visible="true" version="1" lat="0.00000000000" lon="0.00000000000">
    <tag k="ele" v="19.22561264038086"/>
    <tag k="local_x" v="3839.8562042448752"/>
    <tag k="local_y" v="73828.59015607875"/>
  </node>
  <node id="158" visible="true" version="1" lat="0.00000000000" lon="0.00000000000">
    <tag k="ele" v="19.1929988861084"/>
    <tag k="local_x" v="3841.6274426559226"/>
    <tag k="local_y" v="73829.52200997084"/>
  </node>
  <node id="159" visible="true" version="1" lat="0.00000000000" lon="0.00000000000">
    <tag k="ele" v="19.228614807128906"/>
    <tag k="local_x" v="3843.422013541004"/>
    <tag k="local_y" v="73830.41328564717"/>
  </node>
  <node id="160" visible="true" version="1" lat="0.00000000000" lon="0.00000000000">
    <tag k="ele" v="19.262264251708984"/>
    <tag k="local_x" v="3845.2168031913993"/>
    <tag k="local_y" v="73831.30418086216"/>
  </node>
  <node id="161" visible="true" version="1" lat="0.00000000000" lon="0.00000000000">
    <tag k="ele" v="19.244062423706055"/>
    <tag k="local_x" v="3846.989409033023"/>
    <tag k="local_y" v="73832.2336566142"/>
  </node>
  <node id="162" visible="true" version="1" lat="0.00000000000" lon="0.00000000000">
    <tag k="ele" v="19.19049835205078"/>
    <tag k="local_x" v="3848.7568568070988"/>
    <tag k="local_y" v="73833.17210291844"/>
  </node>
  <node id="163" visible="true" version="1" lat="0.00000000000" lon="0.00000000000">
    <tag k="ele" v="19.246044158935547"/>
    <tag k="local_x" v="3850.5368073346726"/>
    <tag k="local_y" v="73834.08880530349"/>
  </node>
  <node id="164" visible="true" version="1" lat="0.00000000000" lon="0.00000000000">
    <tag k="ele" v="19.228221893310547"/>
    <tag k="local_x" v="3852.3139213487066"/>
    <tag k="local_y" v="73835.01044075559"/>
  </node>
  <node id="165" visible="true" version="1" lat="0.00000000000" lon="0.00000000000">
    <tag k="ele" v="19.265501022338867"/>
    <tag k="local_x" v="3854.0934157973193"/>
    <tag k="local_y" v="73835.92793632159"/>
  </node>
  <node id="166" visible="true" version="1" lat="0.00000000000" lon="0.00000000000">
    <tag k="ele" v="19.232263565063477"/>
    <tag k="local_x" v="3855.8577624358536"/>
    <tag k="local_y" v="73836.87177590503"/>
  </node>
  <node id="167" visible="true" version="1" lat="0.00000000000" lon="0.00000000000">
    <tag k="ele" v="19.189664840698242"/>
    <tag k="local_x" v="3857.6207002093906"/>
    <tag k="local_y" v="73837.8180656884"/>
  </node>
  <node id="168" visible="true" version="1" lat="0.00000000000" lon="0.00000000000">
    <tag k="ele" v="19.243423461914063"/>
    <tag k="local_x" v="3859.3967012203407"/>
    <tag k="local_y" v="73838.74163679808"/>
  </node>
  <node id="169" visible="true" version="1" lat="0.00000000000" lon="0.00000000000">
    <tag k="ele" v="19.195499420166016"/>
    <tag k="local_x" v="3860.9885985605624"/>
    <tag k="local_y" v="73839.57102963928"/>
  </node>
  <node id="170" visible="true" version="1" lat="0.00000000000" lon="0.00000000000">
    <tag k="ele" v="19.187286376953125"/>
    <tag k="local_x" v="3862.0954198573177"/>
    <tag k="local_y" v="73840.1373762193"/>
  </node>
  <node id="171" visible="true" version="1" lat="0.00000000000" lon="0.00000000000">
    <tag k="ele" v="19.243730545043945"/>
    <tag k="local_x" v="3863.084303262661"/>
    <tag k="local_y" v="73840.63599432584"/>
  </node>
  <node id="172" visible="true" version="1" lat="0.00000000000" lon="0.00000000000">
    <tag k="ele" v="19.312294006347656"/>
    <tag k="local_x" v="3827.5503395338883"/>
    <tag k="local_y" v="73776.68768189315"/>
  </node>
  <node id="173" visible="true" version="1" lat="0.00000000000" lon="0.00000000000">
    <tag k="ele" v="19.303443908691406"/>
    <tag k="local_x" v="3826.450501723817"/>
    <tag k="local_y" v="73778.93462238317"/>
  </node>
  <node id="174" visible="true" version="1" lat="0.00000000000" lon="0.00000000000">
    <tag k="ele" v="19.29366683959961"/>
    <tag k="local_x" v="3825.7965968225867"/>
    <tag k="local_y" v="73780.28599977618"/>
  </node>
  <node id="175" visible="true" version="1" lat="0.00000000000" lon="0.00000000000">
    <tag k="ele" v="19.284404754638672"/>
    <tag k="local_x" v="3824.926606525867"/>
    <tag k="local_y" v="73782.08884499926"/>
  </node>
  <node id="176" visible="true" version="1" lat="0.00000000000" lon="0.00000000000">
    <tag k="ele" v="19.27471160888672"/>
    <tag k="local_x" v="3824.024303779936"/>
    <tag k="local_y" v="73783.87437998169"/>
  </node>
  <node id="177" visible="true" version="1" lat="0.00000000000" lon="0.00000000000">
    <tag k="ele" v="19.267131805419922"/>
    <tag k="local_x" v="3823.082372265738"/>
    <tag k="local_y" v="73785.63868526685"/>
  </node>
  <node id="178" visible="true" version="1" lat="0.00000000000" lon="0.00000000000">
    <tag k="ele" v="19.261634826660156"/>
    <tag k="local_x" v="3822.1397987446453"/>
    <tag k="local_y" v="73787.40264661971"/>
  </node>
  <node id="179" visible="true" version="1" lat="0.00000000000" lon="0.00000000000">
    <tag k="ele" v="19.253173828125"/>
    <tag k="local_x" v="3821.222479899386"/>
    <tag k="local_y" v="73789.18013726323"/>
  </node>
  <node id="180" visible="true" version="1" lat="0.00000000000" lon="0.00000000000">
    <tag k="ele" v="19.24204444885254"/>
    <tag k="local_x" v="3820.3427550081365"/>
    <tag k="local_y" v="73790.97776752495"/>
  </node>
  <node id="181" visible="true" version="1" lat="0.00000000000" lon="0.00000000000">
    <tag k="ele" v="19.22675323486328"/>
    <tag k="local_x" v="3819.49262494948"/>
    <tag k="local_y" v="73792.79125216126"/>
  </node>
  <node id="182" visible="true" version="1" lat="0.00000000000" lon="0.00000000000">
    <tag k="ele" v="19.21224021911621"/>
    <tag k="local_x" v="3818.62757271904"/>
    <tag k="local_y" v="73794.59674277701"/>
  </node>
  <node id="183" visible="true" version="1" lat="0.00000000000" lon="0.00000000000">
    <tag k="ele" v="19.197999954223633"/>
    <tag k="local_x" v="3817.7017505691874"/>
    <tag k="local_y" v="73796.36967807876"/>
  </node>
  <node id="184" visible="true" version="1" lat="0.00000000000" lon="0.00000000000">
    <tag k="ele" v="19.18629264831543"/>
    <tag k="local_x" v="3816.721589024554"/>
    <tag k="local_y" v="73798.11350299047"/>
  </node>
  <node id="185" visible="true" version="1" lat="0.00000000000" lon="0.00000000000">
    <tag k="ele" v="19.169572830200195"/>
    <tag k="local_x" v="3815.7264503804454"/>
    <tag k="local_y" v="73799.84930445603"/>
  </node>
  <node id="186" visible="true" version="1" lat="0.00000000000" lon="0.00000000000">
    <tag k="ele" v="19.15479278564453"/>
    <tag k="local_x" v="3814.75160443683"/>
    <tag k="local_y" v="73801.56632490338"/>
  </node>
  <node id="187" visible="true" version="1" lat="0.00000000000" lon="0.00000000000">
    <tag k="ele" v="19.145421981811523"/>
    <tag k="local_x" v="3814.032882253721"/>
    <tag k="local_y" v="73802.84591361784"/>
  </node>
  <node id="188" visible="true" version="1" lat="0.00000000000" lon="0.00000000000">
    <tag k="ele" v="19.129919052124023"/>
    <tag k="local_x" v="3812.9026110238633"/>
    <tag k="local_y" v="73804.87639876279"/>
  </node>
  <node id="189" visible="true" version="1" lat="0.00000000000" lon="0.00000000000">
    <tag k="ele" v="19.312294006347656"/>
    <tag k="local_x" v="3830.6355194289895"/>
    <tag k="local_y" v="73778.34045683696"/>
  </node>
  <node id="190" visible="true" version="1" lat="0.00000000000" lon="0.00000000000">
    <tag k="ele" v="19.303443908691406"/>
    <tag k="local_x" v="3829.5356816189174"/>
    <tag k="local_y" v="73780.58739732698"/>
  </node>
  <node id="191" visible="true" version="1" lat="0.00000000000" lon="0.00000000000">
    <tag k="ele" v="19.29366683959961"/>
    <tag k="local_x" v="3828.8817767176865"/>
    <tag k="local_y" v="73781.93877472"/>
  </node>
  <node id="192" visible="true" version="1" lat="0.00000000000" lon="0.00000000000">
    <tag k="ele" v="19.284404754638672"/>
    <tag k="local_x" v="3828.0117864209647"/>
    <tag k="local_y" v="73783.74161994307"/>
  </node>
  <node id="193" visible="true" version="1" lat="0.00000000000" lon="0.00000000000">
    <tag k="ele" v="19.27471160888672"/>
    <tag k="local_x" v="3827.10948367504"/>
    <tag k="local_y" v="73785.52715492548"/>
  </node>
  <node id="194" visible="true" version="1" lat="0.00000000000" lon="0.00000000000">
    <tag k="ele" v="19.267131805419922"/>
    <tag k="local_x" v="3826.1675521608427"/>
    <tag k="local_y" v="73787.29146021065"/>
  </node>
  <node id="195" visible="true" version="1" lat="0.00000000000" lon="0.00000000000">
    <tag k="ele" v="19.261634826660156"/>
    <tag k="local_x" v="3825.224978639743"/>
    <tag k="local_y" v="73789.05542156352"/>
  </node>
  <node id="196" visible="true" version="1" lat="0.00000000000" lon="0.00000000000">
    <tag k="ele" v="19.253173828125"/>
    <tag k="local_x" v="3824.3076597944905"/>
    <tag k="local_y" v="73790.83291220703"/>
  </node>
  <node id="197" visible="true" version="1" lat="0.00000000000" lon="0.00000000000">
    <tag k="ele" v="19.24204444885254"/>
    <tag k="local_x" v="3823.4279349032354"/>
    <tag k="local_y" v="73792.63054246876"/>
  </node>
  <node id="198" visible="true" version="1" lat="0.00000000000" lon="0.00000000000">
    <tag k="ele" v="19.22675323486328"/>
    <tag k="local_x" v="3822.577804844579"/>
    <tag k="local_y" v="73794.44402710507"/>
  </node>
  <node id="199" visible="true" version="1" lat="0.00000000000" lon="0.00000000000">
    <tag k="ele" v="19.21224021911621"/>
    <tag k="local_x" v="3821.7127526141394"/>
    <tag k="local_y" v="73796.24951772082"/>
  </node>
  <node id="200" visible="true" version="1" lat="0.00000000000" lon="0.00000000000">
    <tag k="ele" v="19.197999954223633"/>
    <tag k="local_x" v="3820.7869304642854"/>
    <tag k="local_y" v="73798.02245302257"/>
  </node>
  <node id="201" visible="true" version="1" lat="0.00000000000" lon="0.00000000000">
    <tag k="ele" v="19.18629264831543"/>
    <tag k="local_x" v="3819.8067689196573"/>
    <tag k="local_y" v="73799.76627793426"/>
  </node>
  <node id="202" visible="true" version="1" lat="0.00000000000" lon="0.00000000000">
    <tag k="ele" v="19.169572830200195"/>
    <tag k="local_x" v="3818.811630275548"/>
    <tag k="local_y" v="73801.50207939983"/>
  </node>
  <node id="203" visible="true" version="1" lat="0.00000000000" lon="0.00000000000">
    <tag k="ele" v="19.15479278564453"/>
    <tag k="local_x" v="3817.836784331932"/>
    <tag k="local_y" v="73803.21909984718"/>
  </node>
  <node id="204" visible="true" version="1" lat="0.00000000000" lon="0.00000000000">
    <tag k="ele" v="19.145421981811523"/>
    <tag k="local_x" v="3817.1180621488234"/>
    <tag k="local_y" v="73804.49868856165"/>
  </node>
  <node id="205" visible="true" version="1" lat="0.00000000000" lon="0.00000000000">
    <tag k="ele" v="19.129919052124023"/>
    <tag k="local_x" v="3815.987790918959"/>
    <tag k="local_y" v="73806.5291737066"/>
  </node>
  <node id="206" visible="true" version="1" lat="0.00000000000" lon="0.00000000000">
    <tag k="ele" v="19.604000091552734"/>
    <tag k="local_x" v="3833.726406960922"/>
    <tag k="local_y" v="73779.99628944334"/>
  </node>
  <node id="207" visible="true" version="1" lat="0.00000000000" lon="0.00000000000">
    <tag k="ele" v="19.589200973510742"/>
    <tag k="local_x" v="3832.582527122307"/>
    <tag k="local_y" v="73782.21963598949"/>
  </node>
  <node id="208" visible="true" version="1" lat="0.00000000000" lon="0.00000000000">
    <tag k="ele" v="19.589200973510742"/>
    <tag k="local_x" v="3831.9148394488575"/>
    <tag k="local_y" v="73783.56362975454"/>
  </node>
  <node id="209" visible="true" version="1" lat="0.00000000000" lon="0.00000000000">
    <tag k="ele" v="19.284404754638672"/>
    <tag k="local_x" v="3831.0453933448625"/>
    <tag k="local_y" v="73785.36676650945"/>
  </node>
  <node id="210" visible="true" version="1" lat="0.00000000000" lon="0.00000000000">
    <tag k="ele" v="19.27471160888672"/>
    <tag k="local_x" v="3830.1487768829943"/>
    <tag k="local_y" v="73787.15534771544"/>
  </node>
  <node id="211" visible="true" version="1" lat="0.00000000000" lon="0.00000000000">
    <tag k="ele" v="19.593000411987305"/>
    <tag k="local_x" v="3829.2109956449895"/>
    <tag k="local_y" v="73788.92187636286"/>
  </node>
  <node id="212" visible="true" version="1" lat="0.00000000000" lon="0.00000000000">
    <tag k="ele" v="19.58366584777832"/>
    <tag k="local_x" v="3828.275829964834"/>
    <tag k="local_y" v="73790.68980620198"/>
  </node>
  <node id="213" visible="true" version="1" lat="0.00000000000" lon="0.00000000000">
    <tag k="ele" v="19.582101821899414"/>
    <tag k="local_x" v="3827.3764362730208"/>
    <tag k="local_y" v="73792.47689960623"/>
  </node>
  <node id="214" visible="true" version="1" lat="0.00000000000" lon="0.00000000000">
    <tag k="ele" v="19.612796783447266"/>
    <tag k="local_x" v="3826.5260699516048"/>
    <tag k="local_y" v="73794.29025767324"/>
  </node>
  <node id="215" visible="true" version="1" lat="0.00000000000" lon="0.00000000000">
    <tag k="ele" v="19.22675323486328"/>
    <tag k="local_x" v="3825.6730362010685"/>
    <tag k="local_y" v="73796.10218676034"/>
  </node>
  <node id="216" visible="true" version="1" lat="0.00000000000" lon="0.00000000000">
    <tag k="ele" v="19.21224021911621"/>
    <tag k="local_x" v="3824.7829095306706"/>
    <tag k="local_y" v="73797.89424464038"/>
  </node>
  <node id="217" visible="true" version="1" lat="0.00000000000" lon="0.00000000000">
    <tag k="ele" v="19.197999954223633"/>
    <tag k="local_x" v="3823.817420841048"/>
    <tag k="local_y" v="73799.64593001013"/>
  </node>
  <node id="218" visible="true" version="1" lat="0.00000000000" lon="0.00000000000">
    <tag k="ele" v="19.18629264831543"/>
    <tag k="local_x" v="3822.7943350497962"/>
    <tag k="local_y" v="73801.36675978969"/>
  </node>
  <node id="219" visible="true" version="1" lat="0.00000000000" lon="0.00000000000">
    <tag k="ele" v="19.400999069213867"/>
    <tag k="local_x" v="3821.7780212247026"/>
    <tag k="local_y" v="73803.09121740829"/>
  </node>
  <node id="220" visible="true" version="1" lat="0.00000000000" lon="0.00000000000">
    <tag k="ele" v="19.437610626220703"/>
    <tag k="local_x" v="3820.8515913248907"/>
    <tag k="local_y" v="73804.83417502198"/>
  </node>
  <node id="221" visible="true" version="1" lat="0.00000000000" lon="0.00000000000">
    <tag k="ele" v="19.408000946044922"/>
    <tag k="local_x" v="3820.1727410197896"/>
    <tag k="local_y" v="73806.13512367109"/>
  </node>
  <node id="222" visible="true" version="1" lat="0.00000000000" lon="0.00000000000">
    <tag k="ele" v="19.404333114624023"/>
    <tag k="local_x" v="3819.0983726625404"/>
    <tag k="local_y" v="73808.19555678351"/>
  </node>
  <way id="1" visible="true" version="1">
    <nd ref="16"/>
    <nd ref="17"/>
    <nd ref="18"/>
    <nd ref="19"/>
    <nd ref="20"/>
    <nd ref="21"/>
    <nd ref="22"/>
    <nd ref="23"/>
    <nd ref="24"/>
    <nd ref="25"/>
    <nd ref="26"/>
    <nd ref="27"/>
    <nd ref="28"/>
    <nd ref="29"/>
    <nd ref="30"/>
    <nd ref="31"/>
    <nd ref="32"/>
    <nd ref="33"/>
    <nd ref="34"/>
    <nd ref="35"/>
    <nd ref="36"/>
    <nd ref="37"/>
    <nd ref="38"/>
    <nd ref="39"/>
    <nd ref="40"/>
    <nd ref="41"/>
    <nd ref="42"/>
    <tag k="subtype" v="solid"/>
    <tag k="type" v="line_thin"/>
  </way>
  <way id="2" visible="true" version="1">
    <nd ref="43"/>
    <nd ref="44"/>
    <nd ref="45"/>
    <nd ref="46"/>
    <nd ref="47"/>
    <nd ref="48"/>
    <nd ref="49"/>
    <nd ref="50"/>
    <nd ref="51"/>
    <nd ref="52"/>
    <nd ref="53"/>
    <nd ref="54"/>
    <nd ref="55"/>
    <nd ref="56"/>
    <nd ref="57"/>
    <nd ref="58"/>
    <nd ref="59"/>
    <nd ref="60"/>
    <nd ref="61"/>
    <nd ref="62"/>
    <nd ref="63"/>
    <nd ref="64"/>
    <nd ref="65"/>
    <nd ref="66"/>
    <nd ref="67"/>
    <nd ref="68"/>
    <nd ref="69"/>
    <tag k="subtype" v="solid"/>
    <tag k="type" v="line_thin"/>
  </way>
  <way id="3" visible="true" version="1">
    <nd ref="70"/>
    <nd ref="71"/>
    <nd ref="72"/>
    <nd ref="73"/>
    <nd ref="74"/>
    <nd ref="75"/>
    <nd ref="76"/>
    <nd ref="77"/>
    <nd ref="78"/>
    <nd ref="79"/>
    <nd ref="80"/>
    <nd ref="81"/>
    <nd ref="82"/>
    <nd ref="83"/>
    <nd ref="84"/>
    <nd ref="85"/>
    <nd ref="86"/>
    <nd ref="87"/>
    <nd ref="88"/>
    <nd ref="89"/>
    <nd ref="90"/>
    <nd ref="91"/>
    <nd ref="92"/>
    <nd ref="93"/>
    <nd ref="94"/>
    <nd ref="95"/>
    <nd ref="96"/>
    <tag k="subtype" v="solid"/>
    <tag k="type" v="line_thin"/>
  </way>
  <way id="6" visible="true" version="1">
    <nd ref="97"/>
    <nd ref="98"/>
    <nd ref="99"/>
    <nd ref="100"/>
    <nd ref="101"/>
    <nd ref="102"/>
    <nd ref="103"/>
    <nd ref="104"/>
    <nd ref="105"/>
    <nd ref="106"/>
    <nd ref="107"/>
    <nd ref="108"/>
    <nd ref="109"/>
    <nd ref="110"/>
    <nd ref="111"/>
    <nd ref="112"/>
    <nd ref="113"/>
    <nd ref="114"/>
    <nd ref="115"/>
    <nd ref="116"/>
    <nd ref="117"/>
    <nd ref="118"/>
    <nd ref="119"/>
    <nd ref="120"/>
    <nd ref="121"/>
    <tag k="subtype" v="solid"/>
    <tag k="type" v="line_thin"/>
  </way>
  <way id="7" visible="true" version="1">
    <nd ref="122"/>
    <nd ref="123"/>
    <nd ref="124"/>
    <nd ref="125"/>
    <nd ref="126"/>
    <nd ref="127"/>
    <nd ref="128"/>
    <nd ref="129"/>
    <nd ref="130"/>
    <nd ref="131"/>
    <nd ref="132"/>
    <nd ref="133"/>
    <nd ref="134"/>
    <nd ref="135"/>
    <nd ref="136"/>
    <nd ref="137"/>
    <nd ref="138"/>
    <nd ref="139"/>
    <nd ref="140"/>
    <nd ref="141"/>
    <nd ref="142"/>
    <nd ref="143"/>
    <nd ref="144"/>
    <nd ref="145"/>
    <nd ref="146"/>
    <tag k="subtype" v="solid"/>
    <tag k="type" v="line_thin"/>
  </way>
  <way id="8" visible="true" version="1">
    <nd ref="147"/>
    <nd ref="148"/>
    <nd ref="149"/>
    <nd ref="150"/>
    <nd ref="151"/>
    <nd ref="152"/>
    <nd ref="153"/>
    <nd ref="154"/>
    <nd ref="155"/>
    <nd ref="156"/>
    <nd ref="157"/>
    <nd ref="158"/>
    <nd ref="159"/>
    <nd ref="160"/>
    <nd ref="161"/>
    <nd ref="162"/>
    <nd ref="163"/>
    <nd ref="164"/>
    <nd ref="165"/>
    <nd ref="166"/>
    <nd ref="167"/>
    <nd ref="168"/>
    <nd ref="169"/>
    <nd ref="170"/>
    <nd ref="171"/>
    <tag k="subtype" v="solid"/>
    <tag k="type" v="line_thin"/>
  </way>
  <way id="11" visible="true" version="1">
    <nd ref="172"/>
    <nd ref="173"/>
    <nd ref="174"/>
    <nd ref="175"/>
    <nd ref="176"/>
    <nd ref="177"/>
    <nd ref="178"/>
    <nd ref="179"/>
    <nd ref="180"/>
    <nd ref="181"/>
    <nd ref="182"/>
    <nd ref="183"/>
    <nd ref="184"/>
    <nd ref="185"/>
    <nd ref="186"/>
    <nd ref="187"/>
    <nd ref="188"/>
    <tag k="subtype" v="solid"/>
    <tag k="type" v="line_thin"/>
  </way>
  <way id="12" visible="true" version="1">
    <nd ref="189"/>
    <nd ref="190"/>
    <nd ref="191"/>
    <nd ref="192"/>
    <nd ref="193"/>
    <nd ref="194"/>
    <nd ref="195"/>
    <nd ref="196"/>
    <nd ref="197"/>
    <nd ref="198"/>
    <nd ref="199"/>
    <nd ref="200"/>
    <nd ref="201"/>
    <nd ref="202"/>
    <nd ref="203"/>
    <nd ref="204"/>
    <nd ref="205"/>
    <tag k="subtype" v="solid"/>
    <tag k="type" v="line_thin"/>
  </way>
  <way id="13" visible="true" version="1">
    <nd ref="206"/>
    <nd ref="207"/>
    <nd ref="208"/>
    <nd ref="209"/>
    <nd ref="210"/>
    <nd ref="211"/>
    <nd ref="212"/>
    <nd ref="213"/>
    <nd ref="214"/>
    <nd ref="215"/>
    <nd ref="216"/>
    <nd ref="217"/>
    <nd ref="218"/>
    <nd ref="219"/>
    <nd ref="220"/>
    <nd ref="221"/>
    <nd ref="222"/>
    <tag k="subtype" v="solid"/>
    <tag k="type" v="line_thin"/>
  </way>
  <relation id="4" visible="true" version="1">
    <member type="way" ref="1" role="left"/>
    <member type="way" ref="2" role="right"/>
    <tag k="location" v="urban"/>
    <tag k="one_way" v="yes"/>
    <tag k="participant:vehicle" v="yes"/>
    <tag k="speed_limit" v="40"/>
    <tag k="subtype" v="road"/>
    <tag k="type" v="lanelet"/>
  </relation>
  <relation id="5" visible="true" version="1">
    <member type="way" ref="3" role="left"/>
    <member type="way" ref="2" role="right"/>
    <tag k="location" v="urban"/>
    <tag k="one_way" v="yes"/>
    <tag k="participant:vehicle" v="yes"/>
    <tag k="speed_limit" v="40"/>
    <tag k="subtype" v="road"/>
    <tag k="type" v="lanelet"/>
  </relation>
  <relation id="9" visible="true" version="1">
    <member type="way" ref="6" role="left"/>
    <member type="way" ref="7" role="right"/>
    <tag k="location" v="urban"/>
    <tag k="one_way" v="yes"/>
    <tag k="participant:vehicle" v="yes"/>
    <tag k="speed_limit" v="40"/>
    <tag k="subtype" v="road"/>
    <tag k="type" v="lanelet"/>
  </relation>
  <relation id="10" visible="true" version="1">
    <member type="way" ref="8" role="left"/>
    <member type="way" ref="7" role="right"/>
    <tag k="location" v="urban"/>
    <tag k="one_way" v="yes"/>
    <tag k="participant:vehicle" v="yes"/>
    <tag k="speed_limit" v="40"/>
    <tag k="subtype" v="road"/>
    <tag k="type" v="lanelet"/>
  </relation>
  <relation id="14" visible="true" version="1">
    <member type="way" ref="11" role="left"/>
    <member type="way" ref="12" role="right"/>
    <tag k="location" v="urban"/>
    <tag k="one_way" v="yes"/>
    <tag k="participant:vehicle" v="yes"/>
    <tag k="speed_limit" v="40"/>
    <tag k="subtype" v="road"/>
    <tag k="type" v="lanelet"/>
  </relation>
  <relation id="15" visible="true" version="1">
    <member type="way" ref="13" role="left"/>
    <member type="way" ref="12" role="right"/>
    <tag k="location" v="urban"/>
    <tag k="one_way" v="yes"/>
    <tag k="participant:vehicle" v="yes"/>
    <tag k="speed_limit" v="40"/>
    <tag k="subtype" v="road"/>
    <tag k="type" v="lanelet"/>
  </relation>
</osm>
