<?xml version="1.0" encoding="UTF-8"?>
<osm version="0.6" upload="false" generator="vectormap-rs 0.1.0">
  <node id="43" visible="true" version="1" lat="0.00000000000" lon="0.00000000000">
    <tag k="ele" v="-0.996743385252184"/>
    <tag k="local_x" v="5.828958205438085"/>
    <tag k="local_y" v="6.754928769082147"/>
  </node>
  <node id="44" visible="true" version="1" lat="0.00000000000" lon="0.00000000000">
    <tag k="ele" v="-1.2456997341215978"/>
    <tag k="local_x" v="7.8585793243230055"/>
    <tag k="local_y" v="7.898678271452621"/>
  </node>
  <node id="45" visible="true" version="1" lat="0.00000000000" lon="0.00000000000">
    <tag k="ele" v="-1.3783412247128974"/>
    <tag k="local_x" v="9.337716437832679"/>
    <tag k="local_y" v="9.981346723171953"/>
  </node>
  <node id="46" visible="true" version="1" lat="0.00000000000" lon="0.00000000000">
    <tag k="ele" v="-1.616203839527324"/>
    <tag k="local_x" v="11.771981573129914"/>
    <tag k="local_y" v="11.166798643178938"/>
  </node>
  <node id="47" visible="true" version="1" lat="0.00000000000" lon="0.00000000000">
    <tag k="ele" v="-1.7793816425566669"/>
    <tag k="local_x" v="14.39611537982164"/>
    <tag k="local_y" v="12.996737785107383"/>
  </node>
  <node id="48" visible="true" version="1" lat="0.00000000000" lon="0.00000000000">
    <tag k="ele" v="-1.2085152516113995"/>
    <tag k="local_x" v="9.44870278954076"/>
    <tag k="local_y" v="4.08145740288812"/>
  </node>
  <node id="49" visible="true" version="1" lat="0.00000000000" lon="0.00000000000">
    <tag k="ele" v="-1.2537328459808843"/>
    <tag k="local_x" v="10.1363383483237"/>
    <tag k="local_y" v="5.946291570877296"/>
  </node>
  <node id="50" visible="true" version="1" lat="0.00000000000" lon="0.00000000000">
    <tag k="ele" v="-1.42514309166096"/>
    <tag k="local_x" v="10.76857314169163"/>
    <tag k="local_y" v="7.931310359342789"/>
  </node>
  <node id="51" visible="true" version="1" lat="0.00000000000" lon="0.00000000000">
    <tag k="ele" v="-1.7181874295234525"/>
    <tag k="local_x" v="12.906286805465466"/>
    <tag k="local_y" v="7.330999946701738"/>
  </node>
  <node id="52" visible="true" version="1" lat="0.00000000000" lon="0.00000000000">
    <tag k="ele" v="-1.800254867729563"/>
    <tag k="local_x" v="14.377540172848683"/>
    <tag k="local_y" v="8.496776122861146"/>
  </node>
  <node id="53" visible="true" version="1" lat="0.00000000000" lon="0.00000000000">
    <tag k="ele" v="-2.115945369095865"/>
    <tag k="local_x" v="12.216302721892239"/>
    <tag k="local_y" v="-11.352241161067049"/>
  </node>
  <node id="54" visible="true" version="1" lat="0.00000000000" lon="0.00000000000">
    <tag k="ele" v="-2.117038531961575"/>
    <tag k="local_x" v="11.417650150121718"/>
    <tag k="local_y" v="-13.273619361413397"/>
  </node>
  <node id="55" visible="true" version="1" lat="0.00000000000" lon="0.00000000000">
    <tag k="ele" v="-2.0636751988900968"/>
    <tag k="local_x" v="8.987055295403861"/>
    <tag k="local_y" v="-10.002440783782253"/>
  </node>
  <node id="56" visible="true" version="1" lat="0.00000000000" lon="0.00000000000">
    <tag k="ele" v="-2.0636751988900968"/>
    <tag k="local_x" v="8.232828332428154"/>
    <tag k="local_y" v="-11.822099471937863"/>
  </node>
  <node id="57" visible="true" version="1" lat="0.00000000000" lon="0.00000000000">
    <tag k="ele" v="-1.970343331878411"/>
    <tag k="local_x" v="6.323254779269767"/>
    <tag k="local_y" v="-24.097910874711342"/>
  </node>
  <node id="58" visible="true" version="1" lat="0.00000000000" lon="0.00000000000">
    <tag k="ele" v="-2.0189755285969"/>
    <tag k="local_x" v="5.37297795955382"/>
    <tag k="local_y" v="-25.8222167528591"/>
  </node>
  <node id="59" visible="true" version="1" lat="0.00000000000" lon="0.00000000000">
    <tag k="ele" v="-2.0798447693917663"/>
    <tag k="local_x" v="4.067460668681809"/>
    <tag k="local_y" v="-23.020231455479127"/>
  </node>
  <node id="60" visible="true" version="1" lat="0.00000000000" lon="0.00000000000">
    <tag k="ele" v="-1.9406847420753943"/>
    <tag k="local_x" v="2.665081195086092"/>
    <tag k="local_y" v="-24.53097893085062"/>
  </node>
  <node id="61" visible="true" version="1" lat="0.00000000000" lon="0.00000000000">
    <tag k="ele" v="-2.045996862003014"/>
    <tag k="local_x" v="3.4594414438232297"/>
    <tag k="local_y" v="-29.278166666840868"/>
  </node>
  <node id="62" visible="true" version="1" lat="0.00000000000" lon="0.00000000000">
    <tag k="ele" v="-2.057316151332865"/>
    <tag k="local_x" v="2.5038169003591744"/>
    <tag k="local_y" v="-31.08727553518706"/>
  </node>
  <node id="63" visible="true" version="1" lat="0.00000000000" lon="0.00000000000">
    <tag k="ele" v="-2.017189579182053"/>
    <tag k="local_x" v="2.0605908763499454"/>
    <tag k="local_y" v="-32.98297366661891"/>
  </node>
  <node id="64" visible="true" version="1" lat="0.00000000000" lon="0.00000000000">
    <tag k="ele" v="-1.9350724534290873"/>
    <tag k="local_x" v="0.4461550979361584"/>
    <tag k="local_y" v="-34.41404548220965"/>
  </node>
  <node id="65" visible="true" version="1" lat="0.00000000000" lon="0.00000000000">
    <tag k="ele" v="-1.9878613561749643"/>
    <tag k="local_x" v="0.059189286582384204"/>
    <tag k="local_y" v="-36.45500279015041"/>
  </node>
  <node id="66" visible="true" version="1" lat="0.00000000000" lon="0.00000000000">
    <tag k="ele" v="-1.878353738076523"/>
    <tag k="local_x" v="0.2770441018177121"/>
    <tag k="local_y" v="-27.82133889472907"/>
  </node>
  <node id="67" visible="true" version="1" lat="0.00000000000" lon="0.00000000000">
    <tag k="ele" v="-1.9473511848528322"/>
    <tag k="local_x" v="-0.1469404741357132"/>
    <tag k="local_y" v="-29.68246759758101"/>
  </node>
  <node id="68" visible="true" version="1" lat="0.00000000000" lon="0.00000000000">
    <tag k="ele" v="-1.9412125625175427"/>
    <tag k="local_x" v="-1.1262049108905836"/>
    <tag k="local_y" v="-31.535792748272478"/>
  </node>
  <node id="69" visible="true" version="1" lat="0.00000000000" lon="0.00000000000">
    <tag k="ele" v="-1.9367516714061397"/>
    <tag k="local_x" v="-1.8586157153343064"/>
    <tag k="local_y" v="-33.445525220007255"/>
  </node>
  <node id="70" visible="true" version="1" lat="0.00000000000" lon="0.00000000000">
    <tag k="ele" v="-1.9361257573012522"/>
    <tag k="local_x" v="-2.665354174672817"/>
    <tag k="local_y" v="-35.19927076151869"/>
  </node>
  <node id="71" visible="true" version="1" lat="0.00000000000" lon="0.00000000000">
    <tag k="ele" v="-1.9638494598817202"/>
    <tag k="local_x" v="-2.3772495126792474"/>
    <tag k="local_y" v="-41.949841837919365"/>
  </node>
  <node id="72" visible="true" version="1" lat="0.00000000000" lon="0.00000000000">
    <tag k="ele" v="-2.0162382482997163"/>
    <tag k="local_x" v="-3.272984455130198"/>
    <tag k="local_y" v="-43.6901070074487"/>
  </node>
  <node id="73" visible="true" version="1" lat="0.00000000000" lon="0.00000000000">
    <tag k="ele" v="-2.008160166291478"/>
    <tag k="local_x" v="-3.9548451380122556"/>
    <tag k="local_y" v="-45.477006908945036"/>
  </node>
  <node id="74" visible="true" version="1" lat="0.00000000000" lon="0.00000000000">
    <tag k="ele" v="-2.008160166291478"/>
    <tag k="local_x" v="-4.815173928594412"/>
    <tag k="local_y" v="-47.36151364540642"/>
  </node>
  <node id="75" visible="true" version="1" lat="0.00000000000" lon="0.00000000000">
    <tag k="ele" v="-1.977896804001341"/>
    <tag k="local_x" v="-5.818468505125354"/>
    <tag k="local_y" v="-49.17686763642805"/>
  </node>
  <node id="76" visible="true" version="1" lat="0.00000000000" lon="0.00000000000">
    <tag k="ele" v="-1.9628772472940863"/>
    <tag k="local_x" v="-6.397105537010292"/>
    <tag k="local_y" v="-51.06841258896683"/>
  </node>
  <node id="77" visible="true" version="1" lat="0.00000000000" lon="0.00000000000">
    <tag k="ele" v="-1.9628772472940863"/>
    <tag k="local_x" v="-7.205936694932256"/>
    <tag k="local_y" v="-52.78705120030886"/>
  </node>
  <node id="78" visible="true" version="1" lat="0.00000000000" lon="0.00000000000">
    <tag k="ele" v="-1.9504538310498385"/>
    <tag k="local_x" v="-8.089347671312925"/>
    <tag k="local_y" v="-54.53883811447221"/>
  </node>
  <node id="79" visible="true" version="1" lat="0.00000000000" lon="0.00000000000">
    <tag k="ele" v="-1.91680581374425"/>
    <tag k="local_x" v="-8.849978305828197"/>
    <tag k="local_y" v="-56.32262780732384"/>
  </node>
  <node id="80" visible="true" version="1" lat="0.00000000000" lon="0.00000000000">
    <tag k="ele" v="-1.9056141327499152"/>
    <tag k="local_x" v="-9.602850362237199"/>
    <tag k="local_y" v="-58.10772082713602"/>
  </node>
  <node id="81" visible="true" version="1" lat="0.00000000000" lon="0.00000000000">
    <tag k="ele" v="-1.8786637611535975"/>
    <tag k="local_x" v="-10.287382202275069"/>
    <tag k="local_y" v="-60.07655558668988"/>
  </node>
  <node id="82" visible="true" version="1" lat="0.00000000000" lon="0.00000000000">
    <tag k="ele" v="-1.8597859703107125"/>
    <tag k="local_x" v="-11.305253751155119"/>
    <tag k="local_y" v="-61.959411149750274"/>
  </node>
  <node id="83" visible="true" version="1" lat="0.00000000000" lon="0.00000000000">
    <tag k="ele" v="-1.7495079013782382"/>
    <tag k="local_x" v="-11.863505810164204"/>
    <tag k="local_y" v="-63.96166902815058"/>
  </node>
  <node id="84" visible="true" version="1" lat="0.00000000000" lon="0.00000000000">
    <tag k="ele" v="-1.8789639215237808"/>
    <tag k="local_x" v="-13.229374293731864"/>
    <tag k="local_y" v="-65.33952836484066"/>
  </node>
  <node id="85" visible="true" version="1" lat="0.00000000000" lon="0.00000000000">
    <tag k="ele" v="-1.8179566314548816"/>
    <tag k="local_x" v="-13.431744038187283"/>
    <tag k="local_y" v="-67.26248508378072"/>
  </node>
  <node id="86" visible="true" version="1" lat="0.00000000000" lon="0.00000000000">
    <tag k="ele" v="-1.8894033555584642"/>
    <tag k="local_x" v="-5.535021919059196"/>
    <tag k="local_y" v="-40.440380533511274"/>
  </node>
  <node id="87" visible="true" version="1" lat="0.00000000000" lon="0.00000000000">
    <tag k="ele" v="-1.9139643169365068"/>
    <tag k="local_x" v="-6.011522932779519"/>
    <tag k="local_y" v="-42.465195987645984"/>
  </node>
  <node id="88" visible="true" version="1" lat="0.00000000000" lon="0.00000000000">
    <tag k="ele" v="-1.8921091033642494"/>
    <tag k="local_x" v="-7.182636226976812"/>
    <tag k="local_y" v="-44.12372767464008"/>
  </node>
  <node id="89" visible="true" version="1" lat="0.00000000000" lon="0.00000000000">
    <tag k="ele" v="-1.8921091033642494"/>
    <tag k="local_x" v="-7.940765172123012"/>
    <tag k="local_y" v="-45.786496382524085"/>
  </node>
  <node id="90" visible="true" version="1" lat="0.00000000000" lon="0.00000000000">
    <tag k="ele" v="-1.9177368462338331"/>
    <tag k="local_x" v="-8.409765020330186"/>
    <tag k="local_y" v="-47.66518566911902"/>
  </node>
  <node id="91" visible="true" version="1" lat="0.00000000000" lon="0.00000000000">
    <tag k="ele" v="-1.8127387135737625"/>
    <tag k="local_x" v="-9.474807243842179"/>
    <tag k="local_y" v="-49.40175359452193"/>
  </node>
  <node id="92" visible="true" version="1" lat="0.00000000000" lon="0.00000000000">
    <tag k="ele" v="-1.8127387135737625"/>
    <tag k="local_x" v="-10.351360464774206"/>
    <tag k="local_y" v="-51.25202373862836"/>
  </node>
  <node id="93" visible="true" version="1" lat="0.00000000000" lon="0.00000000000">
    <tag k="ele" v="-1.7695866718914846"/>
    <tag k="local_x" v="-11.263277375947656"/>
    <tag k="local_y" v="-53.06365330230891"/>
  </node>
  <node id="94" visible="true" version="1" lat="0.00000000000" lon="0.00000000000">
    <tag k="ele" v="-1.7645351009587127"/>
    <tag k="local_x" v="-12.072234156954524"/>
    <tag k="local_y" v="-54.9562211219325"/>
  </node>
  <node id="95" visible="true" version="1" lat="0.00000000000" lon="0.00000000000">
    <tag k="ele" v="-1.7878172351647987"/>
    <tag k="local_x" v="-12.871749088483618"/>
    <tag k="local_y" v="-56.8570005876162"/>
  </node>
  <node id="96" visible="true" version="1" lat="0.00000000000" lon="0.00000000000">
    <tag k="ele" v="-1.8135315600317392"/>
    <tag k="local_x" v="-13.490383723987748"/>
    <tag k="local_y" v="-58.66560510849929"/>
  </node>
  <node id="97" visible="true" version="1" lat="0.00000000000" lon="0.00000000000">
    <tag k="ele" v="-1.8070362952827435"/>
    <tag k="local_x" v="-14.365515639864453"/>
    <tag k="local_y" v="-60.26094208246845"/>
  </node>
  <node id="98" visible="true" version="1" lat="0.00000000000" lon="0.00000000000">
    <tag k="ele" v="-1.7333006698963225"/>
    <tag k="local_x" v="-15.342060891282955"/>
    <tag k="local_y" v="-61.98691472757977"/>
  </node>
  <node id="99" visible="true" version="1" lat="0.00000000000" lon="0.00000000000">
    <tag k="ele" v="-1.7967557709995956"/>
    <tag k="local_x" v="-15.48757450077302"/>
    <tag k="local_y" v="-64.2668998993787"/>
  </node>
  <node id="100" visible="true" version="1" lat="0.00000000000" lon="0.00000000000">
    <tag k="ele" v="-1.6600386656712787"/>
    <tag k="local_x" v="-17.163190085590074"/>
    <tag k="local_y" v="-65.82154428162329"/>
  </node>
  <node id="101" visible="true" version="1" lat="0.00000000000" lon="0.00000000000">
    <tag k="ele" v="-1.968273770467884"/>
    <tag k="local_x" v="-13.54378258904141"/>
    <tag k="local_y" v="-71.61261694878841"/>
  </node>
  <node id="102" visible="true" version="1" lat="0.00000000000" lon="0.00000000000">
    <tag k="ele" v="-1.956177467531053"/>
    <tag k="local_x" v="-13.804446900622594"/>
    <tag k="local_y" v="-72.9442209440671"/>
  </node>
  <node id="103" visible="true" version="1" lat="0.00000000000" lon="0.00000000000">
    <tag k="ele" v="-1.8479187938980004"/>
    <tag k="local_x" v="-12.740613879479799"/>
    <tag k="local_y" v="-73.0938165654105"/>
  </node>
  <node id="104" visible="true" version="1" lat="0.00000000000" lon="0.00000000000">
    <tag k="ele" v="-2.0415453878086987"/>
    <tag k="local_x" v="-11.625870853555286"/>
    <tag k="local_y" v="-74.65026436768896"/>
  </node>
  <node id="105" visible="true" version="1" lat="0.00000000000" lon="0.00000000000">
    <tag k="ele" v="-1.7004076114943112"/>
    <tag k="local_x" v="-20.854833386251702"/>
    <tag k="local_y" v="-73.28549956290418"/>
  </node>
  <node id="106" visible="true" version="1" lat="0.00000000000" lon="0.00000000000">
    <tag k="ele" v="-1.832854575476865"/>
    <tag k="local_x" v="-18.028937465521178"/>
    <tag k="local_y" v="-75.61885726833304"/>
  </node>
  <node id="107" visible="true" version="1" lat="0.00000000000" lon="0.00000000000">
    <tag k="ele" v="-1.916134783668311"/>
    <tag k="local_x" v="-14.861836526359284"/>
    <tag k="local_y" v="-76.48504266851327"/>
  </node>
  <node id="108" visible="true" version="1" lat="0.00000000000" lon="0.00000000000">
    <tag k="ele" v="-1.9784741063651117"/>
    <tag k="local_x" v="-12.901280782751334"/>
    <tag k="local_y" v="-77.36565191139393"/>
  </node>
  <node id="109" visible="true" version="1" lat="0.00000000000" lon="0.00000000000">
    <tag k="ele" v="-2.2559740891013087"/>
    <tag k="local_x" v="-6.535498149816321"/>
    <tag k="local_y" v="-77.59902089162836"/>
  </node>
  <node id="110" visible="true" version="1" lat="0.00000000000" lon="0.00000000000">
    <tag k="ele" v="-2.190982900634797"/>
    <tag k="local_x" v="-4.7556440775386895"/>
    <tag k="local_y" v="-77.60999540833099"/>
  </node>
  <node id="111" visible="true" version="1" lat="0.00000000000" lon="0.00000000000">
    <tag k="ele" v="-2.208785030135214"/>
    <tag k="local_x" v="-7.3598649903415625"/>
    <tag k="local_y" v="-79.95919446834733"/>
  </node>
  <node id="112" visible="true" version="1" lat="0.00000000000" lon="0.00000000000">
    <tag k="ele" v="-2.3181520695591264"/>
    <tag k="local_x" v="-5.303581927154425"/>
    <tag k="local_y" v="-81.06683849313517"/>
  </node>
  <node id="113" visible="true" version="1" lat="0.00000000000" lon="0.00000000000">
    <tag k="ele" v="-2.4273675011546203"/>
    <tag k="local_x" v="-1.4570022069931872"/>
    <tag k="local_y" v="-77.8356745718622"/>
  </node>
  <node id="114" visible="true" version="1" lat="0.00000000000" lon="0.00000000000">
    <tag k="ele" v="-2.2843300547342107"/>
    <tag k="local_x" v="-0.4706751198592034"/>
    <tag k="local_y" v="-76.32948397265967"/>
  </node>
  <node id="115" visible="true" version="1" lat="0.00000000000" lon="0.00000000000">
    <tag k="ele" v="-2.408060600426923"/>
    <tag k="local_x" v="1.2536218954143479"/>
    <tag k="local_y" v="-76.13279098026717"/>
  </node>
  <node id="116" visible="true" version="1" lat="0.00000000000" lon="0.00000000000">
    <tag k="ele" v="-2.408060600426923"/>
    <tag k="local_x" v="2.123495714943857"/>
    <tag k="local_y" v="-74.66779759088564"/>
  </node>
  <node id="117" visible="true" version="1" lat="0.00000000000" lon="0.00000000000">
    <tag k="ele" v="-2.4069610096994274"/>
    <tag k="local_x" v="2.8317273384981334"/>
    <tag k="local_y" v="-72.89112014820451"/>
  </node>
  <node id="118" visible="true" version="1" lat="0.00000000000" lon="0.00000000000">
    <tag k="ele" v="-2.40136394961896"/>
    <tag k="local_x" v="3.641444853510059"/>
    <tag k="local_y" v="-71.02970531066521"/>
  </node>
  <node id="119" visible="true" version="1" lat="0.00000000000" lon="0.00000000000">
    <tag k="ele" v="-2.360603609924424"/>
    <tag k="local_x" v="4.48741639909832"/>
    <tag k="local_y" v="-69.19306401203502"/>
  </node>
  <node id="120" visible="true" version="1" lat="0.00000000000" lon="0.00000000000">
    <tag k="ele" v="-2.3611976002148602"/>
    <tag k="local_x" v="5.344401920928947"/>
    <tag k="local_y" v="-67.42306176572687"/>
  </node>
  <node id="121" visible="true" version="1" lat="0.00000000000" lon="0.00000000000">
    <tag k="ele" v="-2.4583956710925943"/>
    <tag k="local_x" v="5.611111700400824"/>
    <tag k="local_y" v="-65.40800147345286"/>
  </node>
  <node id="122" visible="true" version="1" lat="0.00000000000" lon="0.00000000000">
    <tag k="ele" v="-2.3908712918240353"/>
    <tag k="local_x" v="6.885181671426035"/>
    <tag k="local_y" v="-63.694787916840426"/>
  </node>
  <node id="123" visible="true" version="1" lat="0.00000000000" lon="0.00000000000">
    <tag k="ele" v="-2.3908712918240353"/>
    <tag k="local_x" v="7.844095470553049"/>
    <tag k="local_y" v="-61.93152547135375"/>
  </node>
  <node id="124" visible="true" version="1" lat="0.00000000000" lon="0.00000000000">
    <tag k="ele" v="-2.430200266488478"/>
    <tag k="local_x" v="9.086558043717298"/>
    <tag k="local_y" v="-60.34864201274025"/>
  </node>
  <node id="125" visible="true" version="1" lat="0.00000000000" lon="0.00000000000">
    <tag k="ele" v="-2.3909357634677755"/>
    <tag k="local_x" v="9.454124602560913"/>
    <tag k="local_y" v="-58.321183654012266"/>
  </node>
  <node id="126" visible="true" version="1" lat="0.00000000000" lon="0.00000000000">
    <tag k="ele" v="-2.4059281969129276"/>
    <tag k="local_x" v="10.268884915508512"/>
    <tag k="local_y" v="-56.490401103504105"/>
  </node>
  <node id="127" visible="true" version="1" lat="0.00000000000" lon="0.00000000000">
    <tag k="ele" v="-2.460283142403658"/>
    <tag k="local_x" v="10.638108531523569"/>
    <tag k="local_y" v="-54.49744675978623"/>
  </node>
  <node id="128" visible="true" version="1" lat="0.00000000000" lon="0.00000000000">
    <tag k="ele" v="-2.4845862284640283"/>
    <tag k="local_x" v="11.383324365921936"/>
    <tag k="local_y" v="-52.65487944134736"/>
  </node>
  <node id="129" visible="true" version="1" lat="0.00000000000" lon="0.00000000000">
    <tag k="ele" v="-2.4037399938682746"/>
    <tag k="local_x" v="12.679545256051027"/>
    <tag k="local_y" v="-50.97779168438907"/>
  </node>
  <node id="130" visible="true" version="1" lat="0.00000000000" lon="0.00000000000">
    <tag k="ele" v="-2.411986042636563"/>
    <tag k="local_x" v="13.605112452146573"/>
    <tag k="local_y" v="-49.141353230113374"/>
  </node>
  <node id="131" visible="true" version="1" lat="0.00000000000" lon="0.00000000000">
    <tag k="ele" v="-2.5312536353412605"/>
    <tag k="local_x" v="0.31514892669201866"/>
    <tag k="local_y" v="-83.56799350571247"/>
  </node>
  <node id="132" visible="true" version="1" lat="0.00000000000" lon="0.00000000000">
    <tag k="ele" v="-2.648321843845302"/>
    <tag k="local_x" v="3.8177476926354386"/>
    <tag k="local_y" v="-83.082959358065"/>
  </node>
  <node id="133" visible="true" version="1" lat="0.00000000000" lon="0.00000000000">
    <tag k="ele" v="-2.5522347140789585"/>
    <tag k="local_x" v="3.940799494938696"/>
    <tag k="local_y" v="-78.37535124670698"/>
  </node>
  <node id="134" visible="true" version="1" lat="0.00000000000" lon="0.00000000000">
    <tag k="ele" v="-2.5370301091039793"/>
    <tag k="local_x" v="4.809355221933755"/>
    <tag k="local_y" v="-76.00427007796198"/>
  </node>
  <node id="135" visible="true" version="1" lat="0.00000000000" lon="0.00000000000">
    <tag k="ele" v="-2.5308446087282808"/>
    <tag k="local_x" v="5.599717564781741"/>
    <tag k="local_y" v="-74.04793910862936"/>
  </node>
  <node id="136" visible="true" version="1" lat="0.00000000000" lon="0.00000000000">
    <tag k="ele" v="-2.5009188850601904"/>
    <tag k="local_x" v="6.835841385652419"/>
    <tag k="local_y" v="-72.46003072658876"/>
  </node>
  <node id="137" visible="true" version="1" lat="0.00000000000" lon="0.00000000000">
    <tag k="ele" v="-2.5541591243519113"/>
    <tag k="local_x" v="8.556688730254141"/>
    <tag k="local_y" v="-71.11426746167008"/>
  </node>
  <node id="138" visible="true" version="1" lat="0.00000000000" lon="0.00000000000">
    <tag k="ele" v="-2.508636494340926"/>
    <tag k="local_x" v="9.00399655449589"/>
    <tag k="local_y" v="-69.03779614573122"/>
  </node>
  <node id="139" visible="true" version="1" lat="0.00000000000" lon="0.00000000000">
    <tag k="ele" v="-2.4703391083465585"/>
    <tag k="local_x" v="9.308547311675284"/>
    <tag k="local_y" v="-66.93409776808157"/>
  </node>
  <node id="140" visible="true" version="1" lat="0.00000000000" lon="0.00000000000">
    <tag k="ele" v="-2.4703391083465585"/>
    <tag k="local_x" v="10.036170891428338"/>
    <tag k="local_y" v="-65.21835837317951"/>
  </node>
  <node id="141" visible="true" version="1" lat="0.00000000000" lon="0.00000000000">
    <tag k="ele" v="-2.525966190775103"/>
    <tag k="local_x" v="10.53674534049164"/>
    <tag k="local_y" v="-63.254263796919204"/>
  </node>
  <node id="142" visible="true" version="1" lat="0.00000000000" lon="0.00000000000">
    <tag k="ele" v="-2.454956017542033"/>
    <tag k="local_x" v="11.826197686194778"/>
    <tag k="local_y" v="-61.57108817898474"/>
  </node>
  <node id="143" visible="true" version="1" lat="0.00000000000" lon="0.00000000000">
    <tag k="ele" v="-2.470897168153924"/>
    <tag k="local_x" v="12.647678363874867"/>
    <tag k="local_y" v="-59.75338977521043"/>
  </node>
  <node id="144" visible="true" version="1" lat="0.00000000000" lon="0.00000000000">
    <tag k="ele" v="-2.5680432051839506"/>
    <tag k="local_x" v="13.456865524252748"/>
    <tag k="local_y" v="-57.93497011821774"/>
  </node>
  <node id="145" visible="true" version="1" lat="0.00000000000" lon="0.00000000000">
    <tag k="ele" v="-2.495890479293928"/>
    <tag k="local_x" v="14.309262271472843"/>
    <tag k="local_y" v="-56.085725771061156"/>
  </node>
  <node id="146" visible="true" version="1" lat="0.00000000000" lon="0.00000000000">
    <tag k="ele" v="-2.461830946478268"/>
    <tag k="local_x" v="15.064225352115763"/>
    <tag k="local_y" v="-54.22043618890949"/>
  </node>
  <node id="147" visible="true" version="1" lat="0.00000000000" lon="0.00000000000">
    <tag k="ele" v="-2.4690019656051563"/>
    <tag k="local_x" v="15.841196881309589"/>
    <tag k="local_y" v="-52.47911077122567"/>
  </node>
  <node id="148" visible="true" version="1" lat="0.00000000000" lon="0.00000000000">
    <tag k="ele" v="-2.552015635342005"/>
    <tag k="local_x" v="16.693064664707784"/>
    <tag k="local_y" v="-50.78894272174602"/>
  </node>
  <node id="149" visible="true" version="1" lat="0.00000000000" lon="0.00000000000">
    <tag k="ele" v="-2.4189071022458717"/>
    <tag k="local_x" v="15.397353103683132"/>
    <tag k="local_y" v="-45.72790516378382"/>
  </node>
  <node id="150" visible="true" version="1" lat="0.00000000000" lon="0.00000000000">
    <tag k="ele" v="-2.4565164971674265"/>
    <tag k="local_x" v="16.489942794629172"/>
    <tag k="local_y" v="-44.00176637214393"/>
  </node>
  <node id="151" visible="true" version="1" lat="0.00000000000" lon="0.00000000000">
    <tag k="ele" v="-2.4545722750071413"/>
    <tag k="local_x" v="16.970707641965085"/>
    <tag k="local_y" v="-42.03029698586155"/>
  </node>
  <node id="152" visible="true" version="1" lat="0.00000000000" lon="0.00000000000">
    <tag k="ele" v="-2.4728166290149307"/>
    <tag k="local_x" v="17.640220152429542"/>
    <tag k="local_y" v="-40.1361162974118"/>
  </node>
  <node id="153" visible="true" version="1" lat="0.00000000000" lon="0.00000000000">
    <tag k="ele" v="-2.528589275337957"/>
    <tag k="local_x" v="18.179389168220148"/>
    <tag k="local_y" v="-46.850525017347515"/>
  </node>
  <node id="154" visible="true" version="1" lat="0.00000000000" lon="0.00000000000">
    <tag k="ele" v="-2.5420355130208647"/>
    <tag k="local_x" v="19.25039033698488"/>
    <tag k="local_y" v="-45.17647032033783"/>
  </node>
  <node id="155" visible="true" version="1" lat="0.00000000000" lon="0.00000000000">
    <tag k="ele" v="-2.5619032552551286"/>
    <tag k="local_x" v="20.175853761486312"/>
    <tag k="local_y" v="-43.43636894437506"/>
  </node>
  <node id="156" visible="true" version="1" lat="0.00000000000" lon="0.00000000000">
    <tag k="ele" v="-2.583026840105635"/>
    <tag k="local_x" v="20.806349479470807"/>
    <tag k="local_y" v="-41.62796920049884"/>
  </node>
  <node id="157" visible="true" version="1" lat="0.00000000000" lon="0.00000000000">
    <tag k="ele" v="-2.529495587336434"/>
    <tag k="local_x" v="19.82068626374938"/>
    <tag k="local_y" v="-34.77562160714044"/>
  </node>
  <node id="158" visible="true" version="1" lat="0.00000000000" lon="0.00000000000">
    <tag k="ele" v="-2.529495587336434"/>
    <tag k="local_x" v="20.652267079854205"/>
    <tag k="local_y" v="-32.83646072968516"/>
  </node>
  <node id="159" visible="true" version="1" lat="0.00000000000" lon="0.00000000000">
    <tag k="ele" v="-2.522252131723506"/>
    <tag k="local_x" v="21.582772803670668"/>
    <tag k="local_y" v="-30.95528286599575"/>
  </node>
  <node id="160" visible="true" version="1" lat="0.00000000000" lon="0.00000000000">
    <tag k="ele" v="-2.52635763858257"/>
    <tag k="local_x" v="22.14213423819429"/>
    <tag k="local_y" v="-29.07290111381783"/>
  </node>
  <node id="161" visible="true" version="1" lat="0.00000000000" lon="0.00000000000">
    <tag k="ele" v="-2.622042763680473"/>
    <tag k="local_x" v="22.15923073877235"/>
    <tag k="local_y" v="-35.65948230789567"/>
  </node>
  <node id="162" visible="true" version="1" lat="0.00000000000" lon="0.00000000000">
    <tag k="ele" v="-2.590175220881039"/>
    <tag k="local_x" v="23.37639945569422"/>
    <tag k="local_y" v="-34.093084300568755"/>
  </node>
  <node id="163" visible="true" version="1" lat="0.00000000000" lon="0.00000000000">
    <tag k="ele" v="-2.6117135356599355"/>
    <tag k="local_x" v="24.21335868709992"/>
    <tag k="local_y" v="-32.397509585309585"/>
  </node>
  <node id="164" visible="true" version="1" lat="0.00000000000" lon="0.00000000000">
    <tag k="ele" v="-2.5977847299974415"/>
    <tag k="local_x" v="24.82032022039512"/>
    <tag k="local_y" v="-30.424685062806343"/>
  </node>
  <node id="165" visible="true" version="1" lat="0.00000000000" lon="0.00000000000">
    <tag k="ele" v="-2.7279345153386654"/>
    <tag k="local_x" v="27.76718369592012"/>
    <tag k="local_y" v="-16.606855559281065"/>
  </node>
  <node id="166" visible="true" version="1" lat="0.00000000000" lon="0.00000000000">
    <tag k="ele" v="-2.7279345153386654"/>
    <tag k="local_x" v="28.06950026760982"/>
    <tag k="local_y" v="-15.351615058355353"/>
  </node>
  <node id="167" visible="true" version="1" lat="0.00000000000" lon="0.00000000000">
    <tag k="ele" v="-2.7524393138519985"/>
    <tag k="local_x" v="31.535322371739667"/>
    <tag k="local_y" v="-17.948917748523026"/>
  </node>
  <node id="168" visible="true" version="1" lat="0.00000000000" lon="0.00000000000">
    <tag k="ele" v="-2.9041802025302523"/>
    <tag k="local_x" v="34.066215624368745"/>
    <tag k="local_y" v="-15.550121808899599"/>
  </node>
  <node id="169" visible="true" version="1" lat="0.00000000000" lon="0.00000000000">
    <tag k="ele" v="-1.2537328459808843"/>
    <tag k="local_x" v="10.038626995163522"/>
    <tag k="local_y" v="5.906381918175715"/>
  </node>
  <node id="170" visible="true" version="1" lat="0.00000000000" lon="0.00000000000">
    <tag k="ele" v="-1.2536370312199123"/>
    <tag k="local_x" v="9.185297486461124"/>
    <tag k="local_y" v="3.9851135367753328"/>
  </node>
  <node id="171" visible="true" version="1" lat="0.00000000000" lon="0.00000000000">
    <tag k="ele" v="-1.2903287110541726"/>
    <tag k="local_x" v="7.872093322877823"/>
    <tag k="local_y" v="8.655223828299366"/>
  </node>
  <node id="172" visible="true" version="1" lat="0.00000000000" lon="0.00000000000">
    <tag k="ele" v="-0.9691947743538877"/>
    <tag k="local_x" v="5.785538638611451"/>
    <tag k="local_y" v="7.651397728769711"/>
  </node>
  <node id="173" visible="true" version="1" lat="0.00000000000" lon="0.00000000000">
    <tag k="ele" v="-2.0772835046908003"/>
    <tag k="local_x" v="-10.802522870146044"/>
    <tag k="local_y" v="-75.19202252438605"/>
  </node>
  <node id="174" visible="true" version="1" lat="0.00000000000" lon="0.00000000000">
    <tag k="ele" v="-2.113021621572902"/>
    <tag k="local_x" v="-9.985904868079004"/>
    <tag k="local_y" v="-75.75542891566391"/>
  </node>
  <node id="175" visible="true" version="1" lat="0.00000000000" lon="0.00000000000">
    <tag k="ele" v="-2.148759738455004"/>
    <tag k="local_x" v="-9.163455121183345"/>
    <tag k="local_y" v="-76.30915774477488"/>
  </node>
  <node id="176" visible="true" version="1" lat="0.00000000000" lon="0.00000000000">
    <tag k="ele" v="-2.1844978553371055"/>
    <tag k="local_x" v="-8.322611903288232"/>
    <tag k="local_y" v="-76.82188321497108"/>
  </node>
  <node id="177" visible="true" version="1" lat="0.00000000000" lon="0.00000000000">
    <tag k="ele" v="-2.220235972219207"/>
    <tag k="local_x" v="-7.450813488222834"/>
    <tag k="local_y" v="-77.26227952950484"/>
  </node>
  <node id="178" visible="true" version="1" lat="0.00000000000" lon="0.00000000000">
    <tag k="ele" v="-2.0113756669036977"/>
    <tag k="local_x" v="-12.152869451706062"/>
    <tag k="local_y" v="-77.82025352240939"/>
  </node>
  <node id="179" visible="true" version="1" lat="0.00000000000" lon="0.00000000000">
    <tag k="ele" v="-2.044277227442284"/>
    <tag k="local_x" v="-11.389347885930707"/>
    <tag k="local_y" v="-78.25342173609931"/>
  </node>
  <node id="180" visible="true" version="1" lat="0.00000000000" lon="0.00000000000">
    <tag k="ele" v="-2.07717878798087"/>
    <tag k="local_x" v="-10.611138326974958"/>
    <tag k="local_y" v="-78.66119748456887"/>
  </node>
  <node id="181" visible="true" version="1" lat="0.00000000000" lon="0.00000000000">
    <tag k="ele" v="-2.110080348519456"/>
    <tag k="local_x" v="-9.818663016388486"/>
    <tag k="local_y" v="-79.03962169992327"/>
  </node>
  <node id="182" visible="true" version="1" lat="0.00000000000" lon="0.00000000000">
    <tag k="ele" v="-2.142981909058042"/>
    <tag k="local_x" v="-9.012344195720976"/>
    <tag k="local_y" v="-79.3847353142677"/>
  </node>
  <node id="183" visible="true" version="1" lat="0.00000000000" lon="0.00000000000">
    <tag k="ele" v="-2.175883469596628"/>
    <tag k="local_x" v="-8.19260410652211"/>
    <tag k="local_y" v="-79.69257925970732"/>
  </node>
  <node id="184" visible="true" version="1" lat="0.00000000000" lon="0.00000000000">
    <tag k="ele" v="-2.3190481512075882"/>
    <tag k="local_x" v="21.480169551990436"/>
    <tag k="local_y" v="1.7854548215819595"/>
  </node>
  <node id="185" visible="true" version="1" lat="0.00000000000" lon="0.00000000000">
    <tag k="ele" v="-2.3345540233693196"/>
    <tag k="local_x" v="20.139120745460648"/>
    <tag k="local_y" v="-0.35124692548350245"/>
  </node>
  <node id="186" visible="true" version="1" lat="0.00000000000" lon="0.00000000000">
    <tag k="ele" v="-2.3469546898797655"/>
    <tag k="local_x" v="19.340155108683565"/>
    <tag k="local_y" v="-1.797090745946891"/>
  </node>
  <node id="187" visible="true" version="1" lat="0.00000000000" lon="0.00000000000">
    <tag k="ele" v="-2.039437414851294"/>
    <tag k="local_x" v="15.604178438781338"/>
    <tag k="local_y" v="4.564434569166986"/>
  </node>
  <node id="188" visible="true" version="1" lat="0.00000000000" lon="0.00000000000">
    <tag k="ele" v="-2.0634190656635556"/>
    <tag k="local_x" v="15.427433957086658"/>
    <tag k="local_y" v="2.4860066071184033"/>
  </node>
  <node id="189" visible="true" version="1" lat="0.00000000000" lon="0.00000000000">
    <tag k="ele" v="-2.091863326016272"/>
    <tag k="local_x" v="14.450809633106442"/>
    <tag k="local_y" v="0.7216988086712599"/>
  </node>
  <way id="1" visible="true" version="1">
    <nd ref="43"/>
    <nd ref="44"/>
    <nd ref="45"/>
    <nd ref="46"/>
    <nd ref="47"/>
    <tag k="type" v="virtual"/>
  </way>
  <way id="2" visible="true" version="1">
    <nd ref="48"/>
    <nd ref="49"/>
    <nd ref="50"/>
    <nd ref="51"/>
    <nd ref="52"/>
    <tag k="type" v="virtual"/>
  </way>
  <way id="4" visible="true" version="1">
    <nd ref="53"/>
    <nd ref="54"/>
    <tag k="type" v="virtual"/>
  </way>
  <way id="5" visible="true" version="1">
    <nd ref="55"/>
    <nd ref="56"/>
    <tag k="type" v="virtual"/>
  </way>
  <way id="7" visible="true" version="1">
    <nd ref="57"/>
    <nd ref="58"/>
    <tag k="type" v="virtual"/>
  </way>
  <way id="8" visible="true" version="1">
    <nd ref="59"/>
    <nd ref="60"/>
    <tag k="type" v="virtual"/>
  </way>
  <way id="10" visible="true" version="1">
    <nd ref="61"/>
    <nd ref="62"/>
    <nd ref="63"/>
    <nd ref="64"/>
    <nd ref="65"/>
    <tag k="type" v="virtual"/>
  </way>
  <way id="11" visible="true" version="1">
    <nd ref="66"/>
    <nd ref="67"/>
    <nd ref="68"/>
    <nd ref="69"/>
    <nd ref="70"/>
    <tag k="type" v="virtual"/>
  </way>
  <way id="13" visible="true" version="1">
    <nd ref="71"/>
    <nd ref="72"/>
    <nd ref="73"/>
    <nd ref="74"/>
    <nd ref="75"/>
    <nd ref="76"/>
    <nd ref="77"/>
    <nd ref="78"/>
    <nd ref="79"/>
    <nd ref="80"/>
    <nd ref="81"/>
    <nd ref="82"/>
    <nd ref="83"/>
    <nd ref="84"/>
    <nd ref="85"/>
    <tag k="type" v="virtual"/>
  </way>
  <way id="14" visible="true" version="1">
    <nd ref="86"/>
    <nd ref="87"/>
    <nd ref="88"/>
    <nd ref="89"/>
    <nd ref="90"/>
    <nd ref="91"/>
    <nd ref="92"/>
    <nd ref="93"/>
    <nd ref="94"/>
    <nd ref="95"/>
    <nd ref="96"/>
    <nd ref="97"/>
    <nd ref="98"/>
    <nd ref="99"/>
    <nd ref="100"/>
    <tag k="type" v="virtual"/>
  </way>
  <way id="16" visible="true" version="1">
    <nd ref="101"/>
    <nd ref="102"/>
    <nd ref="103"/>
    <nd ref="104"/>
    <tag k="type" v="virtual"/>
  </way>
  <way id="17" visible="true" version="1">
    <nd ref="105"/>
    <nd ref="106"/>
    <nd ref="107"/>
    <nd ref="108"/>
    <tag k="type" v="virtual"/>
  </way>
  <way id="19" visible="true" version="1">
    <nd ref="109"/>
    <nd ref="110"/>
    <tag k="type" v="virtual"/>
  </way>
  <way id="20" visible="true" version="1">
    <nd ref="111"/>
    <nd ref="112"/>
    <tag k="type" v="virtual"/>
  </way>
  <way id="22" visible="true" version="1">
    <nd ref="113"/>
    <nd ref="114"/>
    <nd ref="115"/>
    <nd ref="116"/>
    <nd ref="117"/>
    <nd ref="118"/>
    <nd ref="119"/>
    <nd ref="120"/>
    <nd ref="121"/>
    <nd ref="122"/>
    <nd ref="123"/>
    <nd ref="124"/>
    <nd ref="125"/>
    <nd ref="126"/>
    <nd ref="127"/>
    <nd ref="128"/>
    <nd ref="129"/>
    <nd ref="130"/>
    <tag k="type" v="virtual"/>
  </way>
  <way id="23" visible="true" version="1">
    <nd ref="131"/>
    <nd ref="132"/>
    <nd ref="133"/>
    <nd ref="134"/>
    <nd ref="135"/>
    <nd ref="136"/>
    <nd ref="137"/>
    <nd ref="138"/>
    <nd ref="139"/>
    <nd ref="140"/>
    <nd ref="141"/>
    <nd ref="142"/>
    <nd ref="143"/>
    <nd ref="144"/>
    <nd ref="145"/>
    <nd ref="146"/>
    <nd ref="147"/>
    <nd ref="148"/>
    <tag k="type" v="virtual"/>
  </way>
  <way id="25" visible="true" version="1">
    <nd ref="149"/>
    <nd ref="150"/>
    <nd ref="151"/>
    <nd ref="152"/>
    <tag k="type" v="virtual"/>
  </way>
  <way id="26" visible="true" version="1">
    <nd ref="153"/>
    <nd ref="154"/>
    <nd ref="155"/>
    <nd ref="156"/>
    <tag k="type" v="virtual"/>
  </way>
  <way id="28" visible="true" version="1">
    <nd ref="157"/>
    <nd ref="158"/>
    <nd ref="159"/>
    <nd ref="160"/>
    <tag k="type" v="virtual"/>
  </way>
  <way id="29" visible="true" version="1">
    <nd ref="161"/>
    <nd ref="162"/>
    <nd ref="163"/>
    <nd ref="164"/>
    <tag k="type" v="virtual"/>
  </way>
  <way id="31" visible="true" version="1">
    <nd ref="165"/>
    <nd ref="166"/>
    <tag k="type" v="virtual"/>
  </way>
  <way id="32" visible="true" version="1">
    <nd ref="167"/>
    <nd ref="168"/>
    <tag k="type" v="virtual"/>
  </way>
  <way id="34" visible="true" version="1">
    <nd ref="169"/>
    <nd ref="170"/>
    <tag k="type" v="virtual"/>
  </way>
  <way id="35" visible="true" version="1">
    <nd ref="171"/>
    <nd ref="172"/>
    <tag k="type" v="virtual"/>
  </way>
  <way id="37" visible="true" version="1">
    <nd ref="104"/>
    <nd ref="173"/>
    <nd ref="174"/>
    <nd ref="175"/>
    <nd ref="176"/>
    <nd ref="177"/>
    <nd ref="109"/>
    <tag k="type" v="virtual"/>
  </way>
  <way id="38" visible="true" version="1">
    <nd ref="108"/>
    <nd ref="178"/>
    <nd ref="179"/>
    <nd ref="180"/>
    <nd ref="181"/>
    <nd ref="182"/>
    <nd ref="183"/>
    <nd ref="111"/>
    <tag k="type" v="virtual"/>
  </way>
  <way id="40" visible="true" version="1">
    <nd ref="184"/>
    <nd ref="185"/>
    <nd ref="186"/>
    <tag k="type" v="virtual"/>
  </way>
  <way id="41" visible="true" version="1">
    <nd ref="187"/>
    <nd ref="188"/>
    <nd ref="189"/>
    <tag k="type" v="virtual"/>
  </way>
  <relation id="3" visible="true" version="1">
    <member type="way" ref="1" role="left"/>
    <member type="way" ref="2" role="right"/>
    <tag k="cloudanalyzer:assumption_status" v="hypothesis"/>
    <tag k="cloudanalyzer:boundary_policy" v="source_span_hypothesis"/>
    <tag k="cloudanalyzer:source_center_curve" v="1"/>
    <tag k="location" v="urban"/>
    <tag k="one_way" v="yes"/>
    <tag k="participant:vehicle" v="yes"/>
    <tag k="speed_limit" v="40"/>
    <tag k="subtype" v="road"/>
    <tag k="type" v="lanelet"/>
  </relation>
  <relation id="6" visible="true" version="1">
    <member type="way" ref="4" role="left"/>
    <member type="way" ref="5" role="right"/>
    <tag k="cloudanalyzer:assumption_status" v="hypothesis"/>
    <tag k="cloudanalyzer:boundary_policy" v="source_span_hypothesis"/>
    <tag k="cloudanalyzer:source_center_curve" v="4"/>
    <tag k="location" v="urban"/>
    <tag k="one_way" v="yes"/>
    <tag k="participant:vehicle" v="yes"/>
    <tag k="speed_limit" v="40"/>
    <tag k="subtype" v="road"/>
    <tag k="type" v="lanelet"/>
  </relation>
  <relation id="9" visible="true" version="1">
    <member type="way" ref="7" role="left"/>
    <member type="way" ref="8" role="right"/>
    <tag k="cloudanalyzer:assumption_status" v="hypothesis"/>
    <tag k="cloudanalyzer:boundary_policy" v="source_span_hypothesis"/>
    <tag k="cloudanalyzer:source_center_curve" v="7"/>
    <tag k="location" v="urban"/>
    <tag k="one_way" v="yes"/>
    <tag k="participant:vehicle" v="yes"/>
    <tag k="speed_limit" v="40"/>
    <tag k="subtype" v="road"/>
    <tag k="type" v="lanelet"/>
  </relation>
  <relation id="12" visible="true" version="1">
    <member type="way" ref="10" role="left"/>
    <member type="way" ref="11" role="right"/>
    <tag k="cloudanalyzer:assumption_status" v="hypothesis"/>
    <tag k="cloudanalyzer:boundary_policy" v="source_span_hypothesis"/>
    <tag k="cloudanalyzer:source_center_curve" v="10"/>
    <tag k="location" v="urban"/>
    <tag k="one_way" v="yes"/>
    <tag k="participant:vehicle" v="yes"/>
    <tag k="speed_limit" v="40"/>
    <tag k="subtype" v="road"/>
    <tag k="type" v="lanelet"/>
  </relation>
  <relation id="15" visible="true" version="1">
    <member type="way" ref="13" role="left"/>
    <member type="way" ref="14" role="right"/>
    <tag k="cloudanalyzer:assumption_status" v="hypothesis"/>
    <tag k="cloudanalyzer:boundary_policy" v="source_span_hypothesis"/>
    <tag k="cloudanalyzer:source_center_curve" v="13"/>
    <tag k="location" v="urban"/>
    <tag k="one_way" v="yes"/>
    <tag k="participant:vehicle" v="yes"/>
    <tag k="speed_limit" v="40"/>
    <tag k="subtype" v="road"/>
    <tag k="type" v="lanelet"/>
  </relation>
  <relation id="18" visible="true" version="1">
    <member type="way" ref="16" role="left"/>
    <member type="way" ref="17" role="right"/>
    <tag k="cloudanalyzer:assumption_status" v="hypothesis"/>
    <tag k="cloudanalyzer:boundary_policy" v="source_span_hypothesis"/>
    <tag k="cloudanalyzer:source_center_curve" v="16"/>
    <tag k="location" v="urban"/>
    <tag k="one_way" v="yes"/>
    <tag k="participant:vehicle" v="yes"/>
    <tag k="speed_limit" v="40"/>
    <tag k="subtype" v="road"/>
    <tag k="type" v="lanelet"/>
  </relation>
  <relation id="21" visible="true" version="1">
    <member type="way" ref="19" role="left"/>
    <member type="way" ref="20" role="right"/>
    <tag k="cloudanalyzer:assumption_status" v="hypothesis"/>
    <tag k="cloudanalyzer:boundary_policy" v="source_span_hypothesis"/>
    <tag k="cloudanalyzer:source_center_curve" v="19"/>
    <tag k="location" v="urban"/>
    <tag k="one_way" v="yes"/>
    <tag k="participant:vehicle" v="yes"/>
    <tag k="speed_limit" v="40"/>
    <tag k="subtype" v="road"/>
    <tag k="type" v="lanelet"/>
  </relation>
  <relation id="24" visible="true" version="1">
    <member type="way" ref="22" role="left"/>
    <member type="way" ref="23" role="right"/>
    <tag k="cloudanalyzer:assumption_status" v="hypothesis"/>
    <tag k="cloudanalyzer:boundary_policy" v="source_span_hypothesis"/>
    <tag k="cloudanalyzer:source_center_curve" v="22"/>
    <tag k="location" v="urban"/>
    <tag k="one_way" v="yes"/>
    <tag k="participant:vehicle" v="yes"/>
    <tag k="speed_limit" v="40"/>
    <tag k="subtype" v="road"/>
    <tag k="type" v="lanelet"/>
  </relation>
  <relation id="27" visible="true" version="1">
    <member type="way" ref="25" role="left"/>
    <member type="way" ref="26" role="right"/>
    <tag k="cloudanalyzer:assumption_status" v="hypothesis"/>
    <tag k="cloudanalyzer:boundary_policy" v="source_span_hypothesis"/>
    <tag k="cloudanalyzer:source_center_curve" v="25"/>
    <tag k="location" v="urban"/>
    <tag k="one_way" v="yes"/>
    <tag k="participant:vehicle" v="yes"/>
    <tag k="speed_limit" v="40"/>
    <tag k="subtype" v="road"/>
    <tag k="type" v="lanelet"/>
  </relation>
  <relation id="30" visible="true" version="1">
    <member type="way" ref="28" role="left"/>
    <member type="way" ref="29" role="right"/>
    <tag k="cloudanalyzer:assumption_status" v="hypothesis"/>
    <tag k="cloudanalyzer:boundary_policy" v="source_span_hypothesis"/>
    <tag k="cloudanalyzer:source_center_curve" v="28"/>
    <tag k="location" v="urban"/>
    <tag k="one_way" v="yes"/>
    <tag k="participant:vehicle" v="yes"/>
    <tag k="speed_limit" v="40"/>
    <tag k="subtype" v="road"/>
    <tag k="type" v="lanelet"/>
  </relation>
  <relation id="33" visible="true" version="1">
    <member type="way" ref="31" role="left"/>
    <member type="way" ref="32" role="right"/>
    <tag k="cloudanalyzer:assumption_status" v="hypothesis"/>
    <tag k="cloudanalyzer:boundary_policy" v="source_span_hypothesis"/>
    <tag k="cloudanalyzer:source_center_curve" v="31"/>
    <tag k="location" v="urban"/>
    <tag k="one_way" v="yes"/>
    <tag k="participant:vehicle" v="yes"/>
    <tag k="speed_limit" v="40"/>
    <tag k="subtype" v="road"/>
    <tag k="type" v="lanelet"/>
  </relation>
  <relation id="36" visible="true" version="1">
    <member type="way" ref="34" role="left"/>
    <member type="way" ref="35" role="right"/>
    <tag k="cloudanalyzer:assumption_status" v="hypothesis"/>
    <tag k="cloudanalyzer:boundary_policy" v="source_span_hypothesis"/>
    <tag k="cloudanalyzer:source_center_curve" v="34"/>
    <tag k="location" v="urban"/>
    <tag k="one_way" v="yes"/>
    <tag k="participant:vehicle" v="yes"/>
    <tag k="speed_limit" v="40"/>
    <tag k="subtype" v="road"/>
    <tag k="type" v="lanelet"/>
  </relation>
  <relation id="39" visible="true" version="1">
    <member type="way" ref="37" role="left"/>
    <member type="way" ref="38" role="right"/>
    <tag k="cloudanalyzer_geometry_source" v="ground_supported_connection"/>
    <tag k="cloudanalyzer_review_required" v="yes"/>
    <tag k="location" v="urban"/>
    <tag k="one_way" v="yes"/>
    <tag k="participant:vehicle" v="yes"/>
    <tag k="speed_limit" v="40"/>
    <tag k="subtype" v="road"/>
    <tag k="turn_direction" v="straight"/>
    <tag k="type" v="lanelet"/>
  </relation>
  <relation id="42" visible="true" version="1">
    <member type="way" ref="40" role="left"/>
    <member type="way" ref="41" role="right"/>
    <tag k="cloudanalyzer:assumption_status" v="hypothesis"/>
    <tag k="cloudanalyzer:boundary_policy" v="source_span_hypothesis"/>
    <tag k="cloudanalyzer:source_center_curve" v="1"/>
    <tag k="location" v="urban"/>
    <tag k="one_way" v="yes"/>
    <tag k="participant:vehicle" v="yes"/>
    <tag k="speed_limit" v="40"/>
    <tag k="subtype" v="road"/>
    <tag k="type" v="lanelet"/>
  </relation>
</osm>
