<?xml version="1.0" encoding="UTF-8"?>
<osm version="0.6" upload="false" generator="vectormap-rs 0.1.0">
  <node id="4" visible="true" version="1" lat="0.00000000000" lon="0.00000000000">
    <tag k="ele" v="-2.786300515459742"/>
    <tag k="local_x" v="20.84367702753294"/>
    <tag k="local_y" v="4.015316383325284"/>
  </node>
  <node id="5" visible="true" version="1" lat="0.00000000000" lon="0.00000000000">
    <tag k="ele" v="-2.45250591041678"/>
    <tag k="local_x" v="16.861480365125153"/>
    <tag k="local_y" v="2.5149113682975797"/>
  </node>
  <node id="6" visible="true" version="1" lat="0.00000000000" lon="0.00000000000">
    <tag k="ele" v="-2.4793685171207582"/>
    <tag k="local_x" v="16.79875193791615"/>
    <tag k="local_y" v="0.008177752131649285"/>
  </node>
  <node id="7" visible="true" version="1" lat="0.00000000000" lon="0.00000000000">
    <tag k="ele" v="-2.4468522957003542"/>
    <tag k="local_x" v="15.595115614372423"/>
    <tag k="local_y" v="-1.5477177437072145"/>
  </node>
  <node id="8" visible="true" version="1" lat="0.00000000000" lon="0.00000000000">
    <tag k="ele" v="-2.400853831153244"/>
    <tag k="local_x" v="15.87953327185637"/>
    <tag k="local_y" v="4.613042719517118"/>
  </node>
  <node id="9" visible="true" version="1" lat="0.00000000000" lon="0.00000000000">
    <tag k="ele" v="-2.346338580589156"/>
    <tag k="local_x" v="15.193954770680511"/>
    <tag k="local_y" v="3.6191569894670916"/>
  </node>
  <node id="10" visible="true" version="1" lat="0.00000000000" lon="0.00000000000">
    <tag k="ele" v="-2.242275755369503"/>
    <tag k="local_x" v="14.039172383903761"/>
    <tag k="local_y" v="2.161017896005962"/>
  </node>
  <node id="11" visible="true" version="1" lat="0.00000000000" lon="0.00000000000">
    <tag k="ele" v="-2.2639451689889585"/>
    <tag k="local_x" v="13.595504497749852"/>
    <tag k="local_y" v="-0.0471993725169666"/>
  </node>
  <way id="1" visible="true" version="1">
    <nd ref="4"/>
    <nd ref="5"/>
    <nd ref="6"/>
    <nd ref="7"/>
    <tag k="type" v="virtual"/>
  </way>
  <way id="2" visible="true" version="1">
    <nd ref="8"/>
    <nd ref="9"/>
    <nd ref="10"/>
    <nd ref="11"/>
    <tag k="type" v="virtual"/>
  </way>
  <relation id="3" visible="true" version="1">
    <member type="way" ref="1" role="left"/>
    <member type="way" ref="2" role="right"/>
    <tag k="cloudanalyzer:assumption_status" v="hypothesis"/>
    <tag k="cloudanalyzer:boundary_policy" v="source_span_hypothesis"/>
    <tag k="cloudanalyzer:source_center_curve" v="1"/>
    <tag k="location" v="urban"/>
    <tag k="one_way" v="yes"/>
    <tag k="participant:vehicle" v="yes"/>
    <tag k="speed_limit" v="40"/>
    <tag k="subtype" v="road"/>
    <tag k="type" v="lanelet"/>
  </relation>
</osm>
