<?xml version="1.0" encoding="UTF-8"?>
<osm version="0.6" upload="false" generator="vectormap-rs 0.1.0">
  <node id="58" visible="true" version="1" lat="0.00000000000" lon="0.00000000000">
    <tag k="ele" v="-0.26847350452419483"/>
    <tag k="local_x" v="-0.02212799721659472"/>
    <tag k="local_y" v="0.24901877788468557"/>
  </node>
  <node id="59" visible="true" version="1" lat="0.00000000000" lon="0.00000000000">
    <tag k="ele" v="-0.6247371988267725"/>
    <tag k="local_x" v="1.3210590826531807"/>
    <tag k="local_y" v="2.8441163555761424"/>
  </node>
  <node id="60" visible="true" version="1" lat="0.00000000000" lon="0.00000000000">
    <tag k="ele" v="-0.7719644454586498"/>
    <tag k="local_x" v="2.477976305739457"/>
    <tag k="local_y" v="3.359177262712079"/>
  </node>
  <node id="61" visible="true" version="1" lat="0.00000000000" lon="0.00000000000">
    <tag k="ele" v="-1.038113870228428"/>
    <tag k="local_x" v="5.3023747313253535"/>
    <tag k="local_y" v="2.3136613918633215"/>
  </node>
  <node id="62" visible="true" version="1" lat="0.00000000000" lon="0.00000000000">
    <tag k="ele" v="-1.2106314046159237"/>
    <tag k="local_x" v="5.279333946488938"/>
    <tag k="local_y" v="5.48276507247412"/>
  </node>
  <node id="63" visible="true" version="1" lat="0.00000000000" lon="0.00000000000">
    <tag k="ele" v="-0.23015216271309424"/>
    <tag k="local_x" v="0.15489598051616305"/>
    <tag k="local_y" v="-1.743131445192799"/>
  </node>
  <node id="64" visible="true" version="1" lat="0.00000000000" lon="0.00000000000">
    <tag k="ele" v="-0.5600875278584002"/>
    <tag k="local_x" v="2.051591409779448"/>
    <tag k="local_y" v="-0.06557821929309626"/>
  </node>
  <node id="65" visible="true" version="1" lat="0.00000000000" lon="0.00000000000">
    <tag k="ele" v="-0.8822911083192753"/>
    <tag k="local_x" v="4.67513374862907"/>
    <tag k="local_y" v="-0.5679717249321093"/>
  </node>
  <node id="66" visible="true" version="1" lat="0.00000000000" lon="0.00000000000">
    <tag k="ele" v="-0.997252781498437"/>
    <tag k="local_x" v="6.500756782554971"/>
    <tag k="local_y" v="0.7124492075196309"/>
  </node>
  <node id="67" visible="true" version="1" lat="0.00000000000" lon="0.00000000000">
    <tag k="ele" v="-1.2315618324450068"/>
    <tag k="local_x" v="7.176842766827681"/>
    <tag k="local_y" v="3.1590911976077107"/>
  </node>
  <node id="68" visible="true" version="1" lat="0.00000000000" lon="0.00000000000">
    <tag k="ele" v="-1.9736808813293338"/>
    <tag k="local_x" v="11.010390068738209"/>
    <tag k="local_y" v="8.591643672107839"/>
  </node>
  <node id="69" visible="true" version="1" lat="0.00000000000" lon="0.00000000000">
    <tag k="ele" v="-2.184587995912896"/>
    <tag k="local_x" v="13.416136371552788"/>
    <tag k="local_y" v="9.338095772643197"/>
  </node>
  <node id="70" visible="true" version="1" lat="0.00000000000" lon="0.00000000000">
    <tag k="ele" v="-2.489015704721633"/>
    <tag k="local_x" v="16.33769542496384"/>
    <tag k="local_y" v="9.54366681188164"/>
  </node>
  <node id="71" visible="true" version="1" lat="0.00000000000" lon="0.00000000000">
    <tag k="ele" v="-1.9692781479422095"/>
    <tag k="local_x" v="12.45314782886249"/>
    <tag k="local_y" v="5.402842949955202"/>
  </node>
  <node id="72" visible="true" version="1" lat="0.00000000000" lon="0.00000000000">
    <tag k="ele" v="-2.188129917186369"/>
    <tag k="local_x" v="13.759075771516363"/>
    <tag k="local_y" v="6.357761467912833"/>
  </node>
  <node id="73" visible="true" version="1" lat="0.00000000000" lon="0.00000000000">
    <tag k="ele" v="-2.32552180181764"/>
    <tag k="local_x" v="14.935369541826176"/>
    <tag k="local_y" v="5.797537860886735"/>
  </node>
  <node id="74" visible="true" version="1" lat="0.00000000000" lon="0.00000000000">
    <tag k="ele" v="-2.2175607778196857"/>
    <tag k="local_x" v="12.381455012747663"/>
    <tag k="local_y" v="-6.441221021319844"/>
  </node>
  <node id="75" visible="true" version="1" lat="0.00000000000" lon="0.00000000000">
    <tag k="ele" v="-2.0986678557948393"/>
    <tag k="local_x" v="11.308726514789202"/>
    <tag k="local_y" v="-8.054108966427563"/>
  </node>
  <node id="76" visible="true" version="1" lat="0.00000000000" lon="0.00000000000">
    <tag k="ele" v="-1.967240875418637"/>
    <tag k="local_x" v="9.856694047643318"/>
    <tag k="local_y" v="-4.8208562262550485"/>
  </node>
  <node id="77" visible="true" version="1" lat="0.00000000000" lon="0.00000000000">
    <tag k="ele" v="-1.9975911836673554"/>
    <tag k="local_x" v="9.588806532765135"/>
    <tag k="local_y" v="-7.033386058173646"/>
  </node>
  <node id="78" visible="true" version="1" lat="0.00000000000" lon="0.00000000000">
    <tag k="ele" v="-1.7468621871552483"/>
    <tag k="local_x" v="5.082503051738977"/>
    <tag k="local_y" v="-18.26517448343039"/>
  </node>
  <node id="79" visible="true" version="1" lat="0.00000000000" lon="0.00000000000">
    <tag k="ele" v="-1.8930681726406204"/>
    <tag k="local_x" v="5.510951963269459"/>
    <tag k="local_y" v="-20.698369720150858"/>
  </node>
  <node id="80" visible="true" version="1" lat="0.00000000000" lon="0.00000000000">
    <tag k="ele" v="-1.6298062747793831"/>
    <tag k="local_x" v="2.797237535729927"/>
    <tag k="local_y" v="-21.35390854886992"/>
  </node>
  <node id="81" visible="true" version="1" lat="0.00000000000" lon="0.00000000000">
    <tag k="ele" v="-1.5260010965576127"/>
    <tag k="local_x" v="1.1726868250337645"/>
    <tag k="local_y" v="-22.75188840931784"/>
  </node>
  <node id="82" visible="true" version="1" lat="0.00000000000" lon="0.00000000000">
    <tag k="ele" v="-1.4808508307552426"/>
    <tag k="local_x" v="0.10120538023060577"/>
    <tag k="local_y" v="-24.551976415686255"/>
  </node>
  <node id="83" visible="true" version="1" lat="0.00000000000" lon="0.00000000000">
    <tag k="ele" v="-1.521311609503595"/>
    <tag k="local_x" v="0.09709707951718727"/>
    <tag k="local_y" v="-27.04662934296147"/>
  </node>
  <node id="84" visible="true" version="1" lat="0.00000000000" lon="0.00000000000">
    <tag k="ele" v="-1.4269080173453277"/>
    <tag k="local_x" v="-1.8043819196942628"/>
    <tag k="local_y" v="-28.03441063791083"/>
  </node>
  <node id="85" visible="true" version="1" lat="0.00000000000" lon="0.00000000000">
    <tag k="ele" v="-1.3536384446647771"/>
    <tag k="local_x" v="-1.946025774400735"/>
    <tag k="local_y" v="-30.290798588193628"/>
  </node>
  <node id="86" visible="true" version="1" lat="0.00000000000" lon="0.00000000000">
    <tag k="ele" v="-1.3118658651820687"/>
    <tag k="local_x" v="-3.0988171758293275"/>
    <tag k="local_y" v="-31.999596484687544"/>
  </node>
  <node id="87" visible="true" version="1" lat="0.00000000000" lon="0.00000000000">
    <tag k="ele" v="-1.287709867510428"/>
    <tag k="local_x" v="-4.1251718066315535"/>
    <tag k="local_y" v="-33.5630695893841"/>
  </node>
  <node id="88" visible="true" version="1" lat="0.00000000000" lon="0.00000000000">
    <tag k="ele" v="-1.1367767065786243"/>
    <tag k="local_x" v="-5.90431698196426"/>
    <tag k="local_y" v="-34.82337865845545"/>
  </node>
  <node id="89" visible="true" version="1" lat="0.00000000000" lon="0.00000000000">
    <tag k="ele" v="-1.1134099159709414"/>
    <tag k="local_x" v="-7.00307143352501"/>
    <tag k="local_y" v="-36.53524699838209"/>
  </node>
  <node id="90" visible="true" version="1" lat="0.00000000000" lon="0.00000000000">
    <tag k="ele" v="-1.05426120327133"/>
    <tag k="local_x" v="-8.457169827293926"/>
    <tag k="local_y" v="-38.011519452946324"/>
  </node>
  <node id="91" visible="true" version="1" lat="0.00000000000" lon="0.00000000000">
    <tag k="ele" v="-1.0357914406379445"/>
    <tag k="local_x" v="-9.654987460535592"/>
    <tag k="local_y" v="-39.632256224817915"/>
  </node>
  <node id="92" visible="true" version="1" lat="0.00000000000" lon="0.00000000000">
    <tag k="ele" v="-0.935889460642679"/>
    <tag k="local_x" v="-9.525293998148957"/>
    <tag k="local_y" v="-42.17189990736193"/>
  </node>
  <node id="93" visible="true" version="1" lat="0.00000000000" lon="0.00000000000">
    <tag k="ele" v="-0.9767920275313082"/>
    <tag k="local_x" v="-11.193743624248897"/>
    <tag k="local_y" v="-43.551909166927715"/>
  </node>
  <node id="94" visible="true" version="1" lat="0.00000000000" lon="0.00000000000">
    <tag k="ele" v="-0.9574028705798235"/>
    <tag k="local_x" v="-12.45761826892273"/>
    <tag k="local_y" v="-45.10749414469159"/>
  </node>
  <node id="95" visible="true" version="1" lat="0.00000000000" lon="0.00000000000">
    <tag k="ele" v="-0.747885020326897"/>
    <tag k="local_x" v="-14.45513740385989"/>
    <tag k="local_y" v="-46.071625302097694"/>
  </node>
  <node id="96" visible="true" version="1" lat="0.00000000000" lon="0.00000000000">
    <tag k="ele" v="-0.7514315020494051"/>
    <tag k="local_x" v="-15.314374938624326"/>
    <tag k="local_y" v="-47.96705367893543"/>
  </node>
  <node id="97" visible="true" version="1" lat="0.00000000000" lon="0.00000000000">
    <tag k="ele" v="-0.6915345817006455"/>
    <tag k="local_x" v="-15.373386889399782"/>
    <tag k="local_y" v="-50.38345277232163"/>
  </node>
  <node id="98" visible="true" version="1" lat="0.00000000000" lon="0.00000000000">
    <tag k="ele" v="-0.6045881457560199"/>
    <tag k="local_x" v="-16.004256811988824"/>
    <tag k="local_y" v="-52.150542562597764"/>
  </node>
  <node id="99" visible="true" version="1" lat="0.00000000000" lon="0.00000000000">
    <tag k="ele" v="-0.5323959420912213"/>
    <tag k="local_x" v="-17.03944827472358"/>
    <tag k="local_y" v="-53.794107213027615"/>
  </node>
  <node id="100" visible="true" version="1" lat="0.00000000000" lon="0.00000000000">
    <tag k="ele" v="-0.47973968792909916"/>
    <tag k="local_x" v="-18.227018520069958"/>
    <tag k="local_y" v="-55.60542447158481"/>
  </node>
  <node id="101" visible="true" version="1" lat="0.00000000000" lon="0.00000000000">
    <tag k="ele" v="-0.5695729256680023"/>
    <tag k="local_x" v="-19.183931748212697"/>
    <tag k="local_y" v="-57.637409973778325"/>
  </node>
  <node id="102" visible="true" version="1" lat="0.00000000000" lon="0.00000000000">
    <tag k="ele" v="-0.44325554264587796"/>
    <tag k="local_x" v="-20.87590223299073"/>
    <tag k="local_y" v="-58.89710504402947"/>
  </node>
  <node id="103" visible="true" version="1" lat="0.00000000000" lon="0.00000000000">
    <tag k="ele" v="-0.35333075288126864"/>
    <tag k="local_x" v="-22.511348610340754"/>
    <tag k="local_y" v="-60.081610370077435"/>
  </node>
  <node id="104" visible="true" version="1" lat="0.00000000000" lon="0.00000000000">
    <tag k="ele" v="-0.26688674451358296"/>
    <tag k="local_x" v="-23.617465778850498"/>
    <tag k="local_y" v="-61.4981380592344"/>
  </node>
  <node id="105" visible="true" version="1" lat="0.00000000000" lon="0.00000000000">
    <tag k="ele" v="-0.24660986357391543"/>
    <tag k="local_x" v="-24.560077454393294"/>
    <tag k="local_y" v="-63.047675383450006"/>
  </node>
  <node id="106" visible="true" version="1" lat="0.00000000000" lon="0.00000000000">
    <tag k="ele" v="-0.19405828525941765"/>
    <tag k="local_x" v="-25.47682657709575"/>
    <tag k="local_y" v="-64.61242418335588"/>
  </node>
  <node id="107" visible="true" version="1" lat="0.00000000000" lon="0.00000000000">
    <tag k="ele" v="-0.17749997684090318"/>
    <tag k="local_x" v="-25.592886057664355"/>
    <tag k="local_y" v="-66.01516481331181"/>
  </node>
  <node id="108" visible="true" version="1" lat="0.00000000000" lon="0.00000000000">
    <tag k="ele" v="-0.0898459446090901"/>
    <tag k="local_x" v="-25.685607433495292"/>
    <tag k="local_y" v="-66.95066252875661"/>
  </node>
  <node id="109" visible="true" version="1" lat="0.00000000000" lon="0.00000000000">
    <tag k="ele" v="-0.13844089949689692"/>
    <tag k="local_x" v="-25.946408007698253"/>
    <tag k="local_y" v="-68.00640692744284"/>
  </node>
  <node id="110" visible="true" version="1" lat="0.00000000000" lon="0.00000000000">
    <tag k="ele" v="-0.2695680902516091"/>
    <tag k="local_x" v="-25.196678808976422"/>
    <tag k="local_y" v="-69.06254177152638"/>
  </node>
  <node id="111" visible="true" version="1" lat="0.00000000000" lon="0.00000000000">
    <tag k="ele" v="-0.3019007158746211"/>
    <tag k="local_x" v="-24.822458123250136"/>
    <tag k="local_y" v="-70.94880391729399"/>
  </node>
  <node id="112" visible="true" version="1" lat="0.00000000000" lon="0.00000000000">
    <tag k="ele" v="-1.6399622917883363"/>
    <tag k="local_x" v="2.5089273507594214"/>
    <tag k="local_y" v="-16.72351689780134"/>
  </node>
  <node id="113" visible="true" version="1" lat="0.00000000000" lon="0.00000000000">
    <tag k="ele" v="-1.5093358903479217"/>
    <tag k="local_x" v="1.1380087088500546"/>
    <tag k="local_y" v="-18.274041505236916"/>
  </node>
  <node id="114" visible="true" version="1" lat="0.00000000000" lon="0.00000000000">
    <tag k="ele" v="-1.4074721763245837"/>
    <tag k="local_x" v="-0.34692409407822056"/>
    <tag k="local_y" v="-19.816297529905054"/>
  </node>
  <node id="115" visible="true" version="1" lat="0.00000000000" lon="0.00000000000">
    <tag k="ele" v="-1.3876345430599044"/>
    <tag k="local_x" v="-1.0703909509151255"/>
    <tag k="local_y" v="-21.64798529262499"/>
  </node>
  <node id="116" visible="true" version="1" lat="0.00000000000" lon="0.00000000000">
    <tag k="ele" v="-1.3628762186604535"/>
    <tag k="local_x" v="-1.972853394103145"/>
    <tag k="local_y" v="-23.156168334104414"/>
  </node>
  <node id="117" visible="true" version="1" lat="0.00000000000" lon="0.00000000000">
    <tag k="ele" v="-1.3302463056804634"/>
    <tag k="local_x" v="-3.1433449687121633"/>
    <tag k="local_y" v="-24.701520532678423"/>
  </node>
  <node id="118" visible="true" version="1" lat="0.00000000000" lon="0.00000000000">
    <tag k="ele" v="-1.298220859778879"/>
    <tag k="local_x" v="-4.341042074679021"/>
    <tag k="local_y" v="-26.432737994043585"/>
  </node>
  <node id="119" visible="true" version="1" lat="0.00000000000" lon="0.00000000000">
    <tag k="ele" v="-1.2369187885975808"/>
    <tag k="local_x" v="-5.340538135984531"/>
    <tag k="local_y" v="-28.1748387995741"/>
  </node>
  <node id="120" visible="true" version="1" lat="0.00000000000" lon="0.00000000000">
    <tag k="ele" v="-1.2414760581230893"/>
    <tag k="local_x" v="-6.429687343667133"/>
    <tag k="local_y" v="-29.78480441205225"/>
  </node>
  <node id="121" visible="true" version="1" lat="0.00000000000" lon="0.00000000000">
    <tag k="ele" v="-1.1635257141896742"/>
    <tag k="local_x" v="-7.57807091206705"/>
    <tag k="local_y" v="-31.543790567633334"/>
  </node>
  <node id="122" visible="true" version="1" lat="0.00000000000" lon="0.00000000000">
    <tag k="ele" v="-1.043220467936007"/>
    <tag k="local_x" v="-8.93287634338599"/>
    <tag k="local_y" v="-33.06900464065172"/>
  </node>
  <node id="123" visible="true" version="1" lat="0.00000000000" lon="0.00000000000">
    <tag k="ele" v="-0.9742732667917233"/>
    <tag k="local_x" v="-9.982368397265587"/>
    <tag k="local_y" v="-34.698459149487675"/>
  </node>
  <node id="124" visible="true" version="1" lat="0.00000000000" lon="0.00000000000">
    <tag k="ele" v="-0.9742732667917233"/>
    <tag k="local_x" v="-10.957795475538228"/>
    <tag k="local_y" v="-36.35415064446019"/>
  </node>
  <node id="125" visible="true" version="1" lat="0.00000000000" lon="0.00000000000">
    <tag k="ele" v="-0.937523142744894"/>
    <tag k="local_x" v="-11.706843475886483"/>
    <tag k="local_y" v="-38.2040101352842"/>
  </node>
  <node id="126" visible="true" version="1" lat="0.00000000000" lon="0.00000000000">
    <tag k="ele" v="-0.8340824233107604"/>
    <tag k="local_x" v="-13.20519305677367"/>
    <tag k="local_y" v="-39.58185301235541"/>
  </node>
  <node id="127" visible="true" version="1" lat="0.00000000000" lon="0.00000000000">
    <tag k="ele" v="-0.7963258116442918"/>
    <tag k="local_x" v="-14.341991392841614"/>
    <tag k="local_y" v="-41.08441327279719"/>
  </node>
  <node id="128" visible="true" version="1" lat="0.00000000000" lon="0.00000000000">
    <tag k="ele" v="-0.7213735068583487"/>
    <tag k="local_x" v="-15.205535473575512"/>
    <tag k="local_y" v="-42.939787744744116"/>
  </node>
  <node id="129" visible="true" version="1" lat="0.00000000000" lon="0.00000000000">
    <tag k="ele" v="-0.6409183230349766"/>
    <tag k="local_x" v="-16.428827750772825"/>
    <tag k="local_y" v="-44.537172170033145"/>
  </node>
  <node id="130" visible="true" version="1" lat="0.00000000000" lon="0.00000000000">
    <tag k="ele" v="-0.6381558525369453"/>
    <tag k="local_x" v="-17.64619944124212"/>
    <tag k="local_y" v="-46.079570039538446"/>
  </node>
  <node id="131" visible="true" version="1" lat="0.00000000000" lon="0.00000000000">
    <tag k="ele" v="-0.5485356275325582"/>
    <tag k="local_x" v="-18.550585712902222"/>
    <tag k="local_y" v="-47.95334832272801"/>
  </node>
  <node id="132" visible="true" version="1" lat="0.00000000000" lon="0.00000000000">
    <tag k="ele" v="-0.46698088467980703"/>
    <tag k="local_x" v="-19.748689480752688"/>
    <tag k="local_y" v="-49.65470122367136"/>
  </node>
  <node id="133" visible="true" version="1" lat="0.00000000000" lon="0.00000000000">
    <tag k="ele" v="-0.40857160710166834"/>
    <tag k="local_x" v="-20.826157013702108"/>
    <tag k="local_y" v="-51.36288593018567"/>
  </node>
  <node id="134" visible="true" version="1" lat="0.00000000000" lon="0.00000000000">
    <tag k="ele" v="-0.3728767902841338"/>
    <tag k="local_x" v="-21.883095773484513"/>
    <tag k="local_y" v="-52.98185836472478"/>
  </node>
  <node id="135" visible="true" version="1" lat="0.00000000000" lon="0.00000000000">
    <tag k="ele" v="-0.3140265642753398"/>
    <tag k="local_x" v="-23.07569455359537"/>
    <tag k="local_y" v="-54.498272788716164"/>
  </node>
  <node id="136" visible="true" version="1" lat="0.00000000000" lon="0.00000000000">
    <tag k="ele" v="-0.30441250537017506"/>
    <tag k="local_x" v="-23.954221785099442"/>
    <tag k="local_y" v="-56.34290287209687"/>
  </node>
  <node id="137" visible="true" version="1" lat="0.00000000000" lon="0.00000000000">
    <tag k="ele" v="-0.16412144296588638"/>
    <tag k="local_x" v="-25.239048483469347"/>
    <tag k="local_y" v="-57.888518169066664"/>
  </node>
  <node id="138" visible="true" version="1" lat="0.00000000000" lon="0.00000000000">
    <tag k="ele" v="-0.16533815249389883"/>
    <tag k="local_x" v="-26.085340124044162"/>
    <tag k="local_y" v="-59.79238420350523"/>
  </node>
  <node id="139" visible="true" version="1" lat="0.00000000000" lon="0.00000000000">
    <tag k="ele" v="-0.06107893643242951"/>
    <tag k="local_x" v="-27.565153070808428"/>
    <tag k="local_y" v="-61.25337314034066"/>
  </node>
  <node id="140" visible="true" version="1" lat="0.00000000000" lon="0.00000000000">
    <tag k="ele" v="0.009899845168112265"/>
    <tag k="local_x" v="-28.593376325918804"/>
    <tag k="local_y" v="-63.01959096449368"/>
  </node>
  <node id="141" visible="true" version="1" lat="0.00000000000" lon="0.00000000000">
    <tag k="ele" v="0.036202549353720165"/>
    <tag k="local_x" v="-29.945023249156623"/>
    <tag k="local_y" v="-64.87109232153963"/>
  </node>
  <node id="142" visible="true" version="1" lat="0.00000000000" lon="0.00000000000">
    <tag k="ele" v="0.14305486306481366"/>
    <tag k="local_x" v="-32.170237110936874"/>
    <tag k="local_y" v="-67.39740400482965"/>
  </node>
  <node id="143" visible="true" version="1" lat="0.00000000000" lon="0.00000000000">
    <tag k="ele" v="0.24042420062156766"/>
    <tag k="local_x" v="-33.73452846500312"/>
    <tag k="local_y" v="-71.41157648893451"/>
  </node>
  <node id="144" visible="true" version="1" lat="0.00000000000" lon="0.00000000000">
    <tag k="ele" v="0.02969967472715084"/>
    <tag k="local_x" v="-29.522835578561327"/>
    <tag k="local_y" v="-72.45877020980535"/>
  </node>
  <node id="145" visible="true" version="1" lat="0.00000000000" lon="0.00000000000">
    <tag k="ele" v="-0.18578907081039076"/>
    <tag k="local_x" v="-26.529228839024647"/>
    <tag k="local_y" v="-72.77553151706758"/>
  </node>
  <node id="146" visible="true" version="1" lat="0.00000000000" lon="0.00000000000">
    <tag k="ele" v="-1.437661949202705"/>
    <tag k="local_x" v="-4.127732328569212"/>
    <tag k="local_y" v="-62.51520971702927"/>
  </node>
  <node id="147" visible="true" version="1" lat="0.00000000000" lon="0.00000000000">
    <tag k="ele" v="-1.4507766243750124"/>
    <tag k="local_x" v="-3.123465950308213"/>
    <tag k="local_y" v="-60.9911592713074"/>
  </node>
  <node id="148" visible="true" version="1" lat="0.00000000000" lon="0.00000000000">
    <tag k="ele" v="-1.4487609307866105"/>
    <tag k="local_x" v="-0.9889186778639747"/>
    <tag k="local_y" v="-64.99469532217935"/>
  </node>
  <node id="149" visible="true" version="1" lat="0.00000000000" lon="0.00000000000">
    <tag k="ele" v="-1.5235283854422101"/>
    <tag k="local_x" v="-0.6340076570839017"/>
    <tag k="local_y" v="-62.665255268046145"/>
  </node>
  <node id="150" visible="true" version="1" lat="0.00000000000" lon="0.00000000000">
    <tag k="ele" v="-1.5433282248804951"/>
    <tag k="local_x" v="-0.5369046737007996"/>
    <tag k="local_y" v="-57.94181473748589"/>
  </node>
  <node id="151" visible="true" version="1" lat="0.00000000000" lon="0.00000000000">
    <tag k="ele" v="-1.59177474297923"/>
    <tag k="local_x" v="0.5936598009956167"/>
    <tag k="local_y" v="-56.28210755559775"/>
  </node>
  <node id="152" visible="true" version="1" lat="0.00000000000" lon="0.00000000000">
    <tag k="ele" v="-1.6879795735925127"/>
    <tag k="local_x" v="1.6682118290986654"/>
    <tag k="local_y" v="-54.600405962494214"/>
  </node>
  <node id="153" visible="true" version="1" lat="0.00000000000" lon="0.00000000000">
    <tag k="ele" v="-1.702934508353092"/>
    <tag k="local_x" v="2.3935052958080734"/>
    <tag k="local_y" v="-59.85563223416707"/>
  </node>
  <node id="154" visible="true" version="1" lat="0.00000000000" lon="0.00000000000">
    <tag k="ele" v="-1.7368530258555928"/>
    <tag k="local_x" v="3.5148697927931853"/>
    <tag k="local_y" v="-58.20993850872151"/>
  </node>
  <node id="155" visible="true" version="1" lat="0.00000000000" lon="0.00000000000">
    <tag k="ele" v="-1.7559632779807912"/>
    <tag k="local_x" v="4.592405247054653"/>
    <tag k="local_y" v="-56.52370855293153"/>
  </node>
  <node id="156" visible="true" version="1" lat="0.00000000000" lon="0.00000000000">
    <tag k="ele" v="-2.0703544605027515"/>
    <tag k="local_x" v="8.5332476059295"/>
    <tag k="local_y" v="-44.822735916437104"/>
  </node>
  <node id="157" visible="true" version="1" lat="0.00000000000" lon="0.00000000000">
    <tag k="ele" v="-2.085713338566495"/>
    <tag k="local_x" v="9.520478390383614"/>
    <tag k="local_y" v="-43.14938828066447"/>
  </node>
  <node id="158" visible="true" version="1" lat="0.00000000000" lon="0.00000000000">
    <tag k="ele" v="-2.2776937858508095"/>
    <tag k="local_x" v="10.156308218154063"/>
    <tag k="local_y" v="-41.10428255330994"/>
  </node>
  <node id="159" visible="true" version="1" lat="0.00000000000" lon="0.00000000000">
    <tag k="ele" v="-2.2279261627109297"/>
    <tag k="local_x" v="10.206488201319376"/>
    <tag k="local_y" v="-45.91830239545119"/>
  </node>
  <node id="160" visible="true" version="1" lat="0.00000000000" lon="0.00000000000">
    <tag k="ele" v="-2.3336443362885757"/>
    <tag k="local_x" v="12.531570284070046"/>
    <tag k="local_y" v="-44.93357594113515"/>
  </node>
  <node id="161" visible="true" version="1" lat="0.00000000000" lon="0.00000000000">
    <tag k="ele" v="-2.3871577886553976"/>
    <tag k="local_x" v="13.495003936130711"/>
    <tag k="local_y" v="-43.3072602887318"/>
  </node>
  <node id="162" visible="true" version="1" lat="0.00000000000" lon="0.00000000000">
    <tag k="ele" v="-2.53964424322099"/>
    <tag k="local_x" v="15.377109180182748"/>
    <tag k="local_y" v="-34.979426403133665"/>
  </node>
  <node id="163" visible="true" version="1" lat="0.00000000000" lon="0.00000000000">
    <tag k="ele" v="-2.626675450354251"/>
    <tag k="local_x" v="16.81626936199061"/>
    <tag k="local_y" v="-33.605230768593465"/>
  </node>
  <node id="164" visible="true" version="1" lat="0.00000000000" lon="0.00000000000">
    <tag k="ele" v="-2.6247445246896515"/>
    <tag k="local_x" v="17.369889551556316"/>
    <tag k="local_y" v="-31.614348772759293"/>
  </node>
  <node id="165" visible="true" version="1" lat="0.00000000000" lon="0.00000000000">
    <tag k="ele" v="-2.656078807479907"/>
    <tag k="local_x" v="17.84949051126377"/>
    <tag k="local_y" v="-36.67864109048839"/>
  </node>
  <node id="166" visible="true" version="1" lat="0.00000000000" lon="0.00000000000">
    <tag k="ele" v="-2.722454197776468"/>
    <tag k="local_x" v="18.5364278316248"/>
    <tag k="local_y" v="-34.625551717778464"/>
  </node>
  <node id="167" visible="true" version="1" lat="0.00000000000" lon="0.00000000000">
    <tag k="ele" v="-2.7701004350172145"/>
    <tag k="local_x" v="20.384899191657926"/>
    <tag k="local_y" v="-33.3919080179307"/>
  </node>
  <node id="168" visible="true" version="1" lat="0.00000000000" lon="0.00000000000">
    <tag k="ele" v="-2.6748802563713814"/>
    <tag k="local_x" v="19.49670164842016"/>
    <tag k="local_y" v="-28.219052912991543"/>
  </node>
  <node id="169" visible="true" version="1" lat="0.00000000000" lon="0.00000000000">
    <tag k="ele" v="-2.8750686458705808"/>
    <tag k="local_x" v="21.331557208804405"/>
    <tag k="local_y" v="-26.98903718999374"/>
  </node>
  <node id="170" visible="true" version="1" lat="0.00000000000" lon="0.00000000000">
    <tag k="ele" v="-2.784772377147788"/>
    <tag k="local_x" v="21.21205357239824"/>
    <tag k="local_y" v="-29.247434056782453"/>
  </node>
  <node id="171" visible="true" version="1" lat="0.00000000000" lon="0.00000000000">
    <tag k="ele" v="-2.886378529832405"/>
    <tag k="local_x" v="23.02887639324944"/>
    <tag k="local_y" v="-28.046916004468656"/>
  </node>
  <node id="172" visible="true" version="1" lat="0.00000000000" lon="0.00000000000">
    <tag k="ele" v="-2.9398094160887833"/>
    <tag k="local_x" v="22.98802031454635"/>
    <tag k="local_y" v="-17.506534755446673"/>
  </node>
  <node id="173" visible="true" version="1" lat="0.00000000000" lon="0.00000000000">
    <tag k="ele" v="-2.894890766380177"/>
    <tag k="local_x" v="23.645460044133422"/>
    <tag k="local_y" v="-15.7430998865812"/>
  </node>
  <node id="174" visible="true" version="1" lat="0.00000000000" lon="0.00000000000">
    <tag k="ele" v="-3.2699488028071757"/>
    <tag k="local_x" v="29.72727893590591"/>
    <tag k="local_y" v="-19.39925587447896"/>
  </node>
  <node id="175" visible="true" version="1" lat="0.00000000000" lon="0.00000000000">
    <tag k="ele" v="-3.216004806347341"/>
    <tag k="local_x" v="29.456206769228697"/>
    <tag k="local_y" v="-17.23816593756174"/>
  </node>
  <node id="176" visible="true" version="1" lat="0.00000000000" lon="0.00000000000">
    <tag k="ele" v="-3.3362038913454644"/>
    <tag k="local_x" v="27.715122434177104"/>
    <tag k="local_y" v="-8.665938282808172"/>
  </node>
  <node id="177" visible="true" version="1" lat="0.00000000000" lon="0.00000000000">
    <tag k="ele" v="-3.513933165467038"/>
    <tag k="local_x" v="29.2604605252405"/>
    <tag k="local_y" v="-7.4913446657212575"/>
  </node>
  <node id="178" visible="true" version="1" lat="0.00000000000" lon="0.00000000000">
    <tag k="ele" v="-3.374682955016848"/>
    <tag k="local_x" v="30.619162250832314"/>
    <tag k="local_y" v="-9.418635262529214"/>
  </node>
  <node id="179" visible="true" version="1" lat="0.00000000000" lon="0.00000000000">
    <tag k="ele" v="-3.39686266212189"/>
    <tag k="local_x" v="31.192098378581527"/>
    <tag k="local_y" v="-6.972909324005366"/>
  </node>
  <node id="180" visible="true" version="1" lat="0.00000000000" lon="0.00000000000">
    <tag k="ele" v="-3.0461938262772006"/>
    <tag k="local_x" v="24.504446239155477"/>
    <tag k="local_y" v="-1.5700684919364785"/>
  </node>
  <node id="181" visible="true" version="1" lat="0.00000000000" lon="0.00000000000">
    <tag k="ele" v="-2.9938097739872545"/>
    <tag k="local_x" v="22.805083615885906"/>
    <tag k="local_y" v="-0.44895974339048794"/>
  </node>
  <node id="182" visible="true" version="1" lat="0.00000000000" lon="0.00000000000">
    <tag k="ele" v="-3.1254926499120748"/>
    <tag k="local_x" v="26.707361097981828"/>
    <tag k="local_y" v="0.4663907207073874"/>
  </node>
  <node id="183" visible="true" version="1" lat="0.00000000000" lon="0.00000000000">
    <tag k="ele" v="-3.149142818158418"/>
    <tag k="local_x" v="24.23190451587239"/>
    <tag k="local_y" v="0.9525330747722602"/>
  </node>
  <node id="184" visible="true" version="1" lat="0.00000000000" lon="0.00000000000">
    <tag k="ele" v="-2.4446462777419984"/>
    <tag k="local_x" v="15.351775015664078"/>
    <tag k="local_y" v="5.824970241502113"/>
  </node>
  <node id="185" visible="true" version="1" lat="0.00000000000" lon="0.00000000000">
    <tag k="ele" v="-2.220745175108282"/>
    <tag k="local_x" v="14.161474717321017"/>
    <tag k="local_y" v="7.385430905129148"/>
  </node>
  <node id="186" visible="true" version="1" lat="0.00000000000" lon="0.00000000000">
    <tag k="ele" v="-2.052974917594702"/>
    <tag k="local_x" v="12.359260454585538"/>
    <tag k="local_y" v="6.901040865135204"/>
  </node>
  <node id="187" visible="true" version="1" lat="0.00000000000" lon="0.00000000000">
    <tag k="ele" v="-1.8760053976721276"/>
    <tag k="local_x" v="11.000977861100221"/>
    <tag k="local_y" v="5.779967386290577"/>
  </node>
  <node id="188" visible="true" version="1" lat="0.00000000000" lon="0.00000000000">
    <tag k="ele" v="-2.4684764300169735"/>
    <tag k="local_x" v="17.835804361607586"/>
    <tag k="local_y" v="9.577249310080497"/>
  </node>
  <node id="189" visible="true" version="1" lat="0.00000000000" lon="0.00000000000">
    <tag k="ele" v="-2.2083275407169607"/>
    <tag k="local_x" v="14.752105520679423"/>
    <tag k="local_y" v="10.32671553163577"/>
  </node>
  <node id="190" visible="true" version="1" lat="0.00000000000" lon="0.00000000000">
    <tag k="ele" v="-1.867063827027713"/>
    <tag k="local_x" v="11.572222091300118"/>
    <tag k="local_y" v="10.822847924988737"/>
  </node>
  <node id="191" visible="true" version="1" lat="0.00000000000" lon="0.00000000000">
    <tag k="ele" v="-1.7911150146093173"/>
    <tag k="local_x" v="9.491344145744502"/>
    <tag k="local_y" v="8.372457703622793"/>
  </node>
  <node id="192" visible="true" version="1" lat="0.00000000000" lon="0.00000000000">
    <tag k="ele" v="-1.3844841691421985"/>
    <tag k="local_x" v="8.630901941988698"/>
    <tag k="local_y" v="3.031180529420081"/>
  </node>
  <node id="193" visible="true" version="1" lat="0.00000000000" lon="0.00000000000">
    <tag k="ele" v="-1.1654617504575389"/>
    <tag k="local_x" v="7.205660176490582"/>
    <tag k="local_y" v="1.4942846720132859"/>
  </node>
  <node id="194" visible="true" version="1" lat="0.00000000000" lon="0.00000000000">
    <tag k="ele" v="-0.9556004444689012"/>
    <tag k="local_x" v="4.570702967189707"/>
    <tag k="local_y" v="1.3728946182629616"/>
  </node>
  <node id="195" visible="true" version="1" lat="0.00000000000" lon="0.00000000000">
    <tag k="ele" v="-1.3435656596760168"/>
    <tag k="local_x" v="6.835399637934848"/>
    <tag k="local_y" v="4.770769985624423"/>
  </node>
  <node id="196" visible="true" version="1" lat="0.00000000000" lon="0.00000000000">
    <tag k="ele" v="-1.1650926683785783"/>
    <tag k="local_x" v="5.861880806049188"/>
    <tag k="local_y" v="2.9755871406455814"/>
  </node>
  <node id="197" visible="true" version="1" lat="0.00000000000" lon="0.00000000000">
    <tag k="ele" v="-0.8592984479164163"/>
    <tag k="local_x" v="3.489826544363061"/>
    <tag k="local_y" v="3.055662028981827"/>
  </node>
  <node id="198" visible="true" version="1" lat="0.00000000000" lon="0.00000000000">
    <tag k="ele" v="-2.6347716710259976"/>
    <tag k="local_x" v="17.791120427561836"/>
    <tag k="local_y" v="-30.921325742284402"/>
  </node>
  <node id="199" visible="true" version="1" lat="0.00000000000" lon="0.00000000000">
    <tag k="ele" v="-2.6447988173623433"/>
    <tag k="local_x" v="18.143463735496585"/>
    <tag k="local_y" v="-30.169996200631598"/>
  </node>
  <node id="200" visible="true" version="1" lat="0.00000000000" lon="0.00000000000">
    <tag k="ele" v="-2.6548259636986895"/>
    <tag k="local_x" v="18.497872815114963"/>
    <tag k="local_y" v="-29.42564858823947"/>
  </node>
  <node id="201" visible="true" version="1" lat="0.00000000000" lon="0.00000000000">
    <tag k="ele" v="-2.664853110035035"/>
    <tag k="local_x" v="18.925301006171352"/>
    <tag k="local_y" v="-28.753571345546586"/>
  </node>
  <node id="202" visible="true" version="1" lat="0.00000000000" lon="0.00000000000">
    <tag k="ele" v="-2.773034823443329"/>
    <tag k="local_x" v="20.681940116244185"/>
    <tag k="local_y" v="-32.60232266755288"/>
  </node>
  <node id="203" visible="true" version="1" lat="0.00000000000" lon="0.00000000000">
    <tag k="ele" v="-2.7759692118694437"/>
    <tag k="local_x" v="20.702361881817"/>
    <tag k="local_y" v="-31.670173025186543"/>
  </node>
  <node id="204" visible="true" version="1" lat="0.00000000000" lon="0.00000000000">
    <tag k="ele" v="-2.7789036002955587"/>
    <tag k="local_x" v="20.656978623170712"/>
    <tag k="local_y" v="-30.71836866189429"/>
  </node>
  <node id="205" visible="true" version="1" lat="0.00000000000" lon="0.00000000000">
    <tag k="ele" v="-2.7818379887216733"/>
    <tag k="local_x" v="20.756604475099678"/>
    <tag k="local_y" v="-29.86981914873872"/>
  </node>
  <node id="206" visible="true" version="1" lat="0.00000000000" lon="0.00000000000">
    <tag k="ele" v="-2.881542722892401"/>
    <tag k="local_x" v="22.018532406801295"/>
    <tag k="local_y" v="-26.377720102079063"/>
  </node>
  <node id="207" visible="true" version="1" lat="0.00000000000" lon="0.00000000000">
    <tag k="ele" v="-2.8880167999142214"/>
    <tag k="local_x" v="22.499359762216603"/>
    <tag k="local_y" v="-25.626703710230593"/>
  </node>
  <node id="208" visible="true" version="1" lat="0.00000000000" lon="0.00000000000">
    <tag k="ele" v="-2.8944908769360413"/>
    <tag k="local_x" v="22.807900642066524"/>
    <tag k="local_y" v="-24.760297490461834"/>
  </node>
  <node id="209" visible="true" version="1" lat="0.00000000000" lon="0.00000000000">
    <tag k="ele" v="-2.9009649539578617"/>
    <tag k="local_x" v="22.978016413367264"/>
    <tag k="local_y" v="-23.802810918786278"/>
  </node>
  <node id="210" visible="true" version="1" lat="0.00000000000" lon="0.00000000000">
    <tag k="ele" v="-2.907439030979682"/>
    <tag k="local_x" v="23.04356844313503"/>
    <tag k="local_y" v="-22.778553471217446"/>
  </node>
  <node id="211" visible="true" version="1" lat="0.00000000000" lon="0.00000000000">
    <tag k="ele" v="-2.9139131080015024"/>
    <tag k="local_x" v="23.03841809838602"/>
    <tag k="local_y" v="-21.711834623768826"/>
  </node>
  <node id="212" visible="true" version="1" lat="0.00000000000" lon="0.00000000000">
    <tag k="ele" v="-2.9203871850233227"/>
    <tag k="local_x" v="22.99642674613645"/>
    <tag k="local_y" v="-20.626963852453947"/>
  </node>
  <node id="213" visible="true" version="1" lat="0.00000000000" lon="0.00000000000">
    <tag k="ele" v="-2.9268612620451426"/>
    <tag k="local_x" v="22.95145575340251"/>
    <tag k="local_y" v="-19.548250633286283"/>
  </node>
  <node id="214" visible="true" version="1" lat="0.00000000000" lon="0.00000000000">
    <tag k="ele" v="-2.933335339066963"/>
    <tag k="local_x" v="22.937366487200407"/>
    <tag k="local_y" v="-18.500004442279362"/>
  </node>
  <node id="215" visible="true" version="1" lat="0.00000000000" lon="0.00000000000">
    <tag k="ele" v="-2.9212485546482934"/>
    <tag k="local_x" v="23.860973861113006"/>
    <tag k="local_y" v="-27.471934350862234"/>
  </node>
  <node id="216" visible="true" version="1" lat="0.00000000000" lon="0.00000000000">
    <tag k="ele" v="-2.9561185794641816"/>
    <tag k="local_x" v="24.691976543399655"/>
    <tag k="local_y" v="-26.850003990216337"/>
  </node>
  <node id="217" visible="true" version="1" lat="0.00000000000" lon="0.00000000000">
    <tag k="ele" v="-2.9909886042800697"/>
    <tag k="local_x" v="25.507372583157196"/>
    <tag k="local_y" v="-26.182696540390666"/>
  </node>
  <node id="218" visible="true" version="1" lat="0.00000000000" lon="0.00000000000">
    <tag k="ele" v="-3.025858629095958"/>
    <tag k="local_x" v="26.292650123433422"/>
    <tag k="local_y" v="-25.47158361924494"/>
  </node>
  <node id="219" visible="true" version="1" lat="0.00000000000" lon="0.00000000000">
    <tag k="ele" v="-3.060728653911846"/>
    <tag k="local_x" v="27.033297307276143"/>
    <tag k="local_y" v="-24.71823684463887"/>
  </node>
  <node id="220" visible="true" version="1" lat="0.00000000000" lon="0.00000000000">
    <tag k="ele" v="-3.0955986787277343"/>
    <tag k="local_x" v="27.714802277733167"/>
    <tag k="local_y" v="-23.924227834432163"/>
  </node>
  <node id="221" visible="true" version="1" lat="0.00000000000" lon="0.00000000000">
    <tag k="ele" v="-3.130468703543623"/>
    <tag k="local_x" v="28.32265317785229"/>
    <tag k="local_y" v="-23.091128206484527"/>
  </node>
  <node id="222" visible="true" version="1" lat="0.00000000000" lon="0.00000000000">
    <tag k="ele" v="-3.165338728359511"/>
    <tag k="local_x" v="28.84233815068132"/>
    <tag k="local_y" v="-22.22050957865568"/>
  </node>
  <node id="223" visible="true" version="1" lat="0.00000000000" lon="0.00000000000">
    <tag k="ele" v="-3.2002087531753993"/>
    <tag k="local_x" v="29.259345339268066"/>
    <tag k="local_y" v="-21.313943568805332"/>
  </node>
  <node id="224" visible="true" version="1" lat="0.00000000000" lon="0.00000000000">
    <tag k="ele" v="-3.2350787779912875"/>
    <tag k="local_x" v="29.559162886660328"/>
    <tag k="local_y" v="-20.373001794793186"/>
  </node>
  <node id="225" visible="true" version="1" lat="0.00000000000" lon="0.00000000000">
    <tag k="ele" v="-2.786300515459742"/>
    <tag k="local_x" v="20.84367702753294"/>
    <tag k="local_y" v="4.015316383325284"/>
  </node>
  <node id="226" visible="true" version="1" lat="0.00000000000" lon="0.00000000000">
    <tag k="ele" v="-2.45250591041678"/>
    <tag k="local_x" v="16.861480365125153"/>
    <tag k="local_y" v="2.5149113682975797"/>
  </node>
  <node id="227" visible="true" version="1" lat="0.00000000000" lon="0.00000000000">
    <tag k="ele" v="-2.4793685171207582"/>
    <tag k="local_x" v="16.79875193791615"/>
    <tag k="local_y" v="0.008177752131649285"/>
  </node>
  <node id="228" visible="true" version="1" lat="0.00000000000" lon="0.00000000000">
    <tag k="ele" v="-2.4468522957003542"/>
    <tag k="local_x" v="15.595115614372423"/>
    <tag k="local_y" v="-1.5477177437072145"/>
  </node>
  <node id="229" visible="true" version="1" lat="0.00000000000" lon="0.00000000000">
    <tag k="ele" v="-2.400853831153244"/>
    <tag k="local_x" v="15.87953327185637"/>
    <tag k="local_y" v="4.613042719517118"/>
  </node>
  <node id="230" visible="true" version="1" lat="0.00000000000" lon="0.00000000000">
    <tag k="ele" v="-2.271338580589156"/>
    <tag k="local_x" v="15.193954770680511"/>
    <tag k="local_y" v="3.6191569894670916"/>
  </node>
  <node id="231" visible="true" version="1" lat="0.00000000000" lon="0.00000000000">
    <tag k="ele" v="-2.242275755369503"/>
    <tag k="local_x" v="14.039172383903761"/>
    <tag k="local_y" v="2.161017896005962"/>
  </node>
  <node id="232" visible="true" version="1" lat="0.00000000000" lon="0.00000000000">
    <tag k="ele" v="-2.2639451689889585"/>
    <tag k="local_x" v="13.595504497749852"/>
    <tag k="local_y" v="-0.0471993725169666"/>
  </node>
  <node id="233" visible="true" version="1" lat="0.00000000000" lon="0.00000000000">
    <tag k="ele" v="-2.408637042720243"/>
    <tag k="local_x" v="15.165835653470282"/>
    <tag k="local_y" v="-2.417454036933149"/>
  </node>
  <node id="234" visible="true" version="1" lat="0.00000000000" lon="0.00000000000">
    <tag k="ele" v="-2.3704217897401314"/>
    <tag k="local_x" v="14.603222670168657"/>
    <tag k="local_y" v="-3.220136356124916"/>
  </node>
  <node id="235" visible="true" version="1" lat="0.00000000000" lon="0.00000000000">
    <tag k="ele" v="-2.3322065367600198"/>
    <tag k="local_x" v="13.975377389456561"/>
    <tag k="local_y" v="-3.989809457720992"/>
  </node>
  <node id="236" visible="true" version="1" lat="0.00000000000" lon="0.00000000000">
    <tag k="ele" v="-2.2939912837799086"/>
    <tag k="local_x" v="13.350400536323018"/>
    <tag k="local_y" v="-4.760518098159854"/>
  </node>
  <node id="237" visible="true" version="1" lat="0.00000000000" lon="0.00000000000">
    <tag k="ele" v="-2.2557760307997974"/>
    <tag k="local_x" v="12.796392835757048"/>
    <tag k="local_y" v="-5.566307033879979"/>
  </node>
  <node id="238" visible="true" version="1" lat="0.00000000000" lon="0.00000000000">
    <tag k="ele" v="-2.2215588413360554"/>
    <tag k="local_x" v="13.201775018629514"/>
    <tag k="local_y" v="-0.8080712533269981"/>
  </node>
  <node id="239" visible="true" version="1" lat="0.00000000000" lon="0.00000000000">
    <tag k="ele" v="-2.1791725136831523"/>
    <tag k="local_x" v="12.663293839030365"/>
    <tag k="local_y" v="-1.4884462671382184"/>
  </node>
  <node id="240" visible="true" version="1" lat="0.00000000000" lon="0.00000000000">
    <tag k="ele" v="-2.1367861860302493"/>
    <tag k="local_x" v="12.038834719346434"/>
    <tag k="local_y" v="-2.120838353808996"/>
  </node>
  <node id="241" visible="true" version="1" lat="0.00000000000" lon="0.00000000000">
    <tag k="ele" v="-2.094399858377346"/>
    <tag k="local_x" v="11.387171419971741"/>
    <tag k="local_y" v="-2.7377614531976997"/>
  </node>
  <node id="242" visible="true" version="1" lat="0.00000000000" lon="0.00000000000">
    <tag k="ele" v="-2.052013530724443"/>
    <tag k="local_x" v="10.76707770130031"/>
    <tag k="local_y" v="-3.3717295051626976"/>
  </node>
  <node id="243" visible="true" version="1" lat="0.00000000000" lon="0.00000000000">
    <tag k="ele" v="-2.00962720307154"/>
    <tag k="local_x" v="10.237327323726161"/>
    <tag k="local_y" v="-4.055256449562357"/>
  </node>
  <node id="244" visible="true" version="1" lat="0.00000000000" lon="0.00000000000">
    <tag k="ele" v="-0.44662861981571017"/>
    <tag k="local_x" v="-22.142704422381282"/>
    <tag k="local_y" v="-73.45748869454255"/>
  </node>
  <node id="245" visible="true" version="1" lat="0.00000000000" lon="0.00000000000">
    <tag k="ele" v="-0.45932127846589144"/>
    <tag k="local_x" v="-20.338383876037998"/>
    <tag k="local_y" v="-74.39323058391997"/>
  </node>
  <node id="246" visible="true" version="1" lat="0.00000000000" lon="0.00000000000">
    <tag k="ele" v="-0.24750600571115633"/>
    <tag k="local_x" v="-25.871364017918907"/>
    <tag k="local_y" v="-79.96495345592275"/>
  </node>
  <node id="247" visible="true" version="1" lat="0.00000000000" lon="0.00000000000">
    <tag k="ele" v="-0.4712680140036054"/>
    <tag k="local_x" v="-21.637386656181167"/>
    <tag k="local_y" v="-76.52925300355426"/>
  </node>
  <way id="1" visible="true" version="1">
    <nd ref="58"/>
    <nd ref="59"/>
    <nd ref="60"/>
    <nd ref="61"/>
    <nd ref="62"/>
    <tag k="type" v="virtual"/>
  </way>
  <way id="2" visible="true" version="1">
    <nd ref="63"/>
    <nd ref="64"/>
    <nd ref="65"/>
    <nd ref="66"/>
    <nd ref="67"/>
    <tag k="type" v="virtual"/>
  </way>
  <way id="4" visible="true" version="1">
    <nd ref="68"/>
    <nd ref="69"/>
    <nd ref="70"/>
    <tag k="type" v="virtual"/>
  </way>
  <way id="5" visible="true" version="1">
    <nd ref="71"/>
    <nd ref="72"/>
    <nd ref="73"/>
    <tag k="type" v="virtual"/>
  </way>
  <way id="7" visible="true" version="1">
    <nd ref="74"/>
    <nd ref="75"/>
    <tag k="type" v="virtual"/>
  </way>
  <way id="8" visible="true" version="1">
    <nd ref="76"/>
    <nd ref="77"/>
    <tag k="type" v="virtual"/>
  </way>
  <way id="10" visible="true" version="1">
    <nd ref="78"/>
    <nd ref="79"/>
    <nd ref="80"/>
    <nd ref="81"/>
    <nd ref="82"/>
    <nd ref="83"/>
    <nd ref="84"/>
    <nd ref="85"/>
    <nd ref="86"/>
    <nd ref="87"/>
    <nd ref="88"/>
    <nd ref="89"/>
    <nd ref="90"/>
    <nd ref="91"/>
    <nd ref="92"/>
    <nd ref="93"/>
    <nd ref="94"/>
    <nd ref="95"/>
    <nd ref="96"/>
    <nd ref="97"/>
    <nd ref="98"/>
    <nd ref="99"/>
    <nd ref="100"/>
    <nd ref="101"/>
    <nd ref="102"/>
    <nd ref="103"/>
    <nd ref="104"/>
    <nd ref="105"/>
    <nd ref="106"/>
    <nd ref="107"/>
    <nd ref="108"/>
    <nd ref="109"/>
    <nd ref="110"/>
    <nd ref="111"/>
    <tag k="type" v="virtual"/>
  </way>
  <way id="11" visible="true" version="1">
    <nd ref="112"/>
    <nd ref="113"/>
    <nd ref="114"/>
    <nd ref="115"/>
    <nd ref="116"/>
    <nd ref="117"/>
    <nd ref="118"/>
    <nd ref="119"/>
    <nd ref="120"/>
    <nd ref="121"/>
    <nd ref="122"/>
    <nd ref="123"/>
    <nd ref="124"/>
    <nd ref="125"/>
    <nd ref="126"/>
    <nd ref="127"/>
    <nd ref="128"/>
    <nd ref="129"/>
    <nd ref="130"/>
    <nd ref="131"/>
    <nd ref="132"/>
    <nd ref="133"/>
    <nd ref="134"/>
    <nd ref="135"/>
    <nd ref="136"/>
    <nd ref="137"/>
    <nd ref="138"/>
    <nd ref="139"/>
    <nd ref="140"/>
    <nd ref="141"/>
    <nd ref="142"/>
    <nd ref="143"/>
    <nd ref="144"/>
    <nd ref="145"/>
    <tag k="type" v="virtual"/>
  </way>
  <way id="13" visible="true" version="1">
    <nd ref="146"/>
    <nd ref="147"/>
    <tag k="type" v="virtual"/>
  </way>
  <way id="14" visible="true" version="1">
    <nd ref="148"/>
    <nd ref="149"/>
    <tag k="type" v="virtual"/>
  </way>
  <way id="16" visible="true" version="1">
    <nd ref="150"/>
    <nd ref="151"/>
    <nd ref="152"/>
    <tag k="type" v="virtual"/>
  </way>
  <way id="17" visible="true" version="1">
    <nd ref="153"/>
    <nd ref="154"/>
    <nd ref="155"/>
    <tag k="type" v="virtual"/>
  </way>
  <way id="19" visible="true" version="1">
    <nd ref="156"/>
    <nd ref="157"/>
    <nd ref="158"/>
    <tag k="type" v="virtual"/>
  </way>
  <way id="20" visible="true" version="1">
    <nd ref="159"/>
    <nd ref="160"/>
    <nd ref="161"/>
    <tag k="type" v="virtual"/>
  </way>
  <way id="22" visible="true" version="1">
    <nd ref="162"/>
    <nd ref="163"/>
    <nd ref="164"/>
    <tag k="type" v="virtual"/>
  </way>
  <way id="23" visible="true" version="1">
    <nd ref="165"/>
    <nd ref="166"/>
    <nd ref="167"/>
    <tag k="type" v="virtual"/>
  </way>
  <way id="25" visible="true" version="1">
    <nd ref="168"/>
    <nd ref="169"/>
    <tag k="type" v="virtual"/>
  </way>
  <way id="26" visible="true" version="1">
    <nd ref="170"/>
    <nd ref="171"/>
    <tag k="type" v="virtual"/>
  </way>
  <way id="28" visible="true" version="1">
    <nd ref="172"/>
    <nd ref="173"/>
    <tag k="type" v="virtual"/>
  </way>
  <way id="29" visible="true" version="1">
    <nd ref="174"/>
    <nd ref="175"/>
    <tag k="type" v="virtual"/>
  </way>
  <way id="31" visible="true" version="1">
    <nd ref="176"/>
    <nd ref="177"/>
    <tag k="type" v="virtual"/>
  </way>
  <way id="32" visible="true" version="1">
    <nd ref="178"/>
    <nd ref="179"/>
    <tag k="type" v="virtual"/>
  </way>
  <way id="34" visible="true" version="1">
    <nd ref="180"/>
    <nd ref="181"/>
    <tag k="type" v="virtual"/>
  </way>
  <way id="35" visible="true" version="1">
    <nd ref="182"/>
    <nd ref="183"/>
    <tag k="type" v="virtual"/>
  </way>
  <way id="37" visible="true" version="1">
    <nd ref="184"/>
    <nd ref="185"/>
    <nd ref="186"/>
    <nd ref="187"/>
    <tag k="type" v="virtual"/>
  </way>
  <way id="38" visible="true" version="1">
    <nd ref="188"/>
    <nd ref="189"/>
    <nd ref="190"/>
    <nd ref="191"/>
    <tag k="type" v="virtual"/>
  </way>
  <way id="40" visible="true" version="1">
    <nd ref="192"/>
    <nd ref="193"/>
    <nd ref="194"/>
    <tag k="type" v="virtual"/>
  </way>
  <way id="41" visible="true" version="1">
    <nd ref="195"/>
    <nd ref="196"/>
    <nd ref="197"/>
    <tag k="type" v="virtual"/>
  </way>
  <way id="43" visible="true" version="1">
    <nd ref="164"/>
    <nd ref="198"/>
    <nd ref="199"/>
    <nd ref="200"/>
    <nd ref="201"/>
    <nd ref="168"/>
    <tag k="type" v="virtual"/>
  </way>
  <way id="44" visible="true" version="1">
    <nd ref="167"/>
    <nd ref="202"/>
    <nd ref="203"/>
    <nd ref="204"/>
    <nd ref="205"/>
    <nd ref="170"/>
    <tag k="type" v="virtual"/>
  </way>
  <way id="46" visible="true" version="1">
    <nd ref="169"/>
    <nd ref="206"/>
    <nd ref="207"/>
    <nd ref="208"/>
    <nd ref="209"/>
    <nd ref="210"/>
    <nd ref="211"/>
    <nd ref="212"/>
    <nd ref="213"/>
    <nd ref="214"/>
    <nd ref="172"/>
    <tag k="type" v="virtual"/>
  </way>
  <way id="47" visible="true" version="1">
    <nd ref="171"/>
    <nd ref="215"/>
    <nd ref="216"/>
    <nd ref="217"/>
    <nd ref="218"/>
    <nd ref="219"/>
    <nd ref="220"/>
    <nd ref="221"/>
    <nd ref="222"/>
    <nd ref="223"/>
    <nd ref="224"/>
    <nd ref="174"/>
    <tag k="type" v="virtual"/>
  </way>
  <way id="49" visible="true" version="1">
    <nd ref="225"/>
    <nd ref="226"/>
    <nd ref="227"/>
    <nd ref="228"/>
    <tag k="type" v="virtual"/>
  </way>
  <way id="50" visible="true" version="1">
    <nd ref="229"/>
    <nd ref="230"/>
    <nd ref="231"/>
    <nd ref="232"/>
    <tag k="type" v="virtual"/>
  </way>
  <way id="52" visible="true" version="1">
    <nd ref="228"/>
    <nd ref="233"/>
    <nd ref="234"/>
    <nd ref="235"/>
    <nd ref="236"/>
    <nd ref="237"/>
    <nd ref="74"/>
    <tag k="type" v="virtual"/>
  </way>
  <way id="53" visible="true" version="1">
    <nd ref="232"/>
    <nd ref="238"/>
    <nd ref="239"/>
    <nd ref="240"/>
    <nd ref="241"/>
    <nd ref="242"/>
    <nd ref="243"/>
    <nd ref="76"/>
    <tag k="type" v="virtual"/>
  </way>
  <way id="55" visible="true" version="1">
    <nd ref="244"/>
    <nd ref="245"/>
    <tag k="type" v="virtual"/>
  </way>
  <way id="56" visible="true" version="1">
    <nd ref="246"/>
    <nd ref="247"/>
    <tag k="type" v="virtual"/>
  </way>
  <relation id="3" visible="true" version="1">
    <member type="way" ref="1" role="left"/>
    <member type="way" ref="2" role="right"/>
    <tag k="cloudanalyzer:assumption_status" v="hypothesis"/>
    <tag k="cloudanalyzer:boundary_policy" v="source_span_hypothesis"/>
    <tag k="cloudanalyzer:source_center_curve" v="1"/>
    <tag k="location" v="urban"/>
    <tag k="one_way" v="yes"/>
    <tag k="participant:vehicle" v="yes"/>
    <tag k="speed_limit" v="40"/>
    <tag k="subtype" v="road"/>
    <tag k="type" v="lanelet"/>
  </relation>
  <relation id="6" visible="true" version="1">
    <member type="way" ref="4" role="left"/>
    <member type="way" ref="5" role="right"/>
    <tag k="cloudanalyzer:assumption_status" v="hypothesis"/>
    <tag k="cloudanalyzer:boundary_policy" v="source_span_hypothesis"/>
    <tag k="cloudanalyzer:source_center_curve" v="4"/>
    <tag k="location" v="urban"/>
    <tag k="one_way" v="yes"/>
    <tag k="participant:vehicle" v="yes"/>
    <tag k="speed_limit" v="40"/>
    <tag k="subtype" v="road"/>
    <tag k="type" v="lanelet"/>
  </relation>
  <relation id="9" visible="true" version="1">
    <member type="way" ref="7" role="left"/>
    <member type="way" ref="8" role="right"/>
    <tag k="cloudanalyzer:assumption_status" v="hypothesis"/>
    <tag k="cloudanalyzer:boundary_policy" v="source_span_hypothesis"/>
    <tag k="cloudanalyzer:source_center_curve" v="7"/>
    <tag k="location" v="urban"/>
    <tag k="one_way" v="yes"/>
    <tag k="participant:vehicle" v="yes"/>
    <tag k="speed_limit" v="40"/>
    <tag k="subtype" v="road"/>
    <tag k="type" v="lanelet"/>
  </relation>
  <relation id="12" visible="true" version="1">
    <member type="way" ref="10" role="left"/>
    <member type="way" ref="11" role="right"/>
    <tag k="cloudanalyzer:assumption_status" v="hypothesis"/>
    <tag k="cloudanalyzer:boundary_policy" v="source_span_hypothesis"/>
    <tag k="cloudanalyzer:source_center_curve" v="10"/>
    <tag k="location" v="urban"/>
    <tag k="one_way" v="yes"/>
    <tag k="participant:vehicle" v="yes"/>
    <tag k="speed_limit" v="40"/>
    <tag k="subtype" v="road"/>
    <tag k="type" v="lanelet"/>
  </relation>
  <relation id="15" visible="true" version="1">
    <member type="way" ref="13" role="left"/>
    <member type="way" ref="14" role="right"/>
    <tag k="cloudanalyzer:assumption_status" v="hypothesis"/>
    <tag k="cloudanalyzer:boundary_policy" v="source_span_hypothesis"/>
    <tag k="cloudanalyzer:source_center_curve" v="13"/>
    <tag k="location" v="urban"/>
    <tag k="one_way" v="yes"/>
    <tag k="participant:vehicle" v="yes"/>
    <tag k="speed_limit" v="40"/>
    <tag k="subtype" v="road"/>
    <tag k="type" v="lanelet"/>
  </relation>
  <relation id="18" visible="true" version="1">
    <member type="way" ref="16" role="left"/>
    <member type="way" ref="17" role="right"/>
    <tag k="cloudanalyzer:assumption_status" v="hypothesis"/>
    <tag k="cloudanalyzer:boundary_policy" v="source_span_hypothesis"/>
    <tag k="cloudanalyzer:source_center_curve" v="16"/>
    <tag k="location" v="urban"/>
    <tag k="one_way" v="yes"/>
    <tag k="participant:vehicle" v="yes"/>
    <tag k="speed_limit" v="40"/>
    <tag k="subtype" v="road"/>
    <tag k="type" v="lanelet"/>
  </relation>
  <relation id="21" visible="true" version="1">
    <member type="way" ref="19" role="left"/>
    <member type="way" ref="20" role="right"/>
    <tag k="cloudanalyzer:assumption_status" v="hypothesis"/>
    <tag k="cloudanalyzer:boundary_policy" v="source_span_hypothesis"/>
    <tag k="cloudanalyzer:source_center_curve" v="19"/>
    <tag k="location" v="urban"/>
    <tag k="one_way" v="yes"/>
    <tag k="participant:vehicle" v="yes"/>
    <tag k="speed_limit" v="40"/>
    <tag k="subtype" v="road"/>
    <tag k="type" v="lanelet"/>
  </relation>
  <relation id="24" visible="true" version="1">
    <member type="way" ref="22" role="left"/>
    <member type="way" ref="23" role="right"/>
    <tag k="cloudanalyzer:assumption_status" v="hypothesis"/>
    <tag k="cloudanalyzer:boundary_policy" v="source_span_hypothesis"/>
    <tag k="cloudanalyzer:source_center_curve" v="22"/>
    <tag k="location" v="urban"/>
    <tag k="one_way" v="yes"/>
    <tag k="participant:vehicle" v="yes"/>
    <tag k="speed_limit" v="40"/>
    <tag k="subtype" v="road"/>
    <tag k="type" v="lanelet"/>
  </relation>
  <relation id="27" visible="true" version="1">
    <member type="way" ref="25" role="left"/>
    <member type="way" ref="26" role="right"/>
    <tag k="cloudanalyzer:assumption_status" v="hypothesis"/>
    <tag k="cloudanalyzer:boundary_policy" v="source_span_hypothesis"/>
    <tag k="cloudanalyzer:source_center_curve" v="25"/>
    <tag k="location" v="urban"/>
    <tag k="one_way" v="yes"/>
    <tag k="participant:vehicle" v="yes"/>
    <tag k="speed_limit" v="40"/>
    <tag k="subtype" v="road"/>
    <tag k="type" v="lanelet"/>
  </relation>
  <relation id="30" visible="true" version="1">
    <member type="way" ref="28" role="left"/>
    <member type="way" ref="29" role="right"/>
    <tag k="cloudanalyzer:assumption_status" v="hypothesis"/>
    <tag k="cloudanalyzer:boundary_policy" v="source_span_hypothesis"/>
    <tag k="cloudanalyzer:source_center_curve" v="28"/>
    <tag k="location" v="urban"/>
    <tag k="one_way" v="yes"/>
    <tag k="participant:vehicle" v="yes"/>
    <tag k="speed_limit" v="40"/>
    <tag k="subtype" v="road"/>
    <tag k="type" v="lanelet"/>
  </relation>
  <relation id="33" visible="true" version="1">
    <member type="way" ref="31" role="left"/>
    <member type="way" ref="32" role="right"/>
    <tag k="cloudanalyzer:assumption_status" v="hypothesis"/>
    <tag k="cloudanalyzer:boundary_policy" v="source_span_hypothesis"/>
    <tag k="cloudanalyzer:source_center_curve" v="31"/>
    <tag k="location" v="urban"/>
    <tag k="one_way" v="yes"/>
    <tag k="participant:vehicle" v="yes"/>
    <tag k="speed_limit" v="40"/>
    <tag k="subtype" v="road"/>
    <tag k="type" v="lanelet"/>
  </relation>
  <relation id="36" visible="true" version="1">
    <member type="way" ref="34" role="left"/>
    <member type="way" ref="35" role="right"/>
    <tag k="cloudanalyzer:assumption_status" v="hypothesis"/>
    <tag k="cloudanalyzer:boundary_policy" v="source_span_hypothesis"/>
    <tag k="cloudanalyzer:source_center_curve" v="34"/>
    <tag k="location" v="urban"/>
    <tag k="one_way" v="yes"/>
    <tag k="participant:vehicle" v="yes"/>
    <tag k="speed_limit" v="40"/>
    <tag k="subtype" v="road"/>
    <tag k="type" v="lanelet"/>
  </relation>
  <relation id="39" visible="true" version="1">
    <member type="way" ref="37" role="left"/>
    <member type="way" ref="38" role="right"/>
    <tag k="cloudanalyzer:assumption_status" v="hypothesis"/>
    <tag k="cloudanalyzer:boundary_policy" v="source_span_hypothesis"/>
    <tag k="cloudanalyzer:source_center_curve" v="37"/>
    <tag k="location" v="urban"/>
    <tag k="one_way" v="yes"/>
    <tag k="participant:vehicle" v="yes"/>
    <tag k="speed_limit" v="40"/>
    <tag k="subtype" v="road"/>
    <tag k="type" v="lanelet"/>
  </relation>
  <relation id="42" visible="true" version="1">
    <member type="way" ref="40" role="left"/>
    <member type="way" ref="41" role="right"/>
    <tag k="cloudanalyzer:assumption_status" v="hypothesis"/>
    <tag k="cloudanalyzer:boundary_policy" v="source_span_hypothesis"/>
    <tag k="cloudanalyzer:source_center_curve" v="40"/>
    <tag k="location" v="urban"/>
    <tag k="one_way" v="yes"/>
    <tag k="participant:vehicle" v="yes"/>
    <tag k="speed_limit" v="40"/>
    <tag k="subtype" v="road"/>
    <tag k="type" v="lanelet"/>
  </relation>
  <relation id="45" visible="true" version="1">
    <member type="way" ref="43" role="left"/>
    <member type="way" ref="44" role="right"/>
    <tag k="cloudanalyzer_geometry_source" v="ground_supported_connection"/>
    <tag k="cloudanalyzer_review_required" v="yes"/>
    <tag k="location" v="urban"/>
    <tag k="one_way" v="yes"/>
    <tag k="participant:vehicle" v="yes"/>
    <tag k="speed_limit" v="40"/>
    <tag k="subtype" v="road"/>
    <tag k="turn_direction" v="straight"/>
    <tag k="type" v="lanelet"/>
  </relation>
  <relation id="48" visible="true" version="1">
    <member type="way" ref="46" role="left"/>
    <member type="way" ref="47" role="right"/>
    <tag k="cloudanalyzer_geometry_source" v="ground_supported_connection"/>
    <tag k="cloudanalyzer_review_required" v="yes"/>
    <tag k="location" v="urban"/>
    <tag k="one_way" v="yes"/>
    <tag k="participant:vehicle" v="yes"/>
    <tag k="speed_limit" v="40"/>
    <tag k="subtype" v="road"/>
    <tag k="turn_direction" v="left"/>
    <tag k="type" v="lanelet"/>
  </relation>
  <relation id="51" visible="true" version="1">
    <member type="way" ref="49" role="left"/>
    <member type="way" ref="50" role="right"/>
    <tag k="cloudanalyzer:assumption_status" v="hypothesis"/>
    <tag k="cloudanalyzer:boundary_policy" v="source_span_hypothesis"/>
    <tag k="cloudanalyzer:source_center_curve" v="1"/>
    <tag k="location" v="urban"/>
    <tag k="one_way" v="yes"/>
    <tag k="participant:vehicle" v="yes"/>
    <tag k="speed_limit" v="40"/>
    <tag k="subtype" v="road"/>
    <tag k="type" v="lanelet"/>
  </relation>
  <relation id="54" visible="true" version="1">
    <member type="way" ref="52" role="left"/>
    <member type="way" ref="53" role="right"/>
    <tag k="cloudanalyzer_geometry_source" v="ground_supported_connection"/>
    <tag k="cloudanalyzer_review_required" v="yes"/>
    <tag k="location" v="urban"/>
    <tag k="one_way" v="yes"/>
    <tag k="participant:vehicle" v="yes"/>
    <tag k="speed_limit" v="40"/>
    <tag k="subtype" v="road"/>
    <tag k="turn_direction" v="straight"/>
    <tag k="type" v="lanelet"/>
  </relation>
  <relation id="57" visible="true" version="1">
    <member type="way" ref="55" role="left"/>
    <member type="way" ref="56" role="right"/>
    <tag k="cloudanalyzer:assumption_status" v="hypothesis"/>
    <tag k="cloudanalyzer:boundary_policy" v="source_span_hypothesis"/>
    <tag k="cloudanalyzer:source_center_curve" v="1"/>
    <tag k="location" v="urban"/>
    <tag k="one_way" v="yes"/>
    <tag k="participant:vehicle" v="yes"/>
    <tag k="speed_limit" v="40"/>
    <tag k="subtype" v="road"/>
    <tag k="type" v="lanelet"/>
  </relation>
</osm>
