<?xml version="1.0" encoding="UTF-8"?>
<osm version="0.6" upload="false" generator="vectormap-rs 0.1.0">
  <node id="27" visible="true" version="1" lat="0.00000000000" lon="0.00000000000">
    <tag k="ele" v="28.033749999999998"/>
    <tag k="local_x" v="-9338.577984489091"/>
    <tag k="local_y" v="-40851.15298461335"/>
  </node>
  <node id="28" visible="true" version="1" lat="0.00000000000" lon="0.00000000000">
    <tag k="ele" v="28.0565"/>
    <tag k="local_x" v="-9336.993219833386"/>
    <tag k="local_y" v="-40849.94786459509"/>
  </node>
  <node id="29" visible="true" version="1" lat="0.00000000000" lon="0.00000000000">
    <tag k="ele" v="28.131249999999998"/>
    <tag k="local_x" v="-9335.25109312544"/>
    <tag k="local_y" v="-40848.91882940681"/>
  </node>
  <node id="30" visible="true" version="1" lat="0.00000000000" lon="0.00000000000">
    <tag k="ele" v="28.160749999999997"/>
    <tag k="local_x" v="-9333.429014819869"/>
    <tag k="local_y" v="-40847.972141516206"/>
  </node>
  <node id="31" visible="true" version="1" lat="0.00000000000" lon="0.00000000000">
    <tag k="ele" v="28.075999999999997"/>
    <tag k="local_x" v="-9336.117538251174"/>
    <tag k="local_y" v="-40853.90944215895"/>
  </node>
  <node id="32" visible="true" version="1" lat="0.00000000000" lon="0.00000000000">
    <tag k="ele" v="28.107999999999997"/>
    <tag k="local_x" v="-9334.472619553519"/>
    <tag k="local_y" v="-40852.743095179845"/>
  </node>
  <node id="33" visible="true" version="1" lat="0.00000000000" lon="0.00000000000">
    <tag k="ele" v="28.131249999999998"/>
    <tag k="local_x" v="-9332.743850048128"/>
    <tag k="local_y" v="-40851.6627688375"/>
  </node>
  <node id="34" visible="true" version="1" lat="0.00000000000" lon="0.00000000000">
    <tag k="ele" v="28.160749999999997"/>
    <tag k="local_x" v="-9331.013276407777"/>
    <tag k="local_y" v="-40850.574390556045"/>
  </node>
  <node id="35" visible="true" version="1" lat="0.00000000000" lon="0.00000000000">
    <tag k="ele" v="28.075999999999997"/>
    <tag k="local_x" v="-9333.786716621567"/>
    <tag k="local_y" v="-40856.52068022193"/>
  </node>
  <node id="36" visible="true" version="1" lat="0.00000000000" lon="0.00000000000">
    <tag k="ele" v="28.107999999999997"/>
    <tag k="local_x" v="-9332.128823112243"/>
    <tag k="local_y" v="-40855.34225838292"/>
  </node>
  <node id="37" visible="true" version="1" lat="0.00000000000" lon="0.00000000000">
    <tag k="ele" v="28.131249999999998"/>
    <tag k="local_x" v="-9330.383551012446"/>
    <tag k="local_y" v="-40854.24589197017"/>
  </node>
  <node id="38" visible="true" version="1" lat="0.00000000000" lon="0.00000000000">
    <tag k="ele" v="28.160749999999997"/>
    <tag k="local_x" v="-9328.633621956016"/>
    <tag k="local_y" v="-40853.13776972047"/>
  </node>
  <node id="39" visible="true" version="1" lat="0.00000000000" lon="0.00000000000">
    <tag k="ele" v="28.088749999999997"/>
    <tag k="local_x" v="-9330.54224240191"/>
    <tag k="local_y" v="-40860.15549056912"/>
  </node>
  <node id="40" visible="true" version="1" lat="0.00000000000" lon="0.00000000000">
    <tag k="ele" v="28.115"/>
    <tag k="local_x" v="-9328.952839307407"/>
    <tag k="local_y" v="-40858.86427936295"/>
  </node>
  <node id="41" visible="true" version="1" lat="0.00000000000" lon="0.00000000000">
    <tag k="ele" v="28.14175"/>
    <tag k="local_x" v="-9327.402574871265"/>
    <tag k="local_y" v="-40857.508287247976"/>
  </node>
  <node id="42" visible="true" version="1" lat="0.00000000000" lon="0.00000000000">
    <tag k="ele" v="28.160749999999997"/>
    <tag k="local_x" v="-9325.893429067728"/>
    <tag k="local_y" v="-40856.08952322029"/>
  </node>
  <node id="43" visible="true" version="1" lat="0.00000000000" lon="0.00000000000">
    <tag k="ele" v="28.075999999999997"/>
    <tag k="local_x" v="-9329.082202650883"/>
    <tag k="local_y" v="-40861.79118474792"/>
  </node>
  <node id="44" visible="true" version="1" lat="0.00000000000" lon="0.00000000000">
    <tag k="ele" v="28.107999999999997"/>
    <tag k="local_x" v="-9327.386157853436"/>
    <tag k="local_y" v="-40860.601657538966"/>
  </node>
  <node id="45" visible="true" version="1" lat="0.00000000000" lon="0.00000000000">
    <tag k="ele" v="28.131249999999998"/>
    <tag k="local_x" v="-9325.506691233235"/>
    <tag k="local_y" v="-40859.5831518343"/>
  </node>
  <node id="46" visible="true" version="1" lat="0.00000000000" lon="0.00000000000">
    <tag k="ele" v="28.113999999999997"/>
    <tag k="local_x" v="-9323.671583250753"/>
    <tag k="local_y" v="-40858.482909902785"/>
  </node>
  <node id="47" visible="true" version="1" lat="0.00000000000" lon="0.00000000000">
    <tag k="ele" v="28.075999999999997"/>
    <tag k="local_x" v="-9326.794658755176"/>
    <tag k="local_y" v="-40864.35393842043"/>
  </node>
  <node id="48" visible="true" version="1" lat="0.00000000000" lon="0.00000000000">
    <tag k="ele" v="28.107999999999997"/>
    <tag k="local_x" v="-9325.097172775191"/>
    <tag k="local_y" v="-40863.14003744389"/>
  </node>
  <node id="49" visible="true" version="1" lat="0.00000000000" lon="0.00000000000">
    <tag k="ele" v="28.131249999999998"/>
    <tag k="local_x" v="-9323.300729201119"/>
    <tag k="local_y" v="-40861.997367774224"/>
  </node>
  <node id="50" visible="true" version="1" lat="0.00000000000" lon="0.00000000000">
    <tag k="ele" v="28.160749999999997"/>
    <tag k="local_x" v="-9321.489681293959"/>
    <tag k="local_y" v="-40860.83326880079"/>
  </node>
  <node id="51" visible="true" version="1" lat="0.00000000000" lon="0.00000000000">
    <tag k="ele" v="28.075999999999997"/>
    <tag k="local_x" v="-9324.434133871573"/>
    <tag k="local_y" v="-40866.99845327578"/>
  </node>
  <node id="52" visible="true" version="1" lat="0.00000000000" lon="0.00000000000">
    <tag k="ele" v="28.107999999999997"/>
    <tag k="local_x" v="-9322.698379582687"/>
    <tag k="local_y" v="-40865.800189532165"/>
  </node>
  <node id="53" visible="true" version="1" lat="0.00000000000" lon="0.00000000000">
    <tag k="ele" v="28.131249999999998"/>
    <tag k="local_x" v="-9320.788100823484"/>
    <tag k="local_y" v="-40864.747200904676"/>
  </node>
  <node id="54" visible="true" version="1" lat="0.00000000000" lon="0.00000000000">
    <tag k="ele" v="28.028499999999998"/>
    <tag k="local_x" v="-9318.909286689688"/>
    <tag k="local_y" v="-40863.61288655566"/>
  </node>
  <node id="55" visible="true" version="1" lat="0.00000000000" lon="0.00000000000">
    <tag k="ele" v="28.221749999999997"/>
    <tag k="local_x" v="-9330.509451298543"/>
    <tag k="local_y" v="-40845.292186642146"/>
  </node>
  <node id="56" visible="true" version="1" lat="0.00000000000" lon="0.00000000000">
    <tag k="ele" v="28.245749999999997"/>
    <tag k="local_x" v="-9329.275793923576"/>
    <tag k="local_y" v="-40843.72304503854"/>
  </node>
  <node id="57" visible="true" version="1" lat="0.00000000000" lon="0.00000000000">
    <tag k="ele" v="28.24"/>
    <tag k="local_x" v="-9328.111270128891"/>
    <tag k="local_y" v="-40842.0943390727"/>
  </node>
  <node id="58" visible="true" version="1" lat="0.00000000000" lon="0.00000000000">
    <tag k="ele" v="28.264"/>
    <tag k="local_x" v="-9326.837561705901"/>
    <tag k="local_y" v="-40840.58375508227"/>
  </node>
  <node id="59" visible="true" version="1" lat="0.00000000000" lon="0.00000000000">
    <tag k="ele" v="28.296249999999997"/>
    <tag k="local_x" v="-9325.495459004056"/>
    <tag k="local_y" v="-40839.144037204656"/>
  </node>
  <node id="60" visible="true" version="1" lat="0.00000000000" lon="0.00000000000">
    <tag k="ele" v="28.3295"/>
    <tag k="local_x" v="-9324.133235341038"/>
    <tag k="local_y" v="-40837.72412657534"/>
  </node>
  <node id="61" visible="true" version="1" lat="0.00000000000" lon="0.00000000000">
    <tag k="ele" v="28.345249999999997"/>
    <tag k="local_x" v="-9322.759784914691"/>
    <tag k="local_y" v="-40836.312989910686"/>
  </node>
  <node id="62" visible="true" version="1" lat="0.00000000000" lon="0.00000000000">
    <tag k="ele" v="28.380499999999998"/>
    <tag k="local_x" v="-9321.371532715777"/>
    <tag k="local_y" v="-40834.91273261307"/>
  </node>
  <node id="63" visible="true" version="1" lat="0.00000000000" lon="0.00000000000">
    <tag k="ele" v="28.418499999999998"/>
    <tag k="local_x" v="-9320.03735353956"/>
    <tag k="local_y" v="-40833.46330114387"/>
  </node>
  <node id="64" visible="true" version="1" lat="0.00000000000" lon="0.00000000000">
    <tag k="ele" v="28.440749999999998"/>
    <tag k="local_x" v="-9318.744034216177"/>
    <tag k="local_y" v="-40831.979580011095"/>
  </node>
  <node id="65" visible="true" version="1" lat="0.00000000000" lon="0.00000000000">
    <tag k="ele" v="28.46875"/>
    <tag k="local_x" v="-9317.463084578158"/>
    <tag k="local_y" v="-40830.48664126026"/>
  </node>
  <node id="66" visible="true" version="1" lat="0.00000000000" lon="0.00000000000">
    <tag k="ele" v="28.535999999999998"/>
    <tag k="local_x" v="-9316.17498694026"/>
    <tag k="local_y" v="-40828.999125967224"/>
  </node>
  <node id="67" visible="true" version="1" lat="0.00000000000" lon="0.00000000000">
    <tag k="ele" v="28.5615"/>
    <tag k="local_x" v="-9314.91065376959"/>
    <tag k="local_y" v="-40827.48736954656"/>
  </node>
  <node id="68" visible="true" version="1" lat="0.00000000000" lon="0.00000000000">
    <tag k="ele" v="28.542749999999998"/>
    <tag k="local_x" v="-9313.744706996702"/>
    <tag k="local_y" v="-40826.0512074492"/>
  </node>
  <node id="69" visible="true" version="1" lat="0.00000000000" lon="0.00000000000">
    <tag k="ele" v="28.56675"/>
    <tag k="local_x" v="-9312.92049200146"/>
    <tag k="local_y" v="-40825.024312513524"/>
  </node>
  <node id="70" visible="true" version="1" lat="0.00000000000" lon="0.00000000000">
    <tag k="ele" v="28.6375"/>
    <tag k="local_x" v="-9311.908792687738"/>
    <tag k="local_y" v="-40823.75583981209"/>
  </node>
  <node id="71" visible="true" version="1" lat="0.00000000000" lon="0.00000000000">
    <tag k="ele" v="28.221749999999997"/>
    <tag k="local_x" v="-9327.89957831291"/>
    <tag k="local_y" v="-40848.002231698"/>
  </node>
  <node id="72" visible="true" version="1" lat="0.00000000000" lon="0.00000000000">
    <tag k="ele" v="28.245749999999997"/>
    <tag k="local_x" v="-9326.544404117949"/>
    <tag k="local_y" v="-40846.502629117065"/>
  </node>
  <node id="73" visible="true" version="1" lat="0.00000000000" lon="0.00000000000">
    <tag k="ele" v="28.270999999999997"/>
    <tag k="local_x" v="-9325.2852086925"/>
    <tag k="local_y" v="-40844.90959665985"/>
  </node>
  <node id="74" visible="true" version="1" lat="0.00000000000" lon="0.00000000000">
    <tag k="ele" v="28.290999999999997"/>
    <tag k="local_x" v="-9324.081761039439"/>
    <tag k="local_y" v="-40843.268345578465"/>
  </node>
  <node id="75" visible="true" version="1" lat="0.00000000000" lon="0.00000000000">
    <tag k="ele" v="28.318749999999998"/>
    <tag k="local_x" v="-9322.854987914925"/>
    <tag k="local_y" v="-40841.65766920591"/>
  </node>
  <node id="76" visible="true" version="1" lat="0.00000000000" lon="0.00000000000">
    <tag k="ele" v="28.3405"/>
    <tag k="local_x" v="-9321.586124244148"/>
    <tag k="local_y" v="-40840.093033802536"/>
  </node>
  <node id="77" visible="true" version="1" lat="0.00000000000" lon="0.00000000000">
    <tag k="ele" v="28.388749999999998"/>
    <tag k="local_x" v="-9320.276946304255"/>
    <tag k="local_y" v="-40838.56943121"/>
  </node>
  <node id="78" visible="true" version="1" lat="0.00000000000" lon="0.00000000000">
    <tag k="ele" v="28.419249999999998"/>
    <tag k="local_x" v="-9318.92319388549"/>
    <tag k="local_y" v="-40837.0871593333"/>
  </node>
  <node id="79" visible="true" version="1" lat="0.00000000000" lon="0.00000000000">
    <tag k="ele" v="28.444"/>
    <tag k="local_x" v="-9317.52459953095"/>
    <tag k="local_y" v="-40835.64266427766"/>
  </node>
  <node id="80" visible="true" version="1" lat="0.00000000000" lon="0.00000000000">
    <tag k="ele" v="28.474999999999998"/>
    <tag k="local_x" v="-9316.109818973335"/>
    <tag k="local_y" v="-40834.20777857561"/>
  </node>
  <node id="81" visible="true" version="1" lat="0.00000000000" lon="0.00000000000">
    <tag k="ele" v="28.5035"/>
    <tag k="local_x" v="-9314.67404346215"/>
    <tag k="local_y" v="-40832.784486155826"/>
  </node>
  <node id="82" visible="true" version="1" lat="0.00000000000" lon="0.00000000000">
    <tag k="ele" v="28.535999999999998"/>
    <tag k="local_x" v="-9313.203450106907"/>
    <tag k="local_y" v="-40831.38184238721"/>
  </node>
  <node id="83" visible="true" version="1" lat="0.00000000000" lon="0.00000000000">
    <tag k="ele" v="28.5615"/>
    <tag k="local_x" v="-9311.71924184706"/>
    <tag k="local_y" v="-40829.982937348606"/>
  </node>
  <node id="84" visible="true" version="1" lat="0.00000000000" lon="0.00000000000">
    <tag k="ele" v="28.591499999999996"/>
    <tag k="local_x" v="-9310.090083789099"/>
    <tag k="local_y" v="-40828.85548425845"/>
  </node>
  <node id="85" visible="true" version="1" lat="0.00000000000" lon="0.00000000000">
    <tag k="ele" v="28.6175"/>
    <tag k="local_x" v="-9309.266466327683"/>
    <tag k="local_y" v="-40827.77195059505"/>
  </node>
  <node id="86" visible="true" version="1" lat="0.00000000000" lon="0.00000000000">
    <tag k="ele" v="28.6375"/>
    <tag k="local_x" v="-9308.60644661155"/>
    <tag k="local_y" v="-40826.21701468781"/>
  </node>
  <node id="87" visible="true" version="1" lat="0.00000000000" lon="0.00000000000">
    <tag k="ele" v="28.221749999999997"/>
    <tag k="local_x" v="-9325.476021999739"/>
    <tag k="local_y" v="-40850.51880888021"/>
  </node>
  <node id="88" visible="true" version="1" lat="0.00000000000" lon="0.00000000000">
    <tag k="ele" v="28.245749999999997"/>
    <tag k="local_x" v="-9324.095638866584"/>
    <tag k="local_y" v="-40848.994601844905"/>
  </node>
  <node id="89" visible="true" version="1" lat="0.00000000000" lon="0.00000000000">
    <tag k="ele" v="28.270999999999997"/>
    <tag k="local_x" v="-9322.806455038151"/>
    <tag k="local_y" v="-40847.37887420003"/>
  </node>
  <node id="90" visible="true" version="1" lat="0.00000000000" lon="0.00000000000">
    <tag k="ele" v="28.290999999999997"/>
    <tag k="local_x" v="-9321.564866541967"/>
    <tag k="local_y" v="-40845.72020326544"/>
  </node>
  <node id="91" visible="true" version="1" lat="0.00000000000" lon="0.00000000000">
    <tag k="ele" v="28.318749999999998"/>
    <tag k="local_x" v="-9320.288301908722"/>
    <tag k="local_y" v="-40844.101060504116"/>
  </node>
  <node id="92" visible="true" version="1" lat="0.00000000000" lon="0.00000000000">
    <tag k="ele" v="28.3405"/>
    <tag k="local_x" v="-9318.956974759954"/>
    <tag k="local_y" v="-40842.538239754525"/>
  </node>
  <node id="93" visible="true" version="1" lat="0.00000000000" lon="0.00000000000">
    <tag k="ele" v="28.377999999999997"/>
    <tag k="local_x" v="-9317.579706014183"/>
    <tag k="local_y" v="-40841.0207240001"/>
  </node>
  <node id="94" visible="true" version="1" lat="0.00000000000" lon="0.00000000000">
    <tag k="ele" v="28.419249999999998"/>
    <tag k="local_x" v="-9316.175695296224"/>
    <tag k="local_y" v="-40839.527276800865"/>
  </node>
  <node id="95" visible="true" version="1" lat="0.00000000000" lon="0.00000000000">
    <tag k="ele" v="28.49375"/>
    <tag k="local_x" v="-9314.773809777207"/>
    <tag k="local_y" v="-40838.028480699635"/>
  </node>
  <node id="96" visible="true" version="1" lat="0.00000000000" lon="0.00000000000">
    <tag k="ele" v="28.52425"/>
    <tag k="local_x" v="-9313.384362382223"/>
    <tag k="local_y" v="-40836.51315528331"/>
  </node>
  <node id="97" visible="true" version="1" lat="0.00000000000" lon="0.00000000000">
    <tag k="ele" v="28.5035"/>
    <tag k="local_x" v="-9311.954962313781"/>
    <tag k="local_y" v="-40835.02469218993"/>
  </node>
  <node id="98" visible="true" version="1" lat="0.00000000000" lon="0.00000000000">
    <tag k="ele" v="28.535999999999998"/>
    <tag k="local_x" v="-9310.473232175727"/>
    <tag k="local_y" v="-40833.571058089256"/>
  </node>
  <node id="99" visible="true" version="1" lat="0.00000000000" lon="0.00000000000">
    <tag k="ele" v="28.5615"/>
    <tag k="local_x" v="-9308.963237975446"/>
    <tag k="local_y" v="-40832.1380319247"/>
  </node>
  <node id="100" visible="true" version="1" lat="0.00000000000" lon="0.00000000000">
    <tag k="ele" v="28.591499999999996"/>
    <tag k="local_x" v="-9307.313341884159"/>
    <tag k="local_y" v="-40830.98614246505"/>
  </node>
  <node id="101" visible="true" version="1" lat="0.00000000000" lon="0.00000000000">
    <tag k="ele" v="28.6175"/>
    <tag k="local_x" v="-9306.469084452245"/>
    <tag k="local_y" v="-40829.875436901864"/>
  </node>
  <node id="102" visible="true" version="1" lat="0.00000000000" lon="0.00000000000">
    <tag k="ele" v="28.6375"/>
    <tag k="local_x" v="-9305.80010236313"/>
    <tag k="local_y" v="-40828.30852896206"/>
  </node>
  <node id="103" visible="true" version="1" lat="0.00000000000" lon="0.00000000000">
    <tag k="ele" v="28.221749999999997"/>
    <tag k="local_x" v="-9323.009756742364"/>
    <tag k="local_y" v="-40853.0797342601"/>
  </node>
  <node id="104" visible="true" version="1" lat="0.00000000000" lon="0.00000000000">
    <tag k="ele" v="28.245749999999997"/>
    <tag k="local_x" v="-9321.658206811979"/>
    <tag k="local_y" v="-40851.475041406295"/>
  </node>
  <node id="105" visible="true" version="1" lat="0.00000000000" lon="0.00000000000">
    <tag k="ele" v="28.270999999999997"/>
    <tag k="local_x" v="-9320.358664372478"/>
    <tag k="local_y" v="-40849.81730712105"/>
  </node>
  <node id="106" visible="true" version="1" lat="0.00000000000" lon="0.00000000000">
    <tag k="ele" v="28.290999999999997"/>
    <tag k="local_x" v="-9319.091956916165"/>
    <tag k="local_y" v="-40848.12921265433"/>
  </node>
  <node id="107" visible="true" version="1" lat="0.00000000000" lon="0.00000000000">
    <tag k="ele" v="28.318749999999998"/>
    <tag k="local_x" v="-9317.793116163943"/>
    <tag k="local_y" v="-40846.47638616588"/>
  </node>
  <node id="108" visible="true" version="1" lat="0.00000000000" lon="0.00000000000">
    <tag k="ele" v="28.3405"/>
    <tag k="local_x" v="-9316.45211908729"/>
    <tag k="local_y" v="-40844.86784787933"/>
  </node>
  <node id="109" visible="true" version="1" lat="0.00000000000" lon="0.00000000000">
    <tag k="ele" v="28.377999999999997"/>
    <tag k="local_x" v="-9315.07776502259"/>
    <tag k="local_y" v="-40843.294525832454"/>
  </node>
  <node id="110" visible="true" version="1" lat="0.00000000000" lon="0.00000000000">
    <tag k="ele" v="28.544999999999998"/>
    <tag k="local_x" v="-9313.673604072806"/>
    <tag k="local_y" v="-40841.74944227296"/>
  </node>
  <node id="111" visible="true" version="1" lat="0.00000000000" lon="0.00000000000">
    <tag k="ele" v="28.444"/>
    <tag k="local_x" v="-9312.22911987761"/>
    <tag k="local_y" v="-40840.235542487266"/>
  </node>
  <node id="112" visible="true" version="1" lat="0.00000000000" lon="0.00000000000">
    <tag k="ele" v="28.474999999999998"/>
    <tag k="local_x" v="-9310.79469970361"/>
    <tag k="local_y" v="-40838.70366825629"/>
  </node>
  <node id="113" visible="true" version="1" lat="0.00000000000" lon="0.00000000000">
    <tag k="ele" v="28.627249999999997"/>
    <tag k="local_x" v="-9309.391869887957"/>
    <tag k="local_y" v="-40837.13638169274"/>
  </node>
  <node id="114" visible="true" version="1" lat="0.00000000000" lon="0.00000000000">
    <tag k="ele" v="28.639"/>
    <tag k="local_x" v="-9308.027732837943"/>
    <tag k="local_y" v="-40835.53197318268"/>
  </node>
  <node id="115" visible="true" version="1" lat="0.00000000000" lon="0.00000000000">
    <tag k="ele" v="28.741749999999996"/>
    <tag k="local_x" v="-9306.701139581695"/>
    <tag k="local_y" v="-40833.9069104191"/>
  </node>
  <node id="116" visible="true" version="1" lat="0.00000000000" lon="0.00000000000">
    <tag k="ele" v="28.733749999999997"/>
    <tag k="local_x" v="-9305.542475476677"/>
    <tag k="local_y" v="-40832.34496916665"/>
  </node>
  <node id="117" visible="true" version="1" lat="0.00000000000" lon="0.00000000000">
    <tag k="ele" v="28.688249999999996"/>
    <tag k="local_x" v="-9304.735034138386"/>
    <tag k="local_y" v="-40831.17935293942"/>
  </node>
  <node id="118" visible="true" version="1" lat="0.00000000000" lon="0.00000000000">
    <tag k="ele" v="28.710499999999996"/>
    <tag k="local_x" v="-9303.798621919013"/>
    <tag k="local_y" v="-40829.800193757226"/>
  </node>
  <node id="119" visible="true" version="1" lat="0.00000000000" lon="0.00000000000">
    <tag k="ele" v="28.221749999999997"/>
    <tag k="local_x" v="-9320.526303944089"/>
    <tag k="local_y" v="-40855.65850687259"/>
  </node>
  <node id="120" visible="true" version="1" lat="0.00000000000" lon="0.00000000000">
    <tag k="ele" v="28.245749999999997"/>
    <tag k="local_x" v="-9319.146188169418"/>
    <tag k="local_y" v="-40854.03138360594"/>
  </node>
  <node id="121" visible="true" version="1" lat="0.00000000000" lon="0.00000000000">
    <tag k="ele" v="28.270999999999997"/>
    <tag k="local_x" v="-9317.835000323326"/>
    <tag k="local_y" v="-40852.33132336652"/>
  </node>
  <node id="122" visible="true" version="1" lat="0.00000000000" lon="0.00000000000">
    <tag k="ele" v="28.290999999999997"/>
    <tag k="local_x" v="-9316.551861427586"/>
    <tag k="local_y" v="-40850.60367181643"/>
  </node>
  <node id="123" visible="true" version="1" lat="0.00000000000" lon="0.00000000000">
    <tag k="ele" v="28.318749999999998"/>
    <tag k="local_x" v="-9315.220631880673"/>
    <tag k="local_y" v="-40848.925297212"/>
  </node>
  <node id="124" visible="true" version="1" lat="0.00000000000" lon="0.00000000000">
    <tag k="ele" v="28.3405"/>
    <tag k="local_x" v="-9313.828163608418"/>
    <tag k="local_y" v="-40847.30822321488"/>
  </node>
  <node id="125" visible="true" version="1" lat="0.00000000000" lon="0.00000000000">
    <tag k="ele" v="28.377999999999997"/>
    <tag k="local_x" v="-9312.389580931736"/>
    <tag k="local_y" v="-40845.737588211654"/>
  </node>
  <node id="126" visible="true" version="1" lat="0.00000000000" lon="0.00000000000">
    <tag k="ele" v="28.419249999999998"/>
    <tag k="local_x" v="-9310.929833616361"/>
    <tag k="local_y" v="-40844.18624869896"/>
  </node>
  <node id="127" visible="true" version="1" lat="0.00000000000" lon="0.00000000000">
    <tag k="ele" v="28.444"/>
    <tag k="local_x" v="-9309.485059911427"/>
    <tag k="local_y" v="-40842.61552202633"/>
  </node>
  <node id="128" visible="true" version="1" lat="0.00000000000" lon="0.00000000000">
    <tag k="ele" v="28.474999999999998"/>
    <tag k="local_x" v="-9308.076506197618"/>
    <tag k="local_y" v="-40841.0029013522"/>
  </node>
  <node id="129" visible="true" version="1" lat="0.00000000000" lon="0.00000000000">
    <tag k="ele" v="28.5035"/>
    <tag k="local_x" v="-9306.721784455682"/>
    <tag k="local_y" v="-40839.33622096585"/>
  </node>
  <node id="130" visible="true" version="1" lat="0.00000000000" lon="0.00000000000">
    <tag k="ele" v="28.535999999999998"/>
    <tag k="local_x" v="-9305.436106119078"/>
    <tag k="local_y" v="-40837.61006000571"/>
  </node>
  <node id="131" visible="true" version="1" lat="0.00000000000" lon="0.00000000000">
    <tag k="ele" v="28.5615"/>
    <tag k="local_x" v="-9304.23273914867"/>
    <tag k="local_y" v="-40835.83710958886"/>
  </node>
  <node id="132" visible="true" version="1" lat="0.00000000000" lon="0.00000000000">
    <tag k="ele" v="28.660749999999997"/>
    <tag k="local_x" v="-9303.117938334282"/>
    <tag k="local_y" v="-40834.20537252299"/>
  </node>
  <node id="133" visible="true" version="1" lat="0.00000000000" lon="0.00000000000">
    <tag k="ele" v="28.6865"/>
    <tag k="local_x" v="-9302.224318039634"/>
    <tag k="local_y" v="-40833.06728142727"/>
  </node>
  <node id="134" visible="true" version="1" lat="0.00000000000" lon="0.00000000000">
    <tag k="ele" v="28.6375"/>
    <tag k="local_x" v="-9300.989226508698"/>
    <tag k="local_y" v="-40831.89398200362"/>
  </node>
  <node id="135" visible="true" version="1" lat="0.00000000000" lon="0.00000000000">
    <tag k="ele" v="28.221749999999997"/>
    <tag k="local_x" v="-9318.191686925931"/>
    <tag k="local_y" v="-40858.082731094306"/>
  </node>
  <node id="136" visible="true" version="1" lat="0.00000000000" lon="0.00000000000">
    <tag k="ele" v="28.245749999999997"/>
    <tag k="local_x" v="-9316.735174664287"/>
    <tag k="local_y" v="-40856.48493847319"/>
  </node>
  <node id="137" visible="true" version="1" lat="0.00000000000" lon="0.00000000000">
    <tag k="ele" v="28.270999999999997"/>
    <tag k="local_x" v="-9315.36678420584"/>
    <tag k="local_y" v="-40854.79010365417"/>
  </node>
  <node id="138" visible="true" version="1" lat="0.00000000000" lon="0.00000000000">
    <tag k="ele" v="28.290999999999997"/>
    <tag k="local_x" v="-9314.044183756037"/>
    <tag k="local_y" v="-40853.04655084121"/>
  </node>
  <node id="139" visible="true" version="1" lat="0.00000000000" lon="0.00000000000">
    <tag k="ele" v="28.318749999999998"/>
    <tag k="local_x" v="-9312.687075763228"/>
    <tag k="local_y" v="-40851.337150066596"/>
  </node>
  <node id="140" visible="true" version="1" lat="0.00000000000" lon="0.00000000000">
    <tag k="ele" v="28.3405"/>
    <tag k="local_x" v="-9311.278229638623"/>
    <tag k="local_y" v="-40849.67975581796"/>
  </node>
  <node id="141" visible="true" version="1" lat="0.00000000000" lon="0.00000000000">
    <tag k="ele" v="28.377999999999997"/>
    <tag k="local_x" v="-9309.828091592355"/>
    <tag k="local_y" v="-40848.06550848358"/>
  </node>
  <node id="142" visible="true" version="1" lat="0.00000000000" lon="0.00000000000">
    <tag k="ele" v="28.419249999999998"/>
    <tag k="local_x" v="-9308.35261003784"/>
    <tag k="local_y" v="-40846.47514096495"/>
  </node>
  <node id="143" visible="true" version="1" lat="0.00000000000" lon="0.00000000000">
    <tag k="ele" v="28.444"/>
    <tag k="local_x" v="-9306.870641031997"/>
    <tag k="local_y" v="-40844.883061189576"/>
  </node>
  <node id="144" visible="true" version="1" lat="0.00000000000" lon="0.00000000000">
    <tag k="ele" v="28.474999999999998"/>
    <tag k="local_x" v="-9305.375438648869"/>
    <tag k="local_y" v="-40843.2876481477"/>
  </node>
  <node id="145" visible="true" version="1" lat="0.00000000000" lon="0.00000000000">
    <tag k="ele" v="28.5035"/>
    <tag k="local_x" v="-9303.848700777698"/>
    <tag k="local_y" v="-40841.7033071397"/>
  </node>
  <node id="146" visible="true" version="1" lat="0.00000000000" lon="0.00000000000">
    <tag k="ele" v="28.535999999999998"/>
    <tag k="local_x" v="-9302.276060695474"/>
    <tag k="local_y" v="-40840.14393137969"/>
  </node>
  <node id="147" visible="true" version="1" lat="0.00000000000" lon="0.00000000000">
    <tag k="ele" v="28.5615"/>
    <tag k="local_x" v="-9300.6907194881"/>
    <tag k="local_y" v="-40838.606839863016"/>
  </node>
  <node id="148" visible="true" version="1" lat="0.00000000000" lon="0.00000000000">
    <tag k="ele" v="28.591499999999996"/>
    <tag k="local_x" v="-9298.983116169336"/>
    <tag k="local_y" v="-40837.378117084845"/>
  </node>
  <node id="149" visible="true" version="1" lat="0.00000000000" lon="0.00000000000">
    <tag k="ele" v="28.6175"/>
    <tag k="local_x" v="-9298.076938825929"/>
    <tag k="local_y" v="-40836.18589582232"/>
  </node>
  <node id="150" visible="true" version="1" lat="0.00000000000" lon="0.00000000000">
    <tag k="ele" v="28.6375"/>
    <tag k="local_x" v="-9297.381069617872"/>
    <tag k="local_y" v="-40834.583071784786"/>
  </node>
  <node id="151" visible="true" version="1" lat="0.00000000000" lon="0.00000000000">
    <tag k="ele" v="28.221749999999997"/>
    <tag k="local_x" v="-9315.668429500081"/>
    <tag k="local_y" v="-40860.70283611445"/>
  </node>
  <node id="152" visible="true" version="1" lat="0.00000000000" lon="0.00000000000">
    <tag k="ele" v="28.245749999999997"/>
    <tag k="local_x" v="-9314.237774499063"/>
    <tag k="local_y" v="-40859.02640425836"/>
  </node>
  <node id="153" visible="true" version="1" lat="0.00000000000" lon="0.00000000000">
    <tag k="ele" v="28.270999999999997"/>
    <tag k="local_x" v="-9312.874884668867"/>
    <tag k="local_y" v="-40857.272476821134"/>
  </node>
  <node id="154" visible="true" version="1" lat="0.00000000000" lon="0.00000000000">
    <tag k="ele" v="28.290999999999997"/>
    <tag k="local_x" v="-9311.54027237074"/>
    <tag k="local_y" v="-40855.48576090096"/>
  </node>
  <node id="155" visible="true" version="1" lat="0.00000000000" lon="0.00000000000">
    <tag k="ele" v="28.318749999999998"/>
    <tag k="local_x" v="-9310.159966745452"/>
    <tag k="local_y" v="-40853.74286551785"/>
  </node>
  <node id="156" visible="true" version="1" lat="0.00000000000" lon="0.00000000000">
    <tag k="ele" v="28.3405"/>
    <tag k="local_x" v="-9308.722639901041"/>
    <tag k="local_y" v="-40852.056548493594"/>
  </node>
  <node id="157" visible="true" version="1" lat="0.00000000000" lon="0.00000000000">
    <tag k="ele" v="28.377999999999997"/>
    <tag k="local_x" v="-9307.24287157994"/>
    <tag k="local_y" v="-40850.41499555024"/>
  </node>
  <node id="158" visible="true" version="1" lat="0.00000000000" lon="0.00000000000">
    <tag k="ele" v="28.419249999999998"/>
    <tag k="local_x" v="-9305.738265487875"/>
    <tag k="local_y" v="-40848.79700122996"/>
  </node>
  <node id="159" visible="true" version="1" lat="0.00000000000" lon="0.00000000000">
    <tag k="ele" v="28.444"/>
    <tag k="local_x" v="-9304.227536785696"/>
    <tag k="local_y" v="-40847.175479760364"/>
  </node>
  <node id="160" visible="true" version="1" lat="0.00000000000" lon="0.00000000000">
    <tag k="ele" v="28.474999999999998"/>
    <tag k="local_x" v="-9302.70327633876"/>
    <tag k="local_y" v="-40845.54794492478"/>
  </node>
  <node id="161" visible="true" version="1" lat="0.00000000000" lon="0.00000000000">
    <tag k="ele" v="28.5035"/>
    <tag k="local_x" v="-9301.147131888034"/>
    <tag k="local_y" v="-40843.929085113195"/>
  </node>
  <node id="162" visible="true" version="1" lat="0.00000000000" lon="0.00000000000">
    <tag k="ele" v="28.535999999999998"/>
    <tag k="local_x" v="-9299.54515272373"/>
    <tag k="local_y" v="-40842.333700388335"/>
  </node>
  <node id="163" visible="true" version="1" lat="0.00000000000" lon="0.00000000000">
    <tag k="ele" v="28.5615"/>
    <tag k="local_x" v="-9297.93358889836"/>
    <tag k="local_y" v="-40840.76281549162"/>
  </node>
  <node id="164" visible="true" version="1" lat="0.00000000000" lon="0.00000000000">
    <tag k="ele" v="28.591499999999996"/>
    <tag k="local_x" v="-9296.206374264395"/>
    <tag k="local_y" v="-40839.50877529144"/>
  </node>
  <node id="165" visible="true" version="1" lat="0.00000000000" lon="0.00000000000">
    <tag k="ele" v="28.6175"/>
    <tag k="local_x" v="-9295.27955695049"/>
    <tag k="local_y" v="-40838.289382129136"/>
  </node>
  <node id="166" visible="true" version="1" lat="0.00000000000" lon="0.00000000000">
    <tag k="ele" v="28.6375"/>
    <tag k="local_x" v="-9294.574725369452"/>
    <tag k="local_y" v="-40836.67458605903"/>
  </node>
  <way id="1" visible="true" version="1">
    <nd ref="27"/>
    <nd ref="28"/>
    <nd ref="29"/>
    <nd ref="30"/>
    <tag k="subtype" v="solid"/>
    <tag k="type" v="line_thin"/>
  </way>
  <way id="2" visible="true" version="1">
    <nd ref="31"/>
    <nd ref="32"/>
    <nd ref="33"/>
    <nd ref="34"/>
    <tag k="subtype" v="dashed"/>
    <tag k="type" v="line_thin"/>
  </way>
  <way id="3" visible="true" version="1">
    <nd ref="35"/>
    <nd ref="36"/>
    <nd ref="37"/>
    <nd ref="38"/>
    <tag k="subtype" v="dashed"/>
    <tag k="type" v="line_thin"/>
  </way>
  <way id="4" visible="true" version="1">
    <nd ref="39"/>
    <nd ref="40"/>
    <nd ref="41"/>
    <nd ref="42"/>
    <tag k="subtype" v="solid"/>
    <tag k="type" v="line_thin"/>
  </way>
  <way id="5" visible="true" version="1">
    <nd ref="43"/>
    <nd ref="44"/>
    <nd ref="45"/>
    <nd ref="46"/>
    <tag k="subtype" v="dashed"/>
    <tag k="type" v="line_thin"/>
  </way>
  <way id="6" visible="true" version="1">
    <nd ref="47"/>
    <nd ref="48"/>
    <nd ref="49"/>
    <nd ref="50"/>
    <tag k="subtype" v="dashed"/>
    <tag k="type" v="line_thin"/>
  </way>
  <way id="7" visible="true" version="1">
    <nd ref="51"/>
    <nd ref="52"/>
    <nd ref="53"/>
    <nd ref="54"/>
    <tag k="subtype" v="solid"/>
    <tag k="type" v="line_thin"/>
  </way>
  <way id="14" visible="true" version="1">
    <nd ref="55"/>
    <nd ref="56"/>
    <nd ref="57"/>
    <nd ref="58"/>
    <nd ref="59"/>
    <nd ref="60"/>
    <nd ref="61"/>
    <nd ref="62"/>
    <nd ref="63"/>
    <nd ref="64"/>
    <nd ref="65"/>
    <nd ref="66"/>
    <nd ref="67"/>
    <nd ref="68"/>
    <nd ref="69"/>
    <nd ref="70"/>
    <tag k="subtype" v="solid"/>
    <tag k="type" v="line_thin"/>
  </way>
  <way id="15" visible="true" version="1">
    <nd ref="71"/>
    <nd ref="72"/>
    <nd ref="73"/>
    <nd ref="74"/>
    <nd ref="75"/>
    <nd ref="76"/>
    <nd ref="77"/>
    <nd ref="78"/>
    <nd ref="79"/>
    <nd ref="80"/>
    <nd ref="81"/>
    <nd ref="82"/>
    <nd ref="83"/>
    <nd ref="84"/>
    <nd ref="85"/>
    <nd ref="86"/>
    <tag k="subtype" v="dashed"/>
    <tag k="type" v="line_thin"/>
  </way>
  <way id="16" visible="true" version="1">
    <nd ref="87"/>
    <nd ref="88"/>
    <nd ref="89"/>
    <nd ref="90"/>
    <nd ref="91"/>
    <nd ref="92"/>
    <nd ref="93"/>
    <nd ref="94"/>
    <nd ref="95"/>
    <nd ref="96"/>
    <nd ref="97"/>
    <nd ref="98"/>
    <nd ref="99"/>
    <nd ref="100"/>
    <nd ref="101"/>
    <nd ref="102"/>
    <tag k="subtype" v="dashed"/>
    <tag k="type" v="line_thin"/>
  </way>
  <way id="17" visible="true" version="1">
    <nd ref="103"/>
    <nd ref="104"/>
    <nd ref="105"/>
    <nd ref="106"/>
    <nd ref="107"/>
    <nd ref="108"/>
    <nd ref="109"/>
    <nd ref="110"/>
    <nd ref="111"/>
    <nd ref="112"/>
    <nd ref="113"/>
    <nd ref="114"/>
    <nd ref="115"/>
    <nd ref="116"/>
    <nd ref="117"/>
    <nd ref="118"/>
    <tag k="subtype" v="solid"/>
    <tag k="type" v="line_thin"/>
  </way>
  <way id="18" visible="true" version="1">
    <nd ref="119"/>
    <nd ref="120"/>
    <nd ref="121"/>
    <nd ref="122"/>
    <nd ref="123"/>
    <nd ref="124"/>
    <nd ref="125"/>
    <nd ref="126"/>
    <nd ref="127"/>
    <nd ref="128"/>
    <nd ref="129"/>
    <nd ref="130"/>
    <nd ref="131"/>
    <nd ref="132"/>
    <nd ref="133"/>
    <nd ref="134"/>
    <tag k="subtype" v="dashed"/>
    <tag k="type" v="line_thin"/>
  </way>
  <way id="19" visible="true" version="1">
    <nd ref="135"/>
    <nd ref="136"/>
    <nd ref="137"/>
    <nd ref="138"/>
    <nd ref="139"/>
    <nd ref="140"/>
    <nd ref="141"/>
    <nd ref="142"/>
    <nd ref="143"/>
    <nd ref="144"/>
    <nd ref="145"/>
    <nd ref="146"/>
    <nd ref="147"/>
    <nd ref="148"/>
    <nd ref="149"/>
    <nd ref="150"/>
    <tag k="subtype" v="dashed"/>
    <tag k="type" v="line_thin"/>
  </way>
  <way id="20" visible="true" version="1">
    <nd ref="151"/>
    <nd ref="152"/>
    <nd ref="153"/>
    <nd ref="154"/>
    <nd ref="155"/>
    <nd ref="156"/>
    <nd ref="157"/>
    <nd ref="158"/>
    <nd ref="159"/>
    <nd ref="160"/>
    <nd ref="161"/>
    <nd ref="162"/>
    <nd ref="163"/>
    <nd ref="164"/>
    <nd ref="165"/>
    <nd ref="166"/>
    <tag k="subtype" v="solid"/>
    <tag k="type" v="line_thin"/>
  </way>
  <relation id="8" visible="true" version="1">
    <member type="way" ref="1" role="left"/>
    <member type="way" ref="2" role="right"/>
    <tag k="location" v="urban"/>
    <tag k="one_way" v="yes"/>
    <tag k="participant:vehicle" v="yes"/>
    <tag k="speed_limit" v="40"/>
    <tag k="subtype" v="road"/>
    <tag k="type" v="lanelet"/>
  </relation>
  <relation id="9" visible="true" version="1">
    <member type="way" ref="2" role="left"/>
    <member type="way" ref="3" role="right"/>
    <tag k="location" v="urban"/>
    <tag k="one_way" v="yes"/>
    <tag k="participant:vehicle" v="yes"/>
    <tag k="speed_limit" v="40"/>
    <tag k="subtype" v="road"/>
    <tag k="type" v="lanelet"/>
  </relation>
  <relation id="10" visible="true" version="1">
    <member type="way" ref="3" role="left"/>
    <member type="way" ref="4" role="right"/>
    <tag k="location" v="urban"/>
    <tag k="one_way" v="yes"/>
    <tag k="participant:vehicle" v="yes"/>
    <tag k="speed_limit" v="40"/>
    <tag k="subtype" v="road"/>
    <tag k="type" v="lanelet"/>
  </relation>
  <relation id="11" visible="true" version="1">
    <member type="way" ref="5" role="left"/>
    <member type="way" ref="4" role="right"/>
    <tag k="location" v="urban"/>
    <tag k="one_way" v="yes"/>
    <tag k="participant:vehicle" v="yes"/>
    <tag k="speed_limit" v="40"/>
    <tag k="subtype" v="road"/>
    <tag k="type" v="lanelet"/>
  </relation>
  <relation id="12" visible="true" version="1">
    <member type="way" ref="6" role="left"/>
    <member type="way" ref="5" role="right"/>
    <tag k="location" v="urban"/>
    <tag k="one_way" v="yes"/>
    <tag k="participant:vehicle" v="yes"/>
    <tag k="speed_limit" v="40"/>
    <tag k="subtype" v="road"/>
    <tag k="type" v="lanelet"/>
  </relation>
  <relation id="13" visible="true" version="1">
    <member type="way" ref="7" role="left"/>
    <member type="way" ref="6" role="right"/>
    <tag k="location" v="urban"/>
    <tag k="one_way" v="yes"/>
    <tag k="participant:vehicle" v="yes"/>
    <tag k="speed_limit" v="40"/>
    <tag k="subtype" v="road"/>
    <tag k="type" v="lanelet"/>
  </relation>
  <relation id="21" visible="true" version="1">
    <member type="way" ref="14" role="left"/>
    <member type="way" ref="15" role="right"/>
    <tag k="location" v="urban"/>
    <tag k="one_way" v="yes"/>
    <tag k="participant:vehicle" v="yes"/>
    <tag k="speed_limit" v="40"/>
    <tag k="subtype" v="road"/>
    <tag k="type" v="lanelet"/>
  </relation>
  <relation id="22" visible="true" version="1">
    <member type="way" ref="15" role="left"/>
    <member type="way" ref="16" role="right"/>
    <tag k="location" v="urban"/>
    <tag k="one_way" v="yes"/>
    <tag k="participant:vehicle" v="yes"/>
    <tag k="speed_limit" v="40"/>
    <tag k="subtype" v="road"/>
    <tag k="type" v="lanelet"/>
  </relation>
  <relation id="23" visible="true" version="1">
    <member type="way" ref="16" role="left"/>
    <member type="way" ref="17" role="right"/>
    <tag k="location" v="urban"/>
    <tag k="one_way" v="yes"/>
    <tag k="participant:vehicle" v="yes"/>
    <tag k="speed_limit" v="40"/>
    <tag k="subtype" v="road"/>
    <tag k="type" v="lanelet"/>
  </relation>
  <relation id="24" visible="true" version="1">
    <member type="way" ref="18" role="left"/>
    <member type="way" ref="17" role="right"/>
    <tag k="location" v="urban"/>
    <tag k="one_way" v="yes"/>
    <tag k="participant:vehicle" v="yes"/>
    <tag k="speed_limit" v="40"/>
    <tag k="subtype" v="road"/>
    <tag k="type" v="lanelet"/>
  </relation>
  <relation id="25" visible="true" version="1">
    <member type="way" ref="19" role="left"/>
    <member type="way" ref="18" role="right"/>
    <tag k="location" v="urban"/>
    <tag k="one_way" v="yes"/>
    <tag k="participant:vehicle" v="yes"/>
    <tag k="speed_limit" v="40"/>
    <tag k="subtype" v="road"/>
    <tag k="type" v="lanelet"/>
  </relation>
  <relation id="26" visible="true" version="1">
    <member type="way" ref="20" role="left"/>
    <member type="way" ref="19" role="right"/>
    <tag k="location" v="urban"/>
    <tag k="one_way" v="yes"/>
    <tag k="participant:vehicle" v="yes"/>
    <tag k="speed_limit" v="40"/>
    <tag k="subtype" v="road"/>
    <tag k="type" v="lanelet"/>
  </relation>
</osm>
